{"type":"FeatureCollection","features":[{"type":"Feature","properties":{"CUDIS":"2800101","NMUN":"Acebeda, La","NCA":"Comunidad de Madrid"},"geometry":{"type":"MultiPolygon","coordinates":[[[[-3.6432,41.1206],[-3.6761,41.0867],[-3.6281,41.0689],[-3.6161,41.0699],[-3.6091,41.0764],[-3.5998,41.0961],[-3.6432,41.1206]]]]}},{"type":"Feature","properties":{"CUDIS":"2800201","NMUN":"Ajalvir","NCA":"Comunidad de Madrid"},"geometry":{"type":"MultiPolygon","coordinates":[[[[-3.4351,40.5089],[-3.481,40.5621],[-3.5122,40.5386],[-3.4796,40.4946],[-3.4351,40.5089]]]]}},{"type":"Feature","properties":{"CUDIS":"2800301","NMUN":"Alameda del Valle","NCA":"Comunidad de Madrid"},"geometry":{"type":"MultiPolygon","coordinates":[[[[-3.8087,40.8882],[-3.8808,40.9728],[-3.8905,40.9691],[-3.8987,40.9583],[-3.8194,40.8605],[-3.8087,40.8882]]]]}},{"type":"Feature","properties":{"CUDIS":"2800401","NMUN":"Álamo, El","NCA":"Comunidad de Madrid"},"geometry":{"type":"MultiPolygon","coordinates":[[[[-4.0238,40.249],[-3.9529,40.2123],[-3.9464,40.2246],[-4.0238,40.249]]]]}},{"type":"Feature","properties":{"CUDIS":"2800501","NMUN":"Alcalá de Henares","NCA":"Comunidad de Madrid"},"geometry":{"type":"MultiPolygon","coordinates":[[[[-3.362,40.476],[-3.3617,40.4907],[-3.3651,40.4896],[-3.3735,40.4868],[-3.362,40.476]]]]}},{"type":"Feature","properties":{"CUDIS":"2800502","NMUN":"Alcalá de Henares","NCA":"Comunidad de Madrid"},"geometry":{"type":"MultiPolygon","coordinates":[[[[-3.3481,40.4534],[-3.362,40.476],[-3.3735,40.4868],[-3.4294,40.4689],[-3.4322,40.468],[-3.4474,40.4463],[-3.4268,40.4532],[-3.4087,40.4535],[-3.3481,40.4534]]]]}},{"type":"Feature","properties":{"CUDIS":"2800503","NMUN":"Alcalá de Henares","NCA":"Comunidad de Madrid"},"geometry":{"type":"MultiPolygon","coordinates":[[[[-3.4294,40.4689],[-3.3735,40.4868],[-3.3651,40.4896],[-3.3819,40.5281],[-3.4158,40.5454],[-3.4291,40.5109],[-3.4294,40.4689]]]]}},{"type":"Feature","properties":{"CUDIS":"2800504","NMUN":"Alcalá de Henares","NCA":"Comunidad de Madrid"},"geometry":{"type":"MultiPolygon","coordinates":[[[[-3.3819,40.5281],[-3.3651,40.4896],[-3.3617,40.4907],[-3.3028,40.5316],[-3.3499,40.5316],[-3.3819,40.5281]]]]}},{"type":"Feature","properties":{"CUDIS":"2800505","NMUN":"Alcalá de Henares","NCA":"Comunidad de Madrid"},"geometry":{"type":"MultiPolygon","coordinates":[[[[-3.3617,40.4907],[-3.362,40.476],[-3.3481,40.4534],[-3.3213,40.472],[-3.2987,40.4944],[-3.2898,40.5317],[-3.3028,40.5316],[-3.3617,40.4907]]]]}},{"type":"Feature","properties":{"CUDIS":"2800601","NMUN":"Alcobendas","NCA":"Comunidad de Madrid"},"geometry":{"type":"MultiPolygon","coordinates":[[[[-3.6581,40.5115],[-3.6023,40.5013],[-3.5543,40.5113],[-3.5531,40.5322],[-3.6262,40.5403],[-3.6731,40.5869],[-3.6581,40.5115]]]]}},{"type":"Feature","properties":{"CUDIS":"2800701","NMUN":"Alcorcón","NCA":"Comunidad de Madrid"},"geometry":{"type":"MultiPolygon","coordinates":[[[[-3.8543,40.332],[-3.8535,40.3326],[-3.8253,40.3434],[-3.8235,40.3509],[-3.8069,40.3664],[-3.8352,40.3963],[-3.8378,40.403],[-3.8676,40.3777],[-3.8709,40.3531],[-3.8543,40.332]]]]}},{"type":"Feature","properties":{"CUDIS":"2800702","NMUN":"Alcorcón","NCA":"Comunidad de Madrid"},"geometry":{"type":"MultiPolygon","coordinates":[[[[-3.8235,40.3509],[-3.8022,40.3417],[-3.7944,40.3572],[-3.7878,40.3587],[-3.8069,40.3664],[-3.8235,40.3509]]]]}},{"type":"Feature","properties":{"CUDIS":"2800703","NMUN":"Alcorcón","NCA":"Comunidad de Madrid"},"geometry":{"type":"MultiPolygon","coordinates":[[[[-3.8253,40.3434],[-3.8108,40.3358],[-3.8008,40.3413],[-3.8022,40.3417],[-3.8235,40.3509],[-3.8253,40.3434]]]]}},{"type":"Feature","properties":{"CUDIS":"2800704","NMUN":"Alcorcón","NCA":"Comunidad de Madrid"},"geometry":{"type":"MultiPolygon","coordinates":[[[[-3.844,40.3242],[-3.8181,40.3278],[-3.8108,40.3358],[-3.8253,40.3434],[-3.8535,40.3326],[-3.844,40.3242]]]]}},{"type":"Feature","properties":{"CUDIS":"2800801","NMUN":"Aldea del Fresno","NCA":"Comunidad de Madrid"},"geometry":{"type":"MultiPolygon","coordinates":[[[[-4.188,40.3379],[-4.2316,40.3341],[-4.2364,40.3265],[-4.295,40.3226],[-4.2315,40.2767],[-4.2262,40.27],[-4.1725,40.2881],[-4.1697,40.3184],[-4.188,40.3379]]]]}},{"type":"Feature","properties":{"CUDIS":"2800901","NMUN":"Algete","NCA":"Comunidad de Madrid"},"geometry":{"type":"MultiPolygon","coordinates":[[[[-3.5396,40.5823],[-3.4661,40.5955],[-3.4539,40.6073],[-3.4907,40.6251],[-3.5592,40.6505],[-3.5937,40.6548],[-3.5918,40.6492],[-3.5846,40.6274],[-3.5396,40.5823]]]]}},{"type":"Feature","properties":{"CUDIS":"2801001","NMUN":"Alpedrete","NCA":"Comunidad de Madrid"},"geometry":{"type":"MultiPolygon","coordinates":[[[[-4.026,40.6328],[-3.9953,40.6811],[-4.0451,40.6625],[-4.026,40.6328]]]]}},{"type":"Feature","properties":{"CUDIS":"2801101","NMUN":"Ambite","NCA":"Comunidad de Madrid"},"geometry":{"type":"MultiPolygon","coordinates":[[[[-3.1501,40.3734],[-3.1768,40.3742],[-3.2045,40.344],[-3.2163,40.3129],[-3.1821,40.3046],[-3.1436,40.3579],[-3.1501,40.3734]]]]}},{"type":"Feature","properties":{"CUDIS":"2801201","NMUN":"Anchuelo","NCA":"Comunidad de Madrid"},"geometry":{"type":"MultiPolygon","coordinates":[[[[-3.2582,40.4842],[-3.2987,40.4944],[-3.3213,40.472],[-3.2674,40.4393],[-3.2352,40.4444],[-3.2582,40.4842]]]]}},{"type":"Feature","properties":{"CUDIS":"2801301","NMUN":"Aranjuez","NCA":"Comunidad de Madrid"},"geometry":{"type":"MultiPolygon","coordinates":[[[[-3.6029,40.0319],[-3.5777,40.0348],[-3.6017,40.0369],[-3.6029,40.0319]]]]}},{"type":"Feature","properties":{"CUDIS":"2801302","NMUN":"Aranjuez","NCA":"Comunidad de Madrid"},"geometry":{"type":"MultiPolygon","coordinates":[[[[-3.6002,40.0219],[-3.5777,40.0348],[-3.6029,40.0319],[-3.6002,40.0219]]]]}},{"type":"Feature","properties":{"CUDIS":"2801303","NMUN":"Aranjuez","NCA":"Comunidad de Madrid"},"geometry":{"type":"MultiPolygon","coordinates":[[[[-3.6029,40.0319],[-3.6191,40.0317],[-3.6169,40.0187],[-3.6002,40.0219],[-3.6029,40.0319]]]]}},{"type":"Feature","properties":{"CUDIS":"2801304","NMUN":"Aranjuez","NCA":"Comunidad de Madrid"},"geometry":{"type":"MultiPolygon","coordinates":[[[[-3.5809,40.099],[-3.5576,40.1252],[-3.5837,40.1285],[-3.6067,40.1092],[-3.6679,40.0287],[-3.7157,40.0034],[-3.7394,39.9615],[-3.822,39.9466],[-3.8674,39.9321],[-3.8731,39.909],[-3.8149,39.8858],[-3.8045,39.8848],[-3.7439,39.9408],[-3.666,39.9635],[-3.631,39.9687],[-3.6156,39.994],[-3.5507,40.0177],[-3.5199,40.0209],[-3.5172,40.0365],[-3.5152,40.0433],[-3.5809,40.099]],[[-3.6029,40.0319],[-3.6017,40.0369],[-3.5777,40.0348],[-3.6002,40.0219],[-3.6169,40.0187],[-3.6191,40.0317],[-3.6029,40.0319]]]]}},{"type":"Feature","properties":{"CUDIS":"2801401","NMUN":"Arganda del Rey","NCA":"Comunidad de Madrid"},"geometry":{"type":"MultiPolygon","coordinates":[[[[-3.4827,40.2569],[-3.447,40.2575],[-3.4233,40.2547],[-3.3697,40.2653],[-3.4262,40.3497],[-3.4535,40.3433],[-3.4716,40.3381],[-3.5198,40.2943],[-3.4827,40.2569]]]]}},{"type":"Feature","properties":{"CUDIS":"2801501","NMUN":"Arroyomolinos","NCA":"Comunidad de Madrid"},"geometry":{"type":"MultiPolygon","coordinates":[[[[-3.9434,40.2619],[-3.877,40.2883],[-3.9215,40.3026],[-3.9418,40.2972],[-3.9415,40.2927],[-3.9421,40.2917],[-3.9434,40.2619]]]]}},{"type":"Feature","properties":{"CUDIS":"2801601","NMUN":"Atazar, El","NCA":"Comunidad de Madrid"},"geometry":{"type":"MultiPolygon","coordinates":[[[[-3.4513,40.9129],[-3.4216,40.9673],[-3.4842,40.9626],[-3.5026,40.9246],[-3.4971,40.9098],[-3.4513,40.9129]]]]}},{"type":"Feature","properties":{"CUDIS":"2801701","NMUN":"Batres","NCA":"Comunidad de Madrid"},"geometry":{"type":"MultiPolygon","coordinates":[[[[-3.9369,40.2497],[-3.9464,40.2246],[-3.9529,40.2123],[-3.9563,40.1991],[-3.9492,40.1995],[-3.9387,40.2036],[-3.9251,40.2001],[-3.9041,40.2347],[-3.9369,40.2497]]]]}},{"type":"Feature","properties":{"CUDIS":"2801801","NMUN":"Becerril de la Sierra","NCA":"Comunidad de Madrid"},"geometry":{"type":"MultiPolygon","coordinates":[[[[-3.83,40.6807],[-3.8739,40.6811],[-3.8734,40.6571],[-3.8797,40.6515],[-3.8657,40.646],[-3.8404,40.666],[-3.832,40.677],[-3.83,40.6807]]],[[[-3.9192,40.6728],[-3.9066,40.6732],[-3.9074,40.6776],[-3.9159,40.6753],[-3.9192,40.6728]]],[[[-3.906,40.6822],[-3.9151,40.6759],[-3.9037,40.6806],[-3.906,40.6822]]],[[[-3.9975,40.6904],[-3.9498,40.717],[-3.9515,40.7217],[-3.9686,40.7671],[-4.0049,40.7105],[-3.9975,40.6904]]]]}},{"type":"Feature","properties":{"CUDIS":"2801901","NMUN":"Belmonte de Tajo","NCA":"Comunidad de Madrid"},"geometry":{"type":"MultiPolygon","coordinates":[[[[-3.3484,40.098],[-3.2966,40.1313],[-3.3204,40.178],[-3.3777,40.1336],[-3.3484,40.098]]]]}},{"type":"Feature","properties":{"CUDIS":"2802001","NMUN":"Berzosa del Lozoya","NCA":"Comunidad de Madrid"},"geometry":{"type":"MultiPolygon","coordinates":[[[[-3.4958,40.994],[-3.5624,40.9562],[-3.493,40.9781],[-3.4958,40.994]]]]}},{"type":"Feature","properties":{"CUDIS":"2802101","NMUN":"Berrueco, El","NCA":"Comunidad de Madrid"},"geometry":{"type":"MultiPolygon","coordinates":[[[[-3.5447,40.9045],[-3.5686,40.9042],[-3.5993,40.8887],[-3.571,40.851],[-3.5449,40.8575],[-3.5365,40.8624],[-3.5247,40.8761],[-3.5178,40.9049],[-3.5447,40.9045]]]]}},{"type":"Feature","properties":{"CUDIS":"2802201","NMUN":"Boadilla del Monte","NCA":"Comunidad de Madrid"},"geometry":{"type":"MultiPolygon","coordinates":[[[[-3.949,40.4138],[-3.8676,40.3777],[-3.8378,40.403],[-3.8631,40.4441],[-3.8807,40.4451],[-3.9449,40.4549],[-3.949,40.4138]]]]}},{"type":"Feature","properties":{"CUDIS":"2802301","NMUN":"Boalo, El","NCA":"Comunidad de Madrid"},"geometry":{"type":"MultiPolygon","coordinates":[[[[-3.8739,40.6811],[-3.9037,40.6806],[-3.9151,40.6759],[-3.9159,40.6753],[-3.9074,40.6776],[-3.9066,40.6732],[-3.9192,40.6728],[-3.9278,40.6573],[-3.9182,40.6493],[-3.8734,40.6571],[-3.8739,40.6811]]],[[[-3.9258,40.6789],[-3.9066,40.7387],[-3.9686,40.7671],[-3.9515,40.7217],[-3.9407,40.7126],[-3.9258,40.6789]]]]}},{"type":"Feature","properties":{"CUDIS":"2802401","NMUN":"Braojos","NCA":"Comunidad de Madrid"},"geometry":{"type":"MultiPolygon","coordinates":[[[[-3.6281,41.0689],[-3.6761,41.0867],[-3.6874,41.0849],[-3.7062,41.0769],[-3.6372,41.0291],[-3.6281,41.0689]]]]}},{"type":"Feature","properties":{"CUDIS":"2802501","NMUN":"Brea de Tajo","NCA":"Comunidad de Madrid"},"geometry":{"type":"MultiPolygon","coordinates":[[[[-3.1095,40.2852],[-3.1121,40.2856],[-3.1734,40.2342],[-3.1509,40.2228],[-3.0882,40.2003],[-3.1095,40.2852]]]]}},{"type":"Feature","properties":{"CUDIS":"2802601","NMUN":"Brunete","NCA":"Comunidad de Madrid"},"geometry":{"type":"MultiPolygon","coordinates":[[[[-4.0053,40.3593],[-3.9469,40.408],[-4.026,40.4282],[-4.0465,40.3883],[-4.0352,40.3784],[-4.0053,40.3593]]]]}},{"type":"Feature","properties":{"CUDIS":"2802701","NMUN":"Buitrago del Lozoya","NCA":"Comunidad de Madrid"},"geometry":{"type":"MultiPolygon","coordinates":[[[[-3.618,41.013],[-3.6345,41.0209],[-3.6542,41.0073],[-3.6656,40.9953],[-3.657,40.9764],[-3.6445,40.9537],[-3.6294,40.9615],[-3.5804,40.991],[-3.618,41.013]]]]}},{"type":"Feature","properties":{"CUDIS":"2802801","NMUN":"Bustarviejo","NCA":"Comunidad de Madrid"},"geometry":{"type":"MultiPolygon","coordinates":[[[[-3.694,40.8804],[-3.6958,40.8806],[-3.7894,40.8465],[-3.7227,40.7974],[-3.7014,40.7998],[-3.6711,40.8335],[-3.694,40.8804]]]]}},{"type":"Feature","properties":{"CUDIS":"2802901","NMUN":"Cabanillas de la Sierra","NCA":"Comunidad de Madrid"},"geometry":{"type":"MultiPolygon","coordinates":[[[[-3.6166,40.8411],[-3.6428,40.8518],[-3.653,40.8335],[-3.6596,40.8049],[-3.651,40.8011],[-3.6133,40.8098],[-3.6166,40.8411]]]]}},{"type":"Feature","properties":{"CUDIS":"2803001","NMUN":"Cabrera, La","NCA":"Comunidad de Madrid"},"geometry":{"type":"MultiPolygon","coordinates":[[[[-3.571,40.851],[-3.5993,40.8887],[-3.6504,40.8797],[-3.6428,40.8518],[-3.6166,40.8411],[-3.6047,40.8422],[-3.571,40.851]]]]}},{"type":"Feature","properties":{"CUDIS":"2803101","NMUN":"Cadalso de los Vidrios","NCA":"Comunidad de Madrid"},"geometry":{"type":"MultiPolygon","coordinates":[[[[-4.435,40.2593],[-4.3797,40.318],[-4.4538,40.3331],[-4.4722,40.3195],[-4.4944,40.2785],[-4.435,40.2593]]]]}},{"type":"Feature","properties":{"CUDIS":"2803201","NMUN":"Camarma de Esteruelas","NCA":"Comunidad de Madrid"},"geometry":{"type":"MultiPolygon","coordinates":[[[[-3.3499,40.5316],[-3.3384,40.5968],[-3.3822,40.6082],[-3.3955,40.5746],[-3.4158,40.5454],[-3.3819,40.5281],[-3.3499,40.5316]]]]}},{"type":"Feature","properties":{"CUDIS":"2803301","NMUN":"Campo Real","NCA":"Comunidad de Madrid"},"geometry":{"type":"MultiPolygon","coordinates":[[[[-3.3484,40.2738],[-3.3129,40.3286],[-3.3561,40.3623],[-3.4262,40.3497],[-3.3697,40.2653],[-3.3484,40.2738]]]]}},{"type":"Feature","properties":{"CUDIS":"2803401","NMUN":"Canencia","NCA":"Comunidad de Madrid"},"geometry":{"type":"MultiPolygon","coordinates":[[[[-3.7253,40.935],[-3.7369,40.9417],[-3.7871,40.9133],[-3.8087,40.8882],[-3.8194,40.8605],[-3.7982,40.849],[-3.7894,40.8465],[-3.6958,40.8806],[-3.7253,40.935]]]]}},{"type":"Feature","properties":{"CUDIS":"2803501","NMUN":"Carabaña","NCA":"Comunidad de Madrid"},"geometry":{"type":"MultiPolygon","coordinates":[[[[-3.1973,40.2577],[-3.2521,40.3035],[-3.2851,40.262],[-3.2704,40.2148],[-3.1954,40.2476],[-3.1973,40.2577]]]]}},{"type":"Feature","properties":{"CUDIS":"2803601","NMUN":"Casarrubuelos","NCA":"Comunidad de Madrid"},"geometry":{"type":"MultiPolygon","coordinates":[[[[-3.8409,40.1626],[-3.8068,40.1773],[-3.8534,40.1794],[-3.8409,40.1626]]]]}},{"type":"Feature","properties":{"CUDIS":"2803701","NMUN":"Cenicientos","NCA":"Comunidad de Madrid"},"geometry":{"type":"MultiPolygon","coordinates":[[[[-4.4979,40.2217],[-4.4374,40.2377],[-4.435,40.2593],[-4.4944,40.2785],[-4.556,40.2662],[-4.5692,40.2572],[-4.579,40.2174],[-4.5505,40.2018],[-4.5221,40.2024],[-4.4979,40.2217]]]]}},{"type":"Feature","properties":{"CUDIS":"2803801","NMUN":"Cercedilla","NCA":"Comunidad de Madrid"},"geometry":{"type":"MultiPolygon","coordinates":[[[[-4.0083,40.787],[-4.0215,40.7813],[-4.0701,40.7939],[-4.079,40.7815],[-4.097,40.7477],[-4.0517,40.7143],[-4.0405,40.7187],[-4.0024,40.7884],[-4.0083,40.787]]]]}},{"type":"Feature","properties":{"CUDIS":"2803901","NMUN":"Cervera de Buitrago","NCA":"Comunidad de Madrid"},"geometry":{"type":"MultiPolygon","coordinates":[[[[-3.5026,40.9246],[-3.5497,40.9212],[-3.5447,40.9045],[-3.5178,40.9049],[-3.4971,40.9098],[-3.5026,40.9246]]]]}},{"type":"Feature","properties":{"CUDIS":"2804001","NMUN":"Ciempozuelos","NCA":"Comunidad de Madrid"},"geometry":{"type":"MultiPolygon","coordinates":[[[[-3.6206,40.1601],[-3.6074,40.16],[-3.6131,40.1646],[-3.6206,40.1601]]]]}},{"type":"Feature","properties":{"CUDIS":"2804002","NMUN":"Ciempozuelos","NCA":"Comunidad de Madrid"},"geometry":{"type":"MultiPolygon","coordinates":[[[[-3.5603,40.1901],[-3.5915,40.1963],[-3.6074,40.16],[-3.6206,40.1601],[-3.6379,40.165],[-3.6672,40.1434],[-3.6067,40.1092],[-3.5837,40.1285],[-3.562,40.1711],[-3.5603,40.1901]]]]}},{"type":"Feature","properties":{"CUDIS":"2804003","NMUN":"Ciempozuelos","NCA":"Comunidad de Madrid"},"geometry":{"type":"MultiPolygon","coordinates":[[[[-3.6206,40.1601],[-3.6131,40.1646],[-3.6379,40.165],[-3.6206,40.1601]]]]}},{"type":"Feature","properties":{"CUDIS":"2804101","NMUN":"Cobeña","NCA":"Comunidad de Madrid"},"geometry":{"type":"MultiPolygon","coordinates":[[[[-3.5122,40.5386],[-3.481,40.5621],[-3.4661,40.5955],[-3.5396,40.5823],[-3.5441,40.5698],[-3.5122,40.5386]]]]}},{"type":"Feature","properties":{"CUDIS":"2804201","NMUN":"Colmenar del Arroyo","NCA":"Comunidad de Madrid"},"geometry":{"type":"MultiPolygon","coordinates":[[[[-4.1699,40.4369],[-4.2149,40.4475],[-4.2532,40.4052],[-4.2357,40.3933],[-4.1824,40.3478],[-4.147,40.3647],[-4.1699,40.4369]]]]}},{"type":"Feature","properties":{"CUDIS":"2804301","NMUN":"Colmenar de Oreja","NCA":"Comunidad de Madrid"},"geometry":{"type":"MultiPolygon","coordinates":[[[[-3.345,40.0801],[-3.3484,40.098],[-3.3777,40.1336],[-3.385,40.1353],[-3.4053,40.13],[-3.4247,40.0469],[-3.3942,40.0355],[-3.3764,40.0498],[-3.345,40.0801]]]]}},{"type":"Feature","properties":{"CUDIS":"2804302","NMUN":"Colmenar de Oreja","NCA":"Comunidad de Madrid"},"geometry":{"type":"MultiPolygon","coordinates":[[[[-3.451,40.1182],[-3.5494,40.1019],[-3.5809,40.099],[-3.5152,40.0433],[-3.5106,40.0429],[-3.4731,40.0419],[-3.4247,40.0469],[-3.4053,40.13],[-3.451,40.1182]]]]}},{"type":"Feature","properties":{"CUDIS":"2804401","NMUN":"Colmenarejo","NCA":"Comunidad de Madrid"},"geometry":{"type":"MultiPolygon","coordinates":[[[[-4.0011,40.4856],[-3.9847,40.5165],[-4.0445,40.5833],[-4.0451,40.5773],[-4.0473,40.5707],[-4.0011,40.4856]]]]}},{"type":"Feature","properties":{"CUDIS":"2804501","NMUN":"Colmenar Viejo","NCA":"Comunidad de Madrid"},"geometry":{"type":"MultiPolygon","coordinates":[[[[-3.7104,40.7293],[-3.7335,40.7309],[-3.8006,40.7111],[-3.83,40.6807],[-3.832,40.677],[-3.8404,40.666],[-3.8657,40.646],[-3.8425,40.5926],[-3.8105,40.6095],[-3.668,40.6296],[-3.6258,40.6168],[-3.5846,40.6274],[-3.5918,40.6492],[-3.6393,40.6392],[-3.6771,40.7233],[-3.6758,40.7284],[-3.7104,40.7293]]]]}},{"type":"Feature","properties":{"CUDIS":"2804601","NMUN":"Collado Mediano","NCA":"Comunidad de Madrid"},"geometry":{"type":"MultiPolygon","coordinates":[[[[-4.0451,40.6625],[-3.9953,40.6811],[-3.9975,40.6904],[-4.0049,40.7105],[-4.0405,40.7187],[-4.0517,40.7143],[-4.0614,40.7007],[-4.0451,40.6625]]]]}},{"type":"Feature","properties":{"CUDIS":"2804701","NMUN":"Collado Villalba","NCA":"Comunidad de Madrid"},"geometry":{"type":"MultiPolygon","coordinates":[[[[-4.0297,40.6299],[-3.9581,40.6329],[-3.9953,40.6811],[-4.026,40.6328],[-4.0297,40.6299]]]]}},{"type":"Feature","properties":{"CUDIS":"2804801","NMUN":"Corpa","NCA":"Comunidad de Madrid"},"geometry":{"type":"MultiPolygon","coordinates":[[[[-3.2112,40.4344],[-3.2352,40.4444],[-3.2674,40.4393],[-3.2879,40.4181],[-3.2786,40.3944],[-3.2193,40.403],[-3.2112,40.4344]]]]}},{"type":"Feature","properties":{"CUDIS":"2804901","NMUN":"Coslada","NCA":"Comunidad de Madrid"},"geometry":{"type":"MultiPolygon","coordinates":[[[[-3.5773,40.4265],[-3.5762,40.4131],[-3.5586,40.4276],[-3.5773,40.4265]]]]}},{"type":"Feature","properties":{"CUDIS":"2804902","NMUN":"Coslada","NCA":"Comunidad de Madrid"},"geometry":{"type":"MultiPolygon","coordinates":[[[[-3.5762,40.4131],[-3.5312,40.4201],[-3.5371,40.4252],[-3.5525,40.4269],[-3.5586,40.4276],[-3.5762,40.4131]]]]}},{"type":"Feature","properties":{"CUDIS":"2804903","NMUN":"Coslada","NCA":"Comunidad de Madrid"},"geometry":{"type":"MultiPolygon","coordinates":[[[[-3.5525,40.4269],[-3.5371,40.4252],[-3.528,40.4355],[-3.5525,40.4269]]]]}},{"type":"Feature","properties":{"CUDIS":"2804904","NMUN":"Coslada","NCA":"Comunidad de Madrid"},"geometry":{"type":"MultiPolygon","coordinates":[[[[-3.528,40.4355],[-3.5311,40.4469],[-3.5768,40.4298],[-3.5773,40.4265],[-3.5586,40.4276],[-3.5525,40.4269],[-3.528,40.4355]]]]}},{"type":"Feature","properties":{"CUDIS":"2805001","NMUN":"Cubas de la Sagra","NCA":"Comunidad de Madrid"},"geometry":{"type":"MultiPolygon","coordinates":[[[[-3.8068,40.1773],[-3.8211,40.2052],[-3.8691,40.2011],[-3.8762,40.1911],[-3.8534,40.1794],[-3.8068,40.1773]]]]}},{"type":"Feature","properties":{"CUDIS":"2805101","NMUN":"Chapinería","NCA":"Comunidad de Madrid"},"geometry":{"type":"MultiPolygon","coordinates":[[[[-4.1824,40.3478],[-4.2357,40.3933],[-4.2316,40.3341],[-4.188,40.3379],[-4.1824,40.3478]]]]}},{"type":"Feature","properties":{"CUDIS":"2805201","NMUN":"Chinchón","NCA":"Comunidad de Madrid"},"geometry":{"type":"MultiPolygon","coordinates":[[[[-3.451,40.1182],[-3.4053,40.13],[-3.385,40.1353],[-3.4231,40.197],[-3.4982,40.2169],[-3.5603,40.1901],[-3.562,40.1711],[-3.5576,40.1252],[-3.5809,40.099],[-3.5494,40.1019],[-3.5223,40.1364],[-3.451,40.1182]]]]}},{"type":"Feature","properties":{"CUDIS":"2805301","NMUN":"Daganzo de Arriba","NCA":"Comunidad de Madrid"},"geometry":{"type":"MultiPolygon","coordinates":[[[[-3.481,40.5621],[-3.4351,40.5089],[-3.4291,40.5109],[-3.4158,40.5454],[-3.3955,40.5746],[-3.4421,40.6175],[-3.4539,40.6073],[-3.4661,40.5955],[-3.481,40.5621]]]]}},{"type":"Feature","properties":{"CUDIS":"2805401","NMUN":"Escorial, El","NCA":"Comunidad de Madrid"},"geometry":{"type":"MultiPolygon","coordinates":[[[[-4.0413,40.6119],[-4.1239,40.5975],[-4.1279,40.5817],[-4.0451,40.5773],[-4.0445,40.5833],[-4.0413,40.6119]]]]}},{"type":"Feature","properties":{"CUDIS":"2805402","NMUN":"Escorial, El","NCA":"Comunidad de Madrid"},"geometry":{"type":"MultiPolygon","coordinates":[[[[-4.1282,40.522],[-4.0473,40.5707],[-4.0451,40.5773],[-4.1279,40.5817],[-4.1239,40.5975],[-4.0413,40.6119],[-4.033,40.6302],[-4.0928,40.6307],[-4.1605,40.5625],[-4.1539,40.5315],[-4.132,40.5189],[-4.1282,40.522]]]]}},{"type":"Feature","properties":{"CUDIS":"2805501","NMUN":"Estremera","NCA":"Comunidad de Madrid"},"geometry":{"type":"MultiPolygon","coordinates":[[[[-3.0882,40.2003],[-3.1509,40.2228],[-3.1498,40.1615],[-3.1182,40.0614],[-3.0953,40.0684],[-3.0534,40.0991],[-3.0679,40.1577],[-3.0882,40.2003]]]]}},{"type":"Feature","properties":{"CUDIS":"2805601","NMUN":"Fresnedillas de la Oliva","NCA":"Comunidad de Madrid"},"geometry":{"type":"MultiPolygon","coordinates":[[[[-4.1413,40.5063],[-4.2078,40.4985],[-4.2149,40.4475],[-4.1699,40.4369],[-4.1413,40.5063]]]]}},{"type":"Feature","properties":{"CUDIS":"2805701","NMUN":"Fresno de Torote","NCA":"Comunidad de Madrid"},"geometry":{"type":"MultiPolygon","coordinates":[[[[-3.3821,40.6305],[-3.4203,40.6458],[-3.4421,40.6175],[-3.3955,40.5746],[-3.3822,40.6082],[-3.3717,40.6258],[-3.3821,40.6305]]]]}},{"type":"Feature","properties":{"CUDIS":"2805801","NMUN":"Fuenlabrada","NCA":"Comunidad de Madrid"},"geometry":{"type":"MultiPolygon","coordinates":[[[[-3.7904,40.2935],[-3.7809,40.2955],[-3.789,40.2964],[-3.7904,40.2935]]]]}},{"type":"Feature","properties":{"CUDIS":"2805802","NMUN":"Fuenlabrada","NCA":"Comunidad de Madrid"},"geometry":{"type":"MultiPolygon","coordinates":[[[[-3.7913,40.2825],[-3.7402,40.2645],[-3.7395,40.2709],[-3.7505,40.2762],[-3.7617,40.2942],[-3.7809,40.2955],[-3.7904,40.2935],[-3.7913,40.2825]]]]}},{"type":"Feature","properties":{"CUDIS":"2805803","NMUN":"Fuenlabrada","NCA":"Comunidad de Madrid"},"geometry":{"type":"MultiPolygon","coordinates":[[[[-3.7913,40.2825],[-3.7904,40.2935],[-3.789,40.2964],[-3.7922,40.2972],[-3.7941,40.2937],[-3.7981,40.2854],[-3.7913,40.2825]]]]}},{"type":"Feature","properties":{"CUDIS":"2805804","NMUN":"Fuenlabrada","NCA":"Comunidad de Madrid"},"geometry":{"type":"MultiPolygon","coordinates":[[[[-3.8104,40.2747],[-3.801,40.2502],[-3.7412,40.2543],[-3.7402,40.2645],[-3.7913,40.2825],[-3.7981,40.2854],[-3.8104,40.2747]]]]}},{"type":"Feature","properties":{"CUDIS":"2805805","NMUN":"Fuenlabrada","NCA":"Comunidad de Madrid"},"geometry":{"type":"MultiPolygon","coordinates":[[[[-3.7981,40.2854],[-3.7941,40.2937],[-3.8038,40.29],[-3.799,40.2861],[-3.7981,40.2854]]]]}},{"type":"Feature","properties":{"CUDIS":"2805806","NMUN":"Fuenlabrada","NCA":"Comunidad de Madrid"},"geometry":{"type":"MultiPolygon","coordinates":[[[[-3.8271,40.3004],[-3.8038,40.29],[-3.7941,40.2937],[-3.7922,40.2972],[-3.8181,40.3278],[-3.844,40.3242],[-3.8418,40.3148],[-3.8271,40.3004]]]]}},{"type":"Feature","properties":{"CUDIS":"2805807","NMUN":"Fuenlabrada","NCA":"Comunidad de Madrid"},"geometry":{"type":"MultiPolygon","coordinates":[[[[-3.8321,40.2864],[-3.799,40.2861],[-3.8038,40.29],[-3.8271,40.3004],[-3.8321,40.2864]]]]}},{"type":"Feature","properties":{"CUDIS":"2805808","NMUN":"Fuenlabrada","NCA":"Comunidad de Madrid"},"geometry":{"type":"MultiPolygon","coordinates":[[[[-3.8104,40.2747],[-3.7981,40.2854],[-3.799,40.2861],[-3.8321,40.2864],[-3.8387,40.2781],[-3.8395,40.277],[-3.8104,40.2747]]]]}},{"type":"Feature","properties":{"CUDIS":"2805809","NMUN":"Fuenlabrada","NCA":"Comunidad de Madrid"},"geometry":{"type":"MultiPolygon","coordinates":[[[[-3.8321,40.2864],[-3.8271,40.3004],[-3.8418,40.3148],[-3.843,40.315],[-3.8411,40.2857],[-3.8387,40.2781],[-3.8321,40.2864]]]]}},{"type":"Feature","properties":{"CUDIS":"2805901","NMUN":"Fuente el Saz de Jarama","NCA":"Comunidad de Madrid"},"geometry":{"type":"MultiPolygon","coordinates":[[[[-3.4907,40.6251],[-3.4828,40.668],[-3.5568,40.6609],[-3.5592,40.6505],[-3.4907,40.6251]]]]}},{"type":"Feature","properties":{"CUDIS":"2806001","NMUN":"Fuentidueña de Tajo","NCA":"Comunidad de Madrid"},"geometry":{"type":"MultiPolygon","coordinates":[[[[-3.1182,40.0614],[-3.1498,40.1615],[-3.1977,40.1561],[-3.201,40.0856],[-3.1886,40.0825],[-3.1614,40.0649],[-3.1182,40.0614]]]]}},{"type":"Feature","properties":{"CUDIS":"2806101","NMUN":"Galapagar","NCA":"Comunidad de Madrid"},"geometry":{"type":"MultiPolygon","coordinates":[[[[-4.0445,40.5833],[-3.9847,40.5165],[-3.9398,40.5082],[-3.9454,40.5512],[-3.9531,40.5974],[-3.9581,40.6329],[-4.0297,40.6299],[-4.033,40.6302],[-4.0413,40.6119],[-4.0445,40.5833]]]]}},{"type":"Feature","properties":{"CUDIS":"2806201","NMUN":"Garganta de los Montes","NCA":"Comunidad de Madrid"},"geometry":{"type":"MultiPolygon","coordinates":[[[[-3.657,40.9764],[-3.7253,40.935],[-3.6958,40.8806],[-3.694,40.8804],[-3.6753,40.8922],[-3.6445,40.9537],[-3.657,40.9764]]]]}},{"type":"Feature","properties":{"CUDIS":"2806301","NMUN":"Gargantilla del Lozoya y Pinilla de Buitrago","NCA":"Comunidad de Madrid"},"geometry":{"type":"MultiPolygon","coordinates":[[[[-3.6656,40.9953],[-3.6794,40.9921],[-3.7386,40.9749],[-3.7369,40.9417],[-3.7253,40.935],[-3.657,40.9764],[-3.6656,40.9953]]]]}},{"type":"Feature","properties":{"CUDIS":"2806401","NMUN":"Gascones","NCA":"Comunidad de Madrid"},"geometry":{"type":"MultiPolygon","coordinates":[[[[-3.6372,41.0291],[-3.7062,41.0769],[-3.716,41.0716],[-3.7214,41.065],[-3.6542,41.0073],[-3.6345,41.0209],[-3.6372,41.0291]]]]}},{"type":"Feature","properties":{"CUDIS":"2806501","NMUN":"Getafe","NCA":"Comunidad de Madrid"},"geometry":{"type":"MultiPolygon","coordinates":[[[[-3.7336,40.31],[-3.7505,40.2762],[-3.7395,40.2709],[-3.7045,40.2678],[-3.7028,40.2677],[-3.7251,40.3088],[-3.7336,40.31]]]]}},{"type":"Feature","properties":{"CUDIS":"2806502","NMUN":"Getafe","NCA":"Comunidad de Madrid"},"geometry":{"type":"MultiPolygon","coordinates":[[[[-3.7251,40.3088],[-3.7094,40.3233],[-3.7227,40.3328],[-3.7336,40.31],[-3.7251,40.3088]]]]}},{"type":"Feature","properties":{"CUDIS":"2806503","NMUN":"Getafe","NCA":"Comunidad de Madrid"},"geometry":{"type":"MultiPolygon","coordinates":[[[[-3.7505,40.2762],[-3.7336,40.31],[-3.7227,40.3328],[-3.7249,40.335],[-3.745,40.3171],[-3.7617,40.2942],[-3.7505,40.2762]]]]}},{"type":"Feature","properties":{"CUDIS":"2806504","NMUN":"Getafe","NCA":"Comunidad de Madrid"},"geometry":{"type":"MultiPolygon","coordinates":[[[[-3.7094,40.3233],[-3.7251,40.3088],[-3.7028,40.2677],[-3.6229,40.2664],[-3.5715,40.2871],[-3.5761,40.3149],[-3.6586,40.3284],[-3.7094,40.3233]]]]}},{"type":"Feature","properties":{"CUDIS":"2806601","NMUN":"Griñón","NCA":"Comunidad de Madrid"},"geometry":{"type":"MultiPolygon","coordinates":[[[[-3.8691,40.2011],[-3.8211,40.2052],[-3.8034,40.22],[-3.8076,40.2294],[-3.8515,40.2368],[-3.8845,40.2321],[-3.8691,40.2011]]]]}},{"type":"Feature","properties":{"CUDIS":"2806701","NMUN":"Guadalix de la Sierra","NCA":"Comunidad de Madrid"},"geometry":{"type":"MultiPolygon","coordinates":[[[[-3.6102,40.7859],[-3.651,40.8011],[-3.6596,40.8049],[-3.7014,40.7998],[-3.7227,40.7974],[-3.7104,40.7293],[-3.6758,40.7284],[-3.6086,40.7797],[-3.6102,40.7859]]]]}},{"type":"Feature","properties":{"CUDIS":"2806801","NMUN":"Guadarrama","NCA":"Comunidad de Madrid"},"geometry":{"type":"MultiPolygon","coordinates":[[[[-4.0451,40.6625],[-4.0614,40.7007],[-4.1257,40.7244],[-4.1603,40.6899],[-4.1681,40.6479],[-4.033,40.6302],[-4.0297,40.6299],[-4.026,40.6328],[-4.0451,40.6625]]]]}},{"type":"Feature","properties":{"CUDIS":"2806901","NMUN":"Hiruela, La","NCA":"Comunidad de Madrid"},"geometry":{"type":"MultiPolygon","coordinates":[[[[-3.4389,41.0427],[-3.4745,41.0951],[-3.4852,41.0638],[-3.4672,41.0481],[-3.4389,41.0427]]]]}},{"type":"Feature","properties":{"CUDIS":"2807001","NMUN":"Horcajo de la Sierra-Aoslos","NCA":"Comunidad de Madrid"},"geometry":{"type":"MultiPolygon","coordinates":[[[[-3.5632,41.0591],[-3.5644,41.1143],[-3.566,41.1139],[-3.5998,41.0961],[-3.6091,41.0764],[-3.5874,41.0434],[-3.5632,41.0591]]]]}},{"type":"Feature","properties":{"CUDIS":"2807101","NMUN":"Horcajuelo de la Sierra","NCA":"Comunidad de Madrid"},"geometry":{"type":"MultiPolygon","coordinates":[[[[-3.5422,41.0504],[-3.5473,41.1347],[-3.5644,41.1143],[-3.5632,41.0591],[-3.559,41.0483],[-3.5422,41.0504]]]]}},{"type":"Feature","properties":{"CUDIS":"2807201","NMUN":"Hoyo de Manzanares","NCA":"Comunidad de Madrid"},"geometry":{"type":"MultiPolygon","coordinates":[[[[-3.9531,40.5974],[-3.8837,40.5853],[-3.8425,40.5926],[-3.8657,40.646],[-3.8797,40.6515],[-3.9531,40.5974]]]]}},{"type":"Feature","properties":{"CUDIS":"2807301","NMUN":"Humanes de Madrid","NCA":"Comunidad de Madrid"},"geometry":{"type":"MultiPolygon","coordinates":[[[[-3.8515,40.2368],[-3.8076,40.2294],[-3.801,40.2502],[-3.8104,40.2747],[-3.8395,40.277],[-3.8515,40.2368]]]]}},{"type":"Feature","properties":{"CUDIS":"2807401","NMUN":"Leganés","NCA":"Comunidad de Madrid"},"geometry":{"type":"MultiPolygon","coordinates":[[[[-3.7695,40.331],[-3.8008,40.3413],[-3.8108,40.3358],[-3.8181,40.3278],[-3.7922,40.2972],[-3.789,40.2964],[-3.7809,40.2955],[-3.7617,40.2942],[-3.745,40.3171],[-3.7574,40.3236],[-3.7695,40.331]],[[-3.7762,40.3253],[-3.7862,40.3075],[-3.8025,40.313],[-3.7762,40.3253]]]]}},{"type":"Feature","properties":{"CUDIS":"2807402","NMUN":"Leganés","NCA":"Comunidad de Madrid"},"geometry":{"type":"MultiPolygon","coordinates":[[[[-3.7695,40.331],[-3.7574,40.3236],[-3.7531,40.3284],[-3.7558,40.3403],[-3.7561,40.3401],[-3.7695,40.331]]]]}},{"type":"Feature","properties":{"CUDIS":"2807403","NMUN":"Leganés","NCA":"Comunidad de Madrid"},"geometry":{"type":"MultiPolygon","coordinates":[[[[-3.8008,40.3413],[-3.7695,40.331],[-3.7561,40.3401],[-3.7555,40.3471],[-3.7944,40.3572],[-3.8022,40.3417],[-3.8008,40.3413]]]]}},{"type":"Feature","properties":{"CUDIS":"2807404","NMUN":"Leganés","NCA":"Comunidad de Madrid"},"geometry":{"type":"MultiPolygon","coordinates":[[[[-3.7558,40.3403],[-3.7531,40.3284],[-3.7454,40.3297],[-3.7482,40.3409],[-3.7558,40.3403]]]]}},{"type":"Feature","properties":{"CUDIS":"2807405","NMUN":"Leganés","NCA":"Comunidad de Madrid"},"geometry":{"type":"MultiPolygon","coordinates":[[[[-3.7574,40.3236],[-3.745,40.3171],[-3.7249,40.335],[-3.7209,40.3652],[-3.7544,40.358],[-3.7555,40.3471],[-3.7561,40.3401],[-3.7558,40.3403],[-3.7482,40.3409],[-3.7454,40.3297],[-3.7531,40.3284],[-3.7574,40.3236]]]]}},{"type":"Feature","properties":{"CUDIS":"2807406","NMUN":"Leganés","NCA":"Comunidad de Madrid"},"geometry":{"type":"MultiPolygon","coordinates":[[[[-3.7544,40.358],[-3.7712,40.3599],[-3.7878,40.3587],[-3.7944,40.3572],[-3.7555,40.3471],[-3.7544,40.358]]]]}},{"type":"Feature","properties":{"CUDIS":"2807407","NMUN":"Leganés","NCA":"Comunidad de Madrid"},"geometry":{"type":"MultiPolygon","coordinates":[[[[-3.7762,40.3253],[-3.8025,40.313],[-3.7862,40.3075],[-3.7762,40.3253]]]]}},{"type":"Feature","properties":{"CUDIS":"2807501","NMUN":"Loeches","NCA":"Comunidad de Madrid"},"geometry":{"type":"MultiPolygon","coordinates":[[[[-3.3526,40.3666],[-3.4119,40.4256],[-3.4399,40.4125],[-3.4658,40.3885],[-3.4535,40.3433],[-3.4262,40.3497],[-3.3561,40.3623],[-3.3526,40.3666]]]]}},{"type":"Feature","properties":{"CUDIS":"2807601","NMUN":"Lozoya","NCA":"Comunidad de Madrid"},"geometry":{"type":"MultiPolygon","coordinates":[[[[-3.7386,40.9749],[-3.7706,41.0132],[-3.8302,40.9864],[-3.844,40.9825],[-3.8445,40.9824],[-3.7871,40.9133],[-3.7369,40.9417],[-3.7386,40.9749]]]]}},{"type":"Feature","properties":{"CUDIS":"2807801","NMUN":"Madarcos","NCA":"Comunidad de Madrid"},"geometry":{"type":"MultiPolygon","coordinates":[[[[-3.5632,41.0591],[-3.5874,41.0434],[-3.5752,41.024],[-3.5576,41.0291],[-3.559,41.0483],[-3.5632,41.0591]]]]}},{"type":"Feature","properties":{"CUDIS":"2807901","NMUN":"Madrid","NCA":"Comunidad de Madrid"},"geometry":{"type":"MultiPolygon","coordinates":[[[[-3.723,40.414],[-3.6921,40.4094],[-3.6925,40.4195],[-3.6904,40.4252],[-3.7162,40.4306],[-3.7223,40.4171],[-3.723,40.414]]]]}},{"type":"Feature","properties":{"CUDIS":"2807902","NMUN":"Madrid","NCA":"Comunidad de Madrid"},"geometry":{"type":"MultiPolygon","coordinates":[[[[-3.7226,40.4038],[-3.7046,40.3951],[-3.6898,40.3823],[-3.6735,40.3944],[-3.6921,40.4094],[-3.723,40.414],[-3.7226,40.4038]]]]}},{"type":"Feature","properties":{"CUDIS":"2807903","NMUN":"Madrid","NCA":"Comunidad de Madrid"},"geometry":{"type":"MultiPolygon","coordinates":[[[[-3.6921,40.4094],[-3.6735,40.3944],[-3.6652,40.4063],[-3.6587,40.4186],[-3.6925,40.4195],[-3.6921,40.4094]]]]}},{"type":"Feature","properties":{"CUDIS":"2807904","NMUN":"Madrid","NCA":"Comunidad de Madrid"},"geometry":{"type":"MultiPolygon","coordinates":[[[[-3.6925,40.4195],[-3.6587,40.4186],[-3.6606,40.4446],[-3.6907,40.438],[-3.6904,40.4252],[-3.6925,40.4195]]]]}},{"type":"Feature","properties":{"CUDIS":"2807905","NMUN":"Madrid","NCA":"Comunidad de Madrid"},"geometry":{"type":"MultiPolygon","coordinates":[[[[-3.6907,40.438],[-3.6606,40.4446],[-3.6735,40.4841],[-3.6871,40.4742],[-3.6913,40.4462],[-3.6907,40.438]]]]}},{"type":"Feature","properties":{"CUDIS":"2807906","NMUN":"Madrid","NCA":"Comunidad de Madrid"},"geometry":{"type":"MultiPolygon","coordinates":[[[[-3.7084,40.4471],[-3.6913,40.4462],[-3.6871,40.4742],[-3.7133,40.4685],[-3.7084,40.4471]]]]}},{"type":"Feature","properties":{"CUDIS":"2807907","NMUN":"Madrid","NCA":"Comunidad de Madrid"},"geometry":{"type":"MultiPolygon","coordinates":[[[[-3.7162,40.4306],[-3.6904,40.4252],[-3.6907,40.438],[-3.6913,40.4462],[-3.7084,40.4471],[-3.7162,40.4306]]]]}},{"type":"Feature","properties":{"CUDIS":"2807908","NMUN":"Madrid","NCA":"Comunidad de Madrid"},"geometry":{"type":"MultiPolygon","coordinates":[[[[-3.8367,40.4794],[-3.7133,40.4685],[-3.6871,40.4742],[-3.6735,40.4841],[-3.6581,40.5115],[-3.6731,40.5869],[-3.6258,40.6168],[-3.668,40.6296],[-3.7194,40.5821],[-3.8105,40.6095],[-3.8425,40.5926],[-3.8837,40.5853],[-3.8855,40.5746],[-3.8367,40.4794]]]]}},{"type":"Feature","properties":{"CUDIS":"2807909","NMUN":"Madrid","NCA":"Comunidad de Madrid"},"geometry":{"type":"MultiPolygon","coordinates":[[[[-3.7746,40.4003],[-3.7223,40.4171],[-3.7162,40.4306],[-3.7084,40.4471],[-3.7133,40.4685],[-3.8367,40.4794],[-3.8367,40.4751],[-3.8344,40.4644],[-3.8121,40.4638],[-3.7797,40.4442],[-3.7746,40.4003]]]]}},{"type":"Feature","properties":{"CUDIS":"2807910","NMUN":"Madrid","NCA":"Comunidad de Madrid"},"geometry":{"type":"MultiPolygon","coordinates":[[[[-3.7712,40.3599],[-3.7226,40.4038],[-3.723,40.414],[-3.7223,40.4171],[-3.7746,40.4003],[-3.8352,40.3963],[-3.8069,40.3664],[-3.7878,40.3587],[-3.7712,40.3599]]]]}},{"type":"Feature","properties":{"CUDIS":"2807911","NMUN":"Madrid","NCA":"Comunidad de Madrid"},"geometry":{"type":"MultiPolygon","coordinates":[[[[-3.7712,40.3599],[-3.7544,40.358],[-3.7209,40.3652],[-3.7207,40.3649],[-3.7046,40.3951],[-3.7226,40.4038],[-3.7712,40.3599]]]]}},{"type":"Feature","properties":{"CUDIS":"2807912","NMUN":"Madrid","NCA":"Comunidad de Madrid"},"geometry":{"type":"MultiPolygon","coordinates":[[[[-3.7207,40.3649],[-3.6819,40.3612],[-3.6898,40.3823],[-3.7046,40.3951],[-3.7207,40.3649]]]]}},{"type":"Feature","properties":{"CUDIS":"2807913","NMUN":"Madrid","NCA":"Comunidad de Madrid"},"geometry":{"type":"MultiPolygon","coordinates":[[[[-3.6819,40.3612],[-3.6219,40.3908],[-3.6298,40.3925],[-3.6652,40.4063],[-3.6735,40.3944],[-3.6898,40.3823],[-3.6819,40.3612]]]]}},{"type":"Feature","properties":{"CUDIS":"2807914","NMUN":"Madrid","NCA":"Comunidad de Madrid"},"geometry":{"type":"MultiPolygon","coordinates":[[[[-3.6652,40.4063],[-3.6298,40.3925],[-3.6207,40.4125],[-3.6587,40.4186],[-3.6652,40.4063]]]]}},{"type":"Feature","properties":{"CUDIS":"2807915","NMUN":"Madrid","NCA":"Comunidad de Madrid"},"geometry":{"type":"MultiPolygon","coordinates":[[[[-3.6606,40.4446],[-3.6587,40.4186],[-3.6207,40.4125],[-3.6199,40.4137],[-3.6481,40.4495],[-3.6735,40.4841],[-3.6606,40.4446]]]]}},{"type":"Feature","properties":{"CUDIS":"2807916","NMUN":"Madrid","NCA":"Comunidad de Madrid"},"geometry":{"type":"MultiPolygon","coordinates":[[[[-3.6735,40.4841],[-3.6481,40.4495],[-3.6034,40.4499],[-3.6023,40.5013],[-3.6581,40.5115],[-3.6735,40.4841]]]]}},{"type":"Feature","properties":{"CUDIS":"2807917","NMUN":"Madrid","NCA":"Comunidad de Madrid"},"geometry":{"type":"MultiPolygon","coordinates":[[[[-3.7094,40.3233],[-3.6586,40.3284],[-3.6819,40.3612],[-3.7207,40.3649],[-3.7209,40.3652],[-3.7249,40.335],[-3.7227,40.3328],[-3.7094,40.3233]]]]}},{"type":"Feature","properties":{"CUDIS":"2807918","NMUN":"Madrid","NCA":"Comunidad de Madrid"},"geometry":{"type":"MultiPolygon","coordinates":[[[[-3.6586,40.3284],[-3.5761,40.3149],[-3.5534,40.3559],[-3.6219,40.3908],[-3.6819,40.3612],[-3.6586,40.3284]]]]}},{"type":"Feature","properties":{"CUDIS":"2807919","NMUN":"Madrid","NCA":"Comunidad de Madrid"},"geometry":{"type":"MultiPolygon","coordinates":[[[[-3.6219,40.3908],[-3.5534,40.3559],[-3.5199,40.4098],[-3.5312,40.4201],[-3.5762,40.4131],[-3.5773,40.4265],[-3.5768,40.4298],[-3.6199,40.4137],[-3.6207,40.4125],[-3.6298,40.3925],[-3.6219,40.3908]]]]}},{"type":"Feature","properties":{"CUDIS":"2807920","NMUN":"Madrid","NCA":"Comunidad de Madrid"},"geometry":{"type":"MultiPolygon","coordinates":[[[[-3.6481,40.4495],[-3.6199,40.4137],[-3.5768,40.4298],[-3.5311,40.4469],[-3.5315,40.4473],[-3.6034,40.4499],[-3.6481,40.4495]]]]}},{"type":"Feature","properties":{"CUDIS":"2807921","NMUN":"Madrid","NCA":"Comunidad de Madrid"},"geometry":{"type":"MultiPolygon","coordinates":[[[[-3.6034,40.4499],[-3.5315,40.4473],[-3.5308,40.4713],[-3.5543,40.5113],[-3.6023,40.5013],[-3.6034,40.4499]]]]}},{"type":"Feature","properties":{"CUDIS":"2808001","NMUN":"Majadahonda","NCA":"Comunidad de Madrid"},"geometry":{"type":"MultiPolygon","coordinates":[[[[-3.8807,40.4451],[-3.8691,40.4824],[-3.9334,40.4997],[-3.937,40.4845],[-3.9449,40.4549],[-3.8807,40.4451]]]]}},{"type":"Feature","properties":{"CUDIS":"2808002","NMUN":"Majadahonda","NCA":"Comunidad de Madrid"},"geometry":{"type":"MultiPolygon","coordinates":[[[[-3.8631,40.4441],[-3.8344,40.4644],[-3.8367,40.4751],[-3.8691,40.4824],[-3.8807,40.4451],[-3.8631,40.4441]]]]}},{"type":"Feature","properties":{"CUDIS":"2808201","NMUN":"Manzanares el Real","NCA":"Comunidad de Madrid"},"geometry":{"type":"MultiPolygon","coordinates":[[[[-3.9407,40.7126],[-3.9515,40.7217],[-3.9498,40.717],[-3.9407,40.7126]]],[[[-3.83,40.6807],[-3.8006,40.7111],[-3.8382,40.8123],[-3.9782,40.7873],[-3.9795,40.7845],[-3.9686,40.7671],[-3.9066,40.7387],[-3.9258,40.6789],[-3.906,40.6822],[-3.9037,40.6806],[-3.8739,40.6811],[-3.83,40.6807]]]]}},{"type":"Feature","properties":{"CUDIS":"2808301","NMUN":"Meco","NCA":"Comunidad de Madrid"},"geometry":{"type":"MultiPolygon","coordinates":[[[[-3.2899,40.5317],[-3.2867,40.5726],[-3.3307,40.6009],[-3.3384,40.5968],[-3.3499,40.5316],[-3.3028,40.5316],[-3.2898,40.5317],[-3.2899,40.5317]]]]}},{"type":"Feature","properties":{"CUDIS":"2808401","NMUN":"Mejorada del Campo","NCA":"Comunidad de Madrid"},"geometry":{"type":"MultiPolygon","coordinates":[[[[-3.4658,40.3885],[-3.4399,40.4125],[-3.5032,40.4073],[-3.5003,40.378],[-3.4658,40.3885]]]]}},{"type":"Feature","properties":{"CUDIS":"2808501","NMUN":"Miraflores de la Sierra","NCA":"Comunidad de Madrid"},"geometry":{"type":"MultiPolygon","coordinates":[[[[-3.7104,40.7293],[-3.7227,40.7974],[-3.7894,40.8465],[-3.7982,40.849],[-3.8294,40.8138],[-3.7335,40.7309],[-3.7104,40.7293]]]]}},{"type":"Feature","properties":{"CUDIS":"2808601","NMUN":"Molar, El","NCA":"Comunidad de Madrid"},"geometry":{"type":"MultiPolygon","coordinates":[[[[-3.5259,40.7325],[-3.544,40.735],[-3.5938,40.7506],[-3.6075,40.7144],[-3.5937,40.6548],[-3.5592,40.6505],[-3.5568,40.6609],[-3.5259,40.7325]]]]}},{"type":"Feature","properties":{"CUDIS":"2808701","NMUN":"Molinos, Los","NCA":"Comunidad de Madrid"},"geometry":{"type":"MultiPolygon","coordinates":[[[[-4.0517,40.7143],[-4.097,40.7477],[-4.1257,40.7244],[-4.0614,40.7007],[-4.0517,40.7143]]]]}},{"type":"Feature","properties":{"CUDIS":"2808801","NMUN":"Montejo de la Sierra","NCA":"Comunidad de Madrid"},"geometry":{"type":"MultiPolygon","coordinates":[[[[-3.4745,41.0951],[-3.5411,41.1497],[-3.5473,41.1347],[-3.5422,41.0504],[-3.4852,41.0638],[-3.4745,41.0951]]]]}},{"type":"Feature","properties":{"CUDIS":"2808901","NMUN":"Moraleja de Enmedio","NCA":"Comunidad de Madrid"},"geometry":{"type":"MultiPolygon","coordinates":[[[[-3.877,40.2883],[-3.9434,40.2619],[-3.9369,40.2497],[-3.9041,40.2347],[-3.8845,40.2321],[-3.8515,40.2368],[-3.8395,40.277],[-3.8387,40.2781],[-3.8411,40.2857],[-3.877,40.2883]]]]}},{"type":"Feature","properties":{"CUDIS":"2809001","NMUN":"Moralzarzal","NCA":"Comunidad de Madrid"},"geometry":{"type":"MultiPolygon","coordinates":[[[[-3.9258,40.6789],[-3.9407,40.7126],[-3.9498,40.717],[-3.9975,40.6904],[-3.9953,40.6811],[-3.9581,40.6329],[-3.9531,40.5974],[-3.8797,40.6515],[-3.8734,40.6571],[-3.9182,40.6493],[-3.9278,40.6573],[-3.9192,40.6728],[-3.9159,40.6753],[-3.9151,40.6759],[-3.906,40.6822],[-3.9258,40.6789]]]]}},{"type":"Feature","properties":{"CUDIS":"2809101","NMUN":"Morata de Tajuña","NCA":"Comunidad de Madrid"},"geometry":{"type":"MultiPolygon","coordinates":[[[[-3.4212,40.2005],[-3.3945,40.219],[-3.4233,40.2547],[-3.447,40.2575],[-3.4212,40.2005]]]]}},{"type":"Feature","properties":{"CUDIS":"2809102","NMUN":"Morata de Tajuña","NCA":"Comunidad de Madrid"},"geometry":{"type":"MultiPolygon","coordinates":[[[[-3.4212,40.2005],[-3.447,40.2575],[-3.4827,40.2569],[-3.4982,40.2169],[-3.4231,40.197],[-3.4212,40.2005]]]]}},{"type":"Feature","properties":{"CUDIS":"2809201","NMUN":"Móstoles","NCA":"Comunidad de Madrid"},"geometry":{"type":"MultiPolygon","coordinates":[[[[-3.9215,40.3026],[-3.8642,40.3226],[-3.902,40.3476],[-3.9415,40.3002],[-3.9418,40.2972],[-3.9215,40.3026]]]]}},{"type":"Feature","properties":{"CUDIS":"2809202","NMUN":"Móstoles","NCA":"Comunidad de Madrid"},"geometry":{"type":"MultiPolygon","coordinates":[[[[-3.902,40.3476],[-3.8642,40.3226],[-3.8641,40.3226],[-3.8543,40.332],[-3.8709,40.3531],[-3.902,40.3476]]]]}},{"type":"Feature","properties":{"CUDIS":"2809203","NMUN":"Móstoles","NCA":"Comunidad de Madrid"},"geometry":{"type":"MultiPolygon","coordinates":[[[[-3.8641,40.3226],[-3.843,40.315],[-3.8418,40.3148],[-3.844,40.3242],[-3.8535,40.3326],[-3.8543,40.332],[-3.8641,40.3226]]]]}},{"type":"Feature","properties":{"CUDIS":"2809204","NMUN":"Móstoles","NCA":"Comunidad de Madrid"},"geometry":{"type":"MultiPolygon","coordinates":[[[[-3.877,40.2883],[-3.8411,40.2857],[-3.843,40.315],[-3.8641,40.3226],[-3.8642,40.3226],[-3.9215,40.3026],[-3.877,40.2883]]]]}},{"type":"Feature","properties":{"CUDIS":"2809301","NMUN":"Navacerrada","NCA":"Comunidad de Madrid"},"geometry":{"type":"MultiPolygon","coordinates":[[[[-3.9795,40.7845],[-4.0024,40.7884],[-4.0405,40.7187],[-4.0049,40.7105],[-3.9686,40.7671],[-3.9795,40.7845]]]]}},{"type":"Feature","properties":{"CUDIS":"2809401","NMUN":"Navalafuente","NCA":"Comunidad de Madrid"},"geometry":{"type":"MultiPolygon","coordinates":[[[[-3.653,40.8335],[-3.6711,40.8335],[-3.7014,40.7998],[-3.6596,40.8049],[-3.653,40.8335]]]]}},{"type":"Feature","properties":{"CUDIS":"2809501","NMUN":"Navalagamella","NCA":"Comunidad de Madrid"},"geometry":{"type":"MultiPolygon","coordinates":[[[[-4.0785,40.4412],[-4.1282,40.522],[-4.132,40.5189],[-4.1413,40.5063],[-4.1699,40.4369],[-4.147,40.3647],[-4.1366,40.3699],[-4.113,40.4025],[-4.0785,40.4412]]]]}},{"type":"Feature","properties":{"CUDIS":"2809601","NMUN":"Navalcarnero","NCA":"Comunidad de Madrid"},"geometry":{"type":"MultiPolygon","coordinates":[[[[-4.0238,40.249],[-3.9464,40.2246],[-3.9369,40.2497],[-3.9434,40.2619],[-3.9421,40.2917],[-3.9415,40.2927],[-3.9418,40.2972],[-3.9415,40.3002],[-4.0064,40.3394],[-4.0701,40.3351],[-4.0805,40.2669],[-4.0238,40.249]]]]}},{"type":"Feature","properties":{"CUDIS":"2809701","NMUN":"Navarredonda y San Mamés","NCA":"Comunidad de Madrid"},"geometry":{"type":"MultiPolygon","coordinates":[[[[-3.6794,40.9921],[-3.7484,41.0366],[-3.767,41.019],[-3.7706,41.0132],[-3.7386,40.9749],[-3.6794,40.9921]]]]}},{"type":"Feature","properties":{"CUDIS":"2809901","NMUN":"Navas del Rey","NCA":"Comunidad de Madrid"},"geometry":{"type":"MultiPolygon","coordinates":[[[[-4.2532,40.4052],[-4.324,40.4183],[-4.3212,40.4104],[-4.3047,40.3675],[-4.2364,40.3265],[-4.2316,40.3341],[-4.2357,40.3933],[-4.2532,40.4052]]]]}},{"type":"Feature","properties":{"CUDIS":"2810001","NMUN":"Nuevo Baztán","NCA":"Comunidad de Madrid"},"geometry":{"type":"MultiPolygon","coordinates":[[[[-3.2785,40.3462],[-3.2339,40.3583],[-3.2273,40.3854],[-3.2193,40.403],[-3.2786,40.3944],[-3.2737,40.3805],[-3.2785,40.3462]]]]}},{"type":"Feature","properties":{"CUDIS":"2810101","NMUN":"Olmeda de las Fuentes","NCA":"Comunidad de Madrid"},"geometry":{"type":"MultiPolygon","coordinates":[[[[-3.1768,40.3742],[-3.2273,40.3854],[-3.2339,40.3583],[-3.2045,40.344],[-3.1768,40.3742]]]]}},{"type":"Feature","properties":{"CUDIS":"2810201","NMUN":"Orusco de Tajuña","NCA":"Comunidad de Madrid"},"geometry":{"type":"MultiPolygon","coordinates":[[[[-3.2163,40.3129],[-3.2521,40.3035],[-3.1973,40.2577],[-3.1803,40.3019],[-3.1821,40.3046],[-3.2163,40.3129]]]]}},{"type":"Feature","properties":{"CUDIS":"2810401","NMUN":"Paracuellos de Jarama","NCA":"Comunidad de Madrid"},"geometry":{"type":"MultiPolygon","coordinates":[[[[-3.5308,40.4713],[-3.4995,40.4718],[-3.4782,40.487],[-3.4796,40.4946],[-3.5122,40.5386],[-3.5441,40.5698],[-3.5531,40.5322],[-3.5543,40.5113],[-3.5308,40.4713]]]]}},{"type":"Feature","properties":{"CUDIS":"2810601","NMUN":"Parla","NCA":"Comunidad de Madrid"},"geometry":{"type":"MultiPolygon","coordinates":[[[[-3.7799,40.2095],[-3.7335,40.211],[-3.7412,40.2543],[-3.801,40.2502],[-3.8076,40.2294],[-3.8034,40.22],[-3.7799,40.2095]]]]}},{"type":"Feature","properties":{"CUDIS":"2810701","NMUN":"Patones","NCA":"Comunidad de Madrid"},"geometry":{"type":"MultiPolygon","coordinates":[[[[-3.4513,40.9129],[-3.4971,40.9098],[-3.5178,40.9049],[-3.5247,40.8761],[-3.4702,40.8521],[-3.4415,40.8815],[-3.4513,40.9129]]]]}},{"type":"Feature","properties":{"CUDIS":"2810801","NMUN":"Pedrezuela","NCA":"Comunidad de Madrid"},"geometry":{"type":"MultiPolygon","coordinates":[[[[-3.6075,40.7144],[-3.5938,40.7506],[-3.6086,40.7797],[-3.6758,40.7284],[-3.6771,40.7233],[-3.6075,40.7144]]]]}},{"type":"Feature","properties":{"CUDIS":"2810901","NMUN":"Pelayos de la Presa","NCA":"Comunidad de Madrid"},"geometry":{"type":"MultiPolygon","coordinates":[[[[-4.3047,40.3675],[-4.3311,40.3754],[-4.3455,40.3546],[-4.3231,40.3442],[-4.3047,40.3675]]]]}},{"type":"Feature","properties":{"CUDIS":"2811001","NMUN":"Perales de Tajuña","NCA":"Comunidad de Madrid"},"geometry":{"type":"MultiPolygon","coordinates":[[[[-3.3339,40.2642],[-3.3484,40.2738],[-3.3697,40.2653],[-3.4233,40.2547],[-3.3945,40.219],[-3.3204,40.178],[-3.298,40.1905],[-3.3339,40.2642]]]]}},{"type":"Feature","properties":{"CUDIS":"2811101","NMUN":"Pezuela de las Torres","NCA":"Comunidad de Madrid"},"geometry":{"type":"MultiPolygon","coordinates":[[[[-3.1556,40.4394],[-3.1986,40.4423],[-3.2112,40.4344],[-3.2193,40.403],[-3.2273,40.3854],[-3.1768,40.3742],[-3.1501,40.3734],[-3.1306,40.4051],[-3.1556,40.4394]]]]}},{"type":"Feature","properties":{"CUDIS":"2811201","NMUN":"Pinilla del Valle","NCA":"Comunidad de Madrid"},"geometry":{"type":"MultiPolygon","coordinates":[[[[-3.7871,40.9133],[-3.8445,40.9824],[-3.8802,40.9747],[-3.8808,40.973],[-3.8808,40.9728],[-3.8087,40.8882],[-3.7871,40.9133]]]]}},{"type":"Feature","properties":{"CUDIS":"2811301","NMUN":"Pinto","NCA":"Comunidad de Madrid"},"geometry":{"type":"MultiPolygon","coordinates":[[[[-3.6873,40.2136],[-3.7045,40.2678],[-3.7395,40.2709],[-3.7402,40.2645],[-3.7412,40.2543],[-3.7335,40.211],[-3.7,40.1989],[-3.6873,40.2136]]]]}},{"type":"Feature","properties":{"CUDIS":"2811302","NMUN":"Pinto","NCA":"Comunidad de Madrid"},"geometry":{"type":"MultiPolygon","coordinates":[[[[-3.7045,40.2678],[-3.6873,40.2136],[-3.6835,40.2152],[-3.6437,40.2297],[-3.6229,40.2664],[-3.7028,40.2677],[-3.7045,40.2678]]]]}},{"type":"Feature","properties":{"CUDIS":"2811401","NMUN":"Piñuécar-Gandullas","NCA":"Comunidad de Madrid"},"geometry":{"type":"MultiPolygon","coordinates":[[[[-3.6091,41.0764],[-3.6161,41.0699],[-3.618,41.013],[-3.5804,40.991],[-3.5752,41.024],[-3.5874,41.0434],[-3.6091,41.0764]]]]}},{"type":"Feature","properties":{"CUDIS":"2811501","NMUN":"Pozuelo de Alarcón","NCA":"Comunidad de Madrid"},"geometry":{"type":"MultiPolygon","coordinates":[[[[-3.8352,40.3963],[-3.7746,40.4003],[-3.7797,40.4442],[-3.7971,40.4339],[-3.8121,40.4638],[-3.8344,40.4644],[-3.8631,40.4441],[-3.8378,40.403],[-3.8352,40.3963]]]]}},{"type":"Feature","properties":{"CUDIS":"2811502","NMUN":"Pozuelo de Alarcón","NCA":"Comunidad de Madrid"},"geometry":{"type":"MultiPolygon","coordinates":[[[[-3.8121,40.4638],[-3.7971,40.4339],[-3.7797,40.4442],[-3.8121,40.4638]]]]}},{"type":"Feature","properties":{"CUDIS":"2811601","NMUN":"Pozuelo del Rey","NCA":"Comunidad de Madrid"},"geometry":{"type":"MultiPolygon","coordinates":[[[[-3.2737,40.3805],[-3.3122,40.4006],[-3.3526,40.3666],[-3.3561,40.3623],[-3.3129,40.3286],[-3.2882,40.3327],[-3.2785,40.3462],[-3.2737,40.3805]]]]}},{"type":"Feature","properties":{"CUDIS":"2811701","NMUN":"Prádena del Rincón","NCA":"Comunidad de Madrid"},"geometry":{"type":"MultiPolygon","coordinates":[[[[-3.4672,41.0481],[-3.4852,41.0638],[-3.5422,41.0504],[-3.559,41.0483],[-3.5576,41.0291],[-3.4919,41.0126],[-3.4672,41.0481]]]]}},{"type":"Feature","properties":{"CUDIS":"2811801","NMUN":"Puebla de la Sierra","NCA":"Comunidad de Madrid"},"geometry":{"type":"MultiPolygon","coordinates":[[[[-3.4389,41.0427],[-3.4672,41.0481],[-3.4919,41.0126],[-3.4958,40.994],[-3.493,40.9781],[-3.4842,40.9626],[-3.4216,40.9673],[-3.4184,40.9734],[-3.3945,41.0003],[-3.408,41.0163],[-3.4389,41.0427]]]]}},{"type":"Feature","properties":{"CUDIS":"2811901","NMUN":"Quijorna","NCA":"Comunidad de Madrid"},"geometry":{"type":"MultiPolygon","coordinates":[[[[-4.026,40.4282],[-4.0417,40.4487],[-4.0785,40.4412],[-4.113,40.4025],[-4.0465,40.3883],[-4.026,40.4282]]]]}},{"type":"Feature","properties":{"CUDIS":"2812001","NMUN":"Rascafría","NCA":"Comunidad de Madrid"},"geometry":{"type":"MultiPolygon","coordinates":[[[[-3.8194,40.8605],[-3.8987,40.9583],[-3.9042,40.9565],[-3.9201,40.9377],[-3.9377,40.9265],[-3.9456,40.9036],[-3.9448,40.8771],[-3.9782,40.7873],[-3.8382,40.8123],[-3.8294,40.8138],[-3.7982,40.849],[-3.8194,40.8605]]]]}},{"type":"Feature","properties":{"CUDIS":"2812101","NMUN":"Redueña","NCA":"Comunidad de Madrid"},"geometry":{"type":"MultiPolygon","coordinates":[[[[-3.6047,40.8422],[-3.6166,40.8411],[-3.6133,40.8098],[-3.5959,40.791],[-3.574,40.7909],[-3.6047,40.8422]]]]}},{"type":"Feature","properties":{"CUDIS":"2812201","NMUN":"Ribatejada","NCA":"Comunidad de Madrid"},"geometry":{"type":"MultiPolygon","coordinates":[[[[-3.3829,40.6832],[-3.4004,40.6907],[-3.4685,40.6899],[-3.4827,40.6704],[-3.4203,40.6458],[-3.3821,40.6305],[-3.3803,40.6329],[-3.3655,40.6507],[-3.3829,40.6832]]]]}},{"type":"Feature","properties":{"CUDIS":"2812301","NMUN":"Rivas-Vaciamadrid","NCA":"Comunidad de Madrid"},"geometry":{"type":"MultiPolygon","coordinates":[[[[-3.5199,40.4098],[-3.5534,40.3559],[-3.5761,40.3149],[-3.5715,40.2871],[-3.5198,40.2943],[-3.4716,40.3381],[-3.5003,40.378],[-3.5032,40.4073],[-3.5199,40.4098]]]]}},{"type":"Feature","properties":{"CUDIS":"2812401","NMUN":"Robledillo de la Jara","NCA":"Comunidad de Madrid"},"geometry":{"type":"MultiPolygon","coordinates":[[[[-3.4842,40.9626],[-3.493,40.9781],[-3.5624,40.9562],[-3.5497,40.9212],[-3.5026,40.9246],[-3.4842,40.9626]]]]}},{"type":"Feature","properties":{"CUDIS":"2812501","NMUN":"Robledo de Chavela","NCA":"Comunidad de Madrid"},"geometry":{"type":"MultiPolygon","coordinates":[[[[-4.2149,40.4475],[-4.2078,40.4985],[-4.1413,40.5063],[-4.132,40.5189],[-4.1539,40.5315],[-4.1968,40.5591],[-4.2618,40.5311],[-4.2936,40.4459],[-4.339,40.4317],[-4.324,40.4183],[-4.2532,40.4052],[-4.2149,40.4475]]]]}},{"type":"Feature","properties":{"CUDIS":"2812601","NMUN":"Robregordo","NCA":"Comunidad de Madrid"},"geometry":{"type":"MultiPolygon","coordinates":[[[[-3.566,41.1139],[-3.6137,41.1491],[-3.6198,41.1432],[-3.6342,41.1258],[-3.6432,41.1206],[-3.5998,41.0961],[-3.566,41.1139]]]]}},{"type":"Feature","properties":{"CUDIS":"2812701","NMUN":"Rozas de Madrid, Las","NCA":"Comunidad de Madrid"},"geometry":{"type":"MultiPolygon","coordinates":[[[[-3.9334,40.4997],[-3.8691,40.4824],[-3.8367,40.4751],[-3.8367,40.4794],[-3.8855,40.5746],[-3.9454,40.5512],[-3.9398,40.5082],[-3.9334,40.4997]]]]}},{"type":"Feature","properties":{"CUDIS":"2812801","NMUN":"Rozas de Puerto Real","NCA":"Comunidad de Madrid"},"geometry":{"type":"MultiPolygon","coordinates":[[[[-4.4722,40.3195],[-4.5264,40.3449],[-4.5465,40.3421],[-4.5443,40.3302],[-4.5555,40.277],[-4.556,40.2662],[-4.4944,40.2785],[-4.4722,40.3195]]]]}},{"type":"Feature","properties":{"CUDIS":"2812901","NMUN":"San Agustín del Guadalix","NCA":"Comunidad de Madrid"},"geometry":{"type":"MultiPolygon","coordinates":[[[[-3.6771,40.7233],[-3.6393,40.6392],[-3.5918,40.6492],[-3.5937,40.6548],[-3.6075,40.7144],[-3.6771,40.7233]]]]}},{"type":"Feature","properties":{"CUDIS":"2813001","NMUN":"San Fernando de Henares","NCA":"Comunidad de Madrid"},"geometry":{"type":"MultiPolygon","coordinates":[[[[-3.5312,40.4201],[-3.5199,40.4098],[-3.5032,40.4073],[-3.4399,40.4125],[-3.4119,40.4256],[-3.4268,40.4532],[-3.4474,40.4463],[-3.4599,40.4386],[-3.4899,40.4547],[-3.4995,40.4718],[-3.5308,40.4713],[-3.5315,40.4473],[-3.5311,40.4469],[-3.528,40.4355],[-3.5371,40.4252],[-3.5312,40.4201]]]]}},{"type":"Feature","properties":{"CUDIS":"2813101","NMUN":"San Lorenzo de El Escorial","NCA":"Comunidad de Madrid"},"geometry":{"type":"MultiPolygon","coordinates":[[[[-4.1522,40.6178],[-4.1273,40.6117],[-4.152,40.5924],[-4.1694,40.6088],[-4.1672,40.5713],[-4.1605,40.5625],[-4.0928,40.6307],[-4.033,40.6302],[-4.1681,40.6479],[-4.1614,40.6235],[-4.1522,40.6178]]]]}},{"type":"Feature","properties":{"CUDIS":"2813102","NMUN":"San Lorenzo de El Escorial","NCA":"Comunidad de Madrid"},"geometry":{"type":"MultiPolygon","coordinates":[[[[-4.1694,40.6088],[-4.152,40.5924],[-4.1273,40.6117],[-4.1522,40.6178],[-4.1694,40.6088]]]]}},{"type":"Feature","properties":{"CUDIS":"2813201","NMUN":"San Martín de la Vega","NCA":"Comunidad de Madrid"},"geometry":{"type":"MultiPolygon","coordinates":[[[[-3.5603,40.1901],[-3.4982,40.2169],[-3.4827,40.2569],[-3.5198,40.2943],[-3.5715,40.2871],[-3.6229,40.2664],[-3.6437,40.2297],[-3.5915,40.1963],[-3.5603,40.1901]]]]}},{"type":"Feature","properties":{"CUDIS":"2813301","NMUN":"San Martín de Valdeiglesias","NCA":"Comunidad de Madrid"},"geometry":{"type":"MultiPolygon","coordinates":[[[[-4.2364,40.3265],[-4.3047,40.3675],[-4.3212,40.4104],[-4.4219,40.4064],[-4.461,40.3405],[-4.4538,40.3331],[-4.3797,40.318],[-4.3564,40.3086],[-4.295,40.3226],[-4.2364,40.3265]],[[-4.3047,40.3675],[-4.3231,40.3442],[-4.3455,40.3546],[-4.3311,40.3754],[-4.3047,40.3675]]]]}},{"type":"Feature","properties":{"CUDIS":"2813401","NMUN":"San Sebastián de los Reyes","NCA":"Comunidad de Madrid"},"geometry":{"type":"MultiPolygon","coordinates":[[[[-3.6731,40.5869],[-3.6262,40.5403],[-3.5531,40.5322],[-3.5441,40.5698],[-3.5396,40.5823],[-3.5846,40.6274],[-3.6258,40.6168],[-3.6731,40.5869]]]]}},{"type":"Feature","properties":{"CUDIS":"2813501","NMUN":"Santa María de la Alameda","NCA":"Comunidad de Madrid"},"geometry":{"type":"MultiPolygon","coordinates":[[[[-4.1614,40.6235],[-4.29,40.628],[-4.2858,40.5789],[-4.2892,40.5641],[-4.2618,40.5311],[-4.1968,40.5591],[-4.1672,40.5713],[-4.1694,40.6088],[-4.1522,40.6178],[-4.1614,40.6235]]]]}},{"type":"Feature","properties":{"CUDIS":"2813601","NMUN":"Santorcaz","NCA":"Comunidad de Madrid"},"geometry":{"type":"MultiPolygon","coordinates":[[[[-3.2012,40.4988],[-3.2582,40.4842],[-3.2352,40.4444],[-3.2112,40.4344],[-3.1986,40.4423],[-3.1954,40.4784],[-3.2012,40.4988]]]]}},{"type":"Feature","properties":{"CUDIS":"2813701","NMUN":"Santos de la Humosa, Los","NCA":"Comunidad de Madrid"},"geometry":{"type":"MultiPolygon","coordinates":[[[[-3.2318,40.5394],[-3.2899,40.5317],[-3.2898,40.5317],[-3.2987,40.4944],[-3.2582,40.4842],[-3.2012,40.4988],[-3.2001,40.5146],[-3.2318,40.5394]]]]}},{"type":"Feature","properties":{"CUDIS":"2813801","NMUN":"Serna del Monte, La","NCA":"Comunidad de Madrid"},"geometry":{"type":"MultiPolygon","coordinates":[[[[-3.6161,41.0699],[-3.6281,41.0689],[-3.6372,41.0291],[-3.6345,41.0209],[-3.618,41.013],[-3.6161,41.0699]]]]}},{"type":"Feature","properties":{"CUDIS":"2814001","NMUN":"Serranillos del Valle","NCA":"Comunidad de Madrid"},"geometry":{"type":"MultiPolygon","coordinates":[[[[-3.8833,40.189],[-3.8762,40.1911],[-3.8691,40.2011],[-3.8845,40.2321],[-3.9041,40.2347],[-3.9251,40.2001],[-3.8833,40.189]]]]}},{"type":"Feature","properties":{"CUDIS":"2814101","NMUN":"Sevilla la Nueva","NCA":"Comunidad de Madrid"},"geometry":{"type":"MultiPolygon","coordinates":[[[[-4.0064,40.3394],[-4.0053,40.3593],[-4.0352,40.3784],[-4.0741,40.343],[-4.0701,40.3351],[-4.0064,40.3394]]]]}},{"type":"Feature","properties":{"CUDIS":"2814301","NMUN":"Somosierra","NCA":"Comunidad de Madrid"},"geometry":{"type":"MultiPolygon","coordinates":[[[[-3.5397,41.165],[-3.6137,41.1491],[-3.566,41.1139],[-3.5644,41.1143],[-3.5473,41.1347],[-3.5411,41.1497],[-3.5397,41.165]]]]}},{"type":"Feature","properties":{"CUDIS":"2814401","NMUN":"Soto del Real","NCA":"Comunidad de Madrid"},"geometry":{"type":"MultiPolygon","coordinates":[[[[-3.7335,40.7309],[-3.8294,40.8138],[-3.8382,40.8123],[-3.8006,40.7111],[-3.7335,40.7309]]]]}},{"type":"Feature","properties":{"CUDIS":"2814501","NMUN":"Talamanca de Jarama","NCA":"Comunidad de Madrid"},"geometry":{"type":"MultiPolygon","coordinates":[[[[-3.4489,40.7331],[-3.4513,40.7383],[-3.4983,40.7889],[-3.5045,40.7892],[-3.5116,40.7885],[-3.544,40.735],[-3.5259,40.7325],[-3.4685,40.6899],[-3.4386,40.735],[-3.4489,40.7331]]]]}},{"type":"Feature","properties":{"CUDIS":"2814601","NMUN":"Tielmes","NCA":"Comunidad de Madrid"},"geometry":{"type":"MultiPolygon","coordinates":[[[[-3.2851,40.262],[-3.3339,40.2642],[-3.298,40.1905],[-3.2704,40.2148],[-3.2851,40.262]]]]}},{"type":"Feature","properties":{"CUDIS":"2814701","NMUN":"Titulcia","NCA":"Comunidad de Madrid"},"geometry":{"type":"MultiPolygon","coordinates":[[[[-3.5576,40.1252],[-3.562,40.1711],[-3.5837,40.1285],[-3.5576,40.1252]]]]}},{"type":"Feature","properties":{"CUDIS":"2814801","NMUN":"Torrejón de Ardoz","NCA":"Comunidad de Madrid"},"geometry":{"type":"MultiPolygon","coordinates":[[[[-3.4782,40.487],[-3.4753,40.4568],[-3.4322,40.468],[-3.4294,40.4689],[-3.4291,40.5109],[-3.4351,40.5089],[-3.4796,40.4946],[-3.4782,40.487]]]]}},{"type":"Feature","properties":{"CUDIS":"2814802","NMUN":"Torrejón de Ardoz","NCA":"Comunidad de Madrid"},"geometry":{"type":"MultiPolygon","coordinates":[[[[-3.4754,40.4568],[-3.4599,40.4386],[-3.4474,40.4463],[-3.4322,40.468],[-3.4753,40.4568],[-3.4754,40.4568]]]]}},{"type":"Feature","properties":{"CUDIS":"2814803","NMUN":"Torrejón de Ardoz","NCA":"Comunidad de Madrid"},"geometry":{"type":"MultiPolygon","coordinates":[[[[-3.4599,40.4386],[-3.4754,40.4568],[-3.4899,40.4547],[-3.4599,40.4386]]]]}},{"type":"Feature","properties":{"CUDIS":"2814804","NMUN":"Torrejón de Ardoz","NCA":"Comunidad de Madrid"},"geometry":{"type":"MultiPolygon","coordinates":[[[[-3.4899,40.4547],[-3.4754,40.4568],[-3.4753,40.4568],[-3.4782,40.487],[-3.4995,40.4718],[-3.4899,40.4547]]]]}},{"type":"Feature","properties":{"CUDIS":"2814901","NMUN":"Torrejón de la Calzada","NCA":"Comunidad de Madrid"},"geometry":{"type":"MultiPolygon","coordinates":[[[[-3.8001,40.1757],[-3.7799,40.2095],[-3.8034,40.22],[-3.8211,40.2052],[-3.8068,40.1773],[-3.8001,40.1757]]]]}},{"type":"Feature","properties":{"CUDIS":"2815001","NMUN":"Torrejón de Velasco","NCA":"Comunidad de Madrid"},"geometry":{"type":"MultiPolygon","coordinates":[[[[-3.7179,40.1464],[-3.7025,40.1929],[-3.7,40.1989],[-3.7335,40.211],[-3.7799,40.2095],[-3.8001,40.1757],[-3.7719,40.1396],[-3.7421,40.1342],[-3.7179,40.1464]]]]}},{"type":"Feature","properties":{"CUDIS":"2815101","NMUN":"Torrelaguna","NCA":"Comunidad de Madrid"},"geometry":{"type":"MultiPolygon","coordinates":[[[[-3.5365,40.8624],[-3.5449,40.8575],[-3.5125,40.8384],[-3.5365,40.8624]]]]}},{"type":"Feature","properties":{"CUDIS":"2815102","NMUN":"Torrelaguna","NCA":"Comunidad de Madrid"},"geometry":{"type":"MultiPolygon","coordinates":[[[[-3.5045,40.7892],[-3.5022,40.7976],[-3.5125,40.8384],[-3.5449,40.8575],[-3.571,40.851],[-3.6047,40.8422],[-3.574,40.7909],[-3.5116,40.7885],[-3.5045,40.7892]]]]}},{"type":"Feature","properties":{"CUDIS":"2815201","NMUN":"Torrelodones","NCA":"Comunidad de Madrid"},"geometry":{"type":"MultiPolygon","coordinates":[[[[-3.9454,40.5512],[-3.8855,40.5746],[-3.8837,40.5853],[-3.9531,40.5974],[-3.9454,40.5512]]]]}},{"type":"Feature","properties":{"CUDIS":"2815301","NMUN":"Torremocha de Jarama","NCA":"Comunidad de Madrid"},"geometry":{"type":"MultiPolygon","coordinates":[[[[-3.4702,40.8521],[-3.5247,40.8761],[-3.5365,40.8624],[-3.5125,40.8384],[-3.5022,40.7976],[-3.4702,40.8521]]]]}},{"type":"Feature","properties":{"CUDIS":"2815401","NMUN":"Torres de la Alameda","NCA":"Comunidad de Madrid"},"geometry":{"type":"MultiPolygon","coordinates":[[[[-3.3526,40.3666],[-3.3122,40.4006],[-3.3314,40.4237],[-3.4087,40.4535],[-3.4268,40.4532],[-3.4119,40.4256],[-3.3526,40.3666]]]]}},{"type":"Feature","properties":{"CUDIS":"2815501","NMUN":"Valdaracete","NCA":"Comunidad de Madrid"},"geometry":{"type":"MultiPolygon","coordinates":[[[[-3.1734,40.2342],[-3.1954,40.2476],[-3.2704,40.2148],[-3.1977,40.1561],[-3.1498,40.1615],[-3.1509,40.2228],[-3.1734,40.2342]]]]}},{"type":"Feature","properties":{"CUDIS":"2815601","NMUN":"Valdeavero","NCA":"Comunidad de Madrid"},"geometry":{"type":"MultiPolygon","coordinates":[[[[-3.3216,40.6122],[-3.3168,40.6527],[-3.3655,40.6507],[-3.3803,40.6329],[-3.3717,40.6258],[-3.3822,40.6082],[-3.3384,40.5968],[-3.3307,40.6009],[-3.3216,40.6122]]]]}},{"type":"Feature","properties":{"CUDIS":"2815701","NMUN":"Valdelaguna","NCA":"Comunidad de Madrid"},"geometry":{"type":"MultiPolygon","coordinates":[[[[-3.3204,40.178],[-3.3945,40.219],[-3.4212,40.2005],[-3.4231,40.197],[-3.385,40.1353],[-3.3777,40.1336],[-3.3204,40.178]]]]}},{"type":"Feature","properties":{"CUDIS":"2815801","NMUN":"Valdemanco","NCA":"Comunidad de Madrid"},"geometry":{"type":"MultiPolygon","coordinates":[[[[-3.6504,40.8797],[-3.6753,40.8922],[-3.694,40.8804],[-3.6711,40.8335],[-3.653,40.8335],[-3.6428,40.8518],[-3.6504,40.8797]]]]}},{"type":"Feature","properties":{"CUDIS":"2815901","NMUN":"Valdemaqueda","NCA":"Comunidad de Madrid"},"geometry":{"type":"MultiPolygon","coordinates":[[[[-4.2618,40.5311],[-4.2892,40.5641],[-4.3241,40.5477],[-4.322,40.5172],[-4.3254,40.4598],[-4.339,40.4317],[-4.2936,40.4459],[-4.2618,40.5311]]]]}},{"type":"Feature","properties":{"CUDIS":"2816001","NMUN":"Valdemorillo","NCA":"Comunidad de Madrid"},"geometry":{"type":"MultiPolygon","coordinates":[[[[-4.0417,40.4487],[-3.9933,40.4727],[-4.0011,40.4856],[-4.0473,40.5707],[-4.1282,40.522],[-4.0785,40.4412],[-4.0417,40.4487]]]]}},{"type":"Feature","properties":{"CUDIS":"2816101","NMUN":"Valdemoro","NCA":"Comunidad de Madrid"},"geometry":{"type":"MultiPolygon","coordinates":[[[[-3.6672,40.1434],[-3.6379,40.165],[-3.6131,40.1646],[-3.6074,40.16],[-3.5915,40.1963],[-3.6437,40.2297],[-3.6835,40.2152],[-3.7025,40.1929],[-3.7179,40.1464],[-3.7127,40.1418],[-3.6672,40.1434]]]]}},{"type":"Feature","properties":{"CUDIS":"2816102","NMUN":"Valdemoro","NCA":"Comunidad de Madrid"},"geometry":{"type":"MultiPolygon","coordinates":[[[[-3.7025,40.1929],[-3.6835,40.2152],[-3.6873,40.2136],[-3.7,40.1989],[-3.7025,40.1929]]]]}},{"type":"Feature","properties":{"CUDIS":"2816201","NMUN":"Valdeolmos-Alalpardo","NCA":"Comunidad de Madrid"},"geometry":{"type":"MultiPolygon","coordinates":[[[[-3.4907,40.6251],[-3.4539,40.6073],[-3.4421,40.6175],[-3.4203,40.6458],[-3.4827,40.6704],[-3.4828,40.668],[-3.4907,40.6251]]]]}},{"type":"Feature","properties":{"CUDIS":"2816301","NMUN":"Valdepiélagos","NCA":"Comunidad de Madrid"},"geometry":{"type":"MultiPolygon","coordinates":[[[[-3.4469,40.7638],[-3.4983,40.7889],[-3.4513,40.7383],[-3.4469,40.7638]]]]}},{"type":"Feature","properties":{"CUDIS":"2816401","NMUN":"Valdetorres de Jarama","NCA":"Comunidad de Madrid"},"geometry":{"type":"MultiPolygon","coordinates":[[[[-3.4827,40.6704],[-3.4685,40.6899],[-3.5259,40.7325],[-3.5568,40.6609],[-3.4828,40.668],[-3.4827,40.6704]]]]}},{"type":"Feature","properties":{"CUDIS":"2816501","NMUN":"Valdilecha","NCA":"Comunidad de Madrid"},"geometry":{"type":"MultiPolygon","coordinates":[[[[-3.2521,40.3035],[-3.2882,40.3327],[-3.3129,40.3286],[-3.3484,40.2738],[-3.3339,40.2642],[-3.2851,40.262],[-3.2521,40.3035]]]]}},{"type":"Feature","properties":{"CUDIS":"2816601","NMUN":"Valverde de Alcalá","NCA":"Comunidad de Madrid"},"geometry":{"type":"MultiPolygon","coordinates":[[[[-3.2879,40.4181],[-3.3314,40.4237],[-3.3122,40.4006],[-3.2737,40.3805],[-3.2786,40.3944],[-3.2879,40.4181]]]]}},{"type":"Feature","properties":{"CUDIS":"2816701","NMUN":"Velilla de San Antonio","NCA":"Comunidad de Madrid"},"geometry":{"type":"MultiPolygon","coordinates":[[[[-3.4535,40.3433],[-3.4658,40.3885],[-3.5003,40.378],[-3.4716,40.3381],[-3.4535,40.3433]]]]}},{"type":"Feature","properties":{"CUDIS":"2816801","NMUN":"Vellón, El","NCA":"Comunidad de Madrid"},"geometry":{"type":"MultiPolygon","coordinates":[[[[-3.5116,40.7885],[-3.574,40.7909],[-3.5959,40.791],[-3.6102,40.7859],[-3.6086,40.7797],[-3.5938,40.7506],[-3.544,40.735],[-3.5116,40.7885]]]]}},{"type":"Feature","properties":{"CUDIS":"2816901","NMUN":"Venturada","NCA":"Comunidad de Madrid"},"geometry":{"type":"MultiPolygon","coordinates":[[[[-3.6133,40.8098],[-3.651,40.8011],[-3.6102,40.7859],[-3.5959,40.791],[-3.6133,40.8098]]]]}},{"type":"Feature","properties":{"CUDIS":"2817001","NMUN":"Villaconejos","NCA":"Comunidad de Madrid"},"geometry":{"type":"MultiPolygon","coordinates":[[[[-3.5494,40.1019],[-3.451,40.1182],[-3.5223,40.1364],[-3.5494,40.1019]]]]}},{"type":"Feature","properties":{"CUDIS":"2817101","NMUN":"Villa del Prado","NCA":"Comunidad de Madrid"},"geometry":{"type":"MultiPolygon","coordinates":[[[[-4.2315,40.2767],[-4.295,40.3226],[-4.3564,40.3086],[-4.3482,40.2368],[-4.2955,40.2187],[-4.2315,40.2767]]]]}},{"type":"Feature","properties":{"CUDIS":"2817201","NMUN":"Villalbilla","NCA":"Comunidad de Madrid"},"geometry":{"type":"MultiPolygon","coordinates":[[[[-3.2674,40.4393],[-3.3213,40.472],[-3.3481,40.4534],[-3.4087,40.4535],[-3.3314,40.4237],[-3.2879,40.4181],[-3.2674,40.4393]]]]}},{"type":"Feature","properties":{"CUDIS":"2817301","NMUN":"Villamanrique de Tajo","NCA":"Comunidad de Madrid"},"geometry":{"type":"MultiPolygon","coordinates":[[[[-3.201,40.0856],[-3.2864,40.0523],[-3.2199,40.059],[-3.1886,40.0825],[-3.201,40.0856]]]]}},{"type":"Feature","properties":{"CUDIS":"2817401","NMUN":"Villamanta","NCA":"Comunidad de Madrid"},"geometry":{"type":"MultiPolygon","coordinates":[[[[-4.0701,40.3351],[-4.0741,40.343],[-4.1029,40.3359],[-4.1697,40.3184],[-4.1725,40.2881],[-4.1436,40.2449],[-4.1042,40.2418],[-4.0805,40.2669],[-4.0701,40.3351]]]]}},{"type":"Feature","properties":{"CUDIS":"2817501","NMUN":"Villamantilla","NCA":"Comunidad de Madrid"},"geometry":{"type":"MultiPolygon","coordinates":[[[[-4.1029,40.3359],[-4.1366,40.3699],[-4.147,40.3647],[-4.1824,40.3478],[-4.188,40.3379],[-4.1697,40.3184],[-4.1029,40.3359]]]]}},{"type":"Feature","properties":{"CUDIS":"2817601","NMUN":"Villanueva de la Cañada","NCA":"Comunidad de Madrid"},"geometry":{"type":"MultiPolygon","coordinates":[[[[-3.949,40.4138],[-3.9449,40.4549],[-3.937,40.4845],[-3.9933,40.4727],[-4.0417,40.4487],[-4.026,40.4282],[-3.9469,40.408],[-3.949,40.4138]]]]}},{"type":"Feature","properties":{"CUDIS":"2817701","NMUN":"Villanueva del Pardillo","NCA":"Comunidad de Madrid"},"geometry":{"type":"MultiPolygon","coordinates":[[[[-3.937,40.4845],[-3.9334,40.4997],[-3.9398,40.5082],[-3.9847,40.5165],[-4.0011,40.4856],[-3.9933,40.4727],[-3.937,40.4845]]]]}},{"type":"Feature","properties":{"CUDIS":"2817801","NMUN":"Villanueva de Perales","NCA":"Comunidad de Madrid"},"geometry":{"type":"MultiPolygon","coordinates":[[[[-4.0465,40.3883],[-4.113,40.4025],[-4.1366,40.3699],[-4.1029,40.3359],[-4.0741,40.343],[-4.0352,40.3784],[-4.0465,40.3883]]]]}},{"type":"Feature","properties":{"CUDIS":"2817901","NMUN":"Villar del Olmo","NCA":"Comunidad de Madrid"},"geometry":{"type":"MultiPolygon","coordinates":[[[[-3.2045,40.344],[-3.2339,40.3583],[-3.2785,40.3462],[-3.2882,40.3327],[-3.2521,40.3035],[-3.2163,40.3129],[-3.2045,40.344]]]]}},{"type":"Feature","properties":{"CUDIS":"2818001","NMUN":"Villarejo de Salvanés","NCA":"Comunidad de Madrid"},"geometry":{"type":"MultiPolygon","coordinates":[[[[-3.201,40.0856],[-3.1977,40.1561],[-3.2704,40.2148],[-3.298,40.1905],[-3.3204,40.178],[-3.2966,40.1313],[-3.3484,40.098],[-3.345,40.0801],[-3.2926,40.0522],[-3.2864,40.0523],[-3.201,40.0856]]]]}},{"type":"Feature","properties":{"CUDIS":"2818101","NMUN":"Villaviciosa de Odón","NCA":"Comunidad de Madrid"},"geometry":{"type":"MultiPolygon","coordinates":[[[[-3.9415,40.3002],[-3.902,40.3476],[-3.8709,40.3531],[-3.8676,40.3777],[-3.949,40.4138],[-3.9469,40.408],[-4.0053,40.3593],[-4.0064,40.3394],[-3.9415,40.3002]]]]}},{"type":"Feature","properties":{"CUDIS":"2818201","NMUN":"Villavieja del Lozoya","NCA":"Comunidad de Madrid"},"geometry":{"type":"MultiPolygon","coordinates":[[[[-3.6542,41.0073],[-3.7214,41.065],[-3.7393,41.0539],[-3.7484,41.0366],[-3.6794,40.9921],[-3.6656,40.9953],[-3.6542,41.0073]]]]}},{"type":"Feature","properties":{"CUDIS":"2818301","NMUN":"Zarzalejo","NCA":"Comunidad de Madrid"},"geometry":{"type":"MultiPolygon","coordinates":[[[[-4.1605,40.5625],[-4.1672,40.5713],[-4.1968,40.5591],[-4.1539,40.5315],[-4.1605,40.5625]]]]}},{"type":"Feature","properties":{"CUDIS":"2890101","NMUN":"Lozoyuela-Navas-Sieteiglesias","NCA":"Comunidad de Madrid"},"geometry":{"type":"MultiPolygon","coordinates":[[[[-3.5686,40.9042],[-3.6294,40.9615],[-3.6445,40.9537],[-3.6753,40.8922],[-3.6504,40.8797],[-3.5993,40.8887],[-3.5686,40.9042]]]]}},{"type":"Feature","properties":{"CUDIS":"2890201","NMUN":"Puentes Viejas","NCA":"Comunidad de Madrid"},"geometry":{"type":"MultiPolygon","coordinates":[[[[-3.4919,41.0126],[-3.5576,41.0291],[-3.5752,41.024],[-3.5804,40.991],[-3.6294,40.9615],[-3.5686,40.9042],[-3.5447,40.9045],[-3.5497,40.9212],[-3.5624,40.9562],[-3.4958,40.994],[-3.4919,41.0126]]]]}},{"type":"Feature","properties":{"CUDIS":"2890301","NMUN":"Tres Cantos","NCA":"Comunidad de Madrid"},"geometry":{"type":"MultiPolygon","coordinates":[[[[-3.8105,40.6095],[-3.7194,40.5821],[-3.668,40.6296],[-3.8105,40.6095]]]]}}]}
