{"type":"FeatureCollection","features":[{"type":"Feature","geometry":{"type":"MultiPolygon","coordinates":[[[[-3.64316,41.120634],[-3.676065,41.086697],[-3.628132,41.068858],[-3.616075,41.069866],[-3.609068,41.07636],[-3.599775,41.096137],[-3.64316,41.120634]]]]},"properties":{"CUDIS":"2800101","NMUN":"Acebeda, La","NCA":"Comunidad de Madrid"}},{"type":"Feature","geometry":{"type":"MultiPolygon","coordinates":[[[[-3.435099,40.508887],[-3.480963,40.562144],[-3.512216,40.538637],[-3.479609,40.494623],[-3.435099,40.508887]]]]},"properties":{"CUDIS":"2800201","NMUN":"Ajalvir","NCA":"Comunidad de Madrid"}},{"type":"Feature","geometry":{"type":"MultiPolygon","coordinates":[[[[-3.808662,40.888235],[-3.88078,40.972786],[-3.890451,40.969058],[-3.898699,40.958322],[-3.819444,40.860538],[-3.808662,40.888235]]]]},"properties":{"CUDIS":"2800301","NMUN":"Alameda del Valle","NCA":"Comunidad de Madrid"}},{"type":"Feature","geometry":{"type":"MultiPolygon","coordinates":[[[[-4.023768,40.249019],[-3.952917,40.212339],[-3.94638,40.224598],[-4.023768,40.249019]]]]},"properties":{"CUDIS":"2800401","NMUN":"Álamo, El","NCA":"Comunidad de Madrid"}},{"type":"Feature","geometry":{"type":"MultiPolygon","coordinates":[[[[-3.362034,40.476031],[-3.361736,40.490739],[-3.365116,40.489557],[-3.373454,40.48681],[-3.362034,40.476031]]]]},"properties":{"CUDIS":"2800501","NMUN":"Alcalá de Henares","NCA":"Comunidad de Madrid"}},{"type":"Feature","geometry":{"type":"MultiPolygon","coordinates":[[[[-3.348077,40.453429],[-3.362034,40.476031],[-3.373454,40.48681],[-3.429437,40.468877],[-3.432186,40.46798],[-3.447397,40.446327],[-3.426839,40.453183],[-3.408734,40.453458],[-3.348077,40.453429]]]]},"properties":{"CUDIS":"2800502","NMUN":"Alcalá de Henares","NCA":"Comunidad de Madrid"}},{"type":"Feature","geometry":{"type":"MultiPolygon","coordinates":[[[[-3.429437,40.468877],[-3.373454,40.48681],[-3.365116,40.489557],[-3.381935,40.52808],[-3.415815,40.545405],[-3.429077,40.510888],[-3.429437,40.468877]]]]},"properties":{"CUDIS":"2800503","NMUN":"Alcalá de Henares","NCA":"Comunidad de Madrid"}},{"type":"Feature","geometry":{"type":"MultiPolygon","coordinates":[[[[-3.381935,40.52808],[-3.365116,40.489557],[-3.361736,40.490739],[-3.302757,40.531615],[-3.34993,40.53162],[-3.381935,40.52808]]]]},"properties":{"CUDIS":"2800504","NMUN":"Alcalá de Henares","NCA":"Comunidad de Madrid"}},{"type":"Feature","geometry":{"type":"MultiPolygon","coordinates":[[[[-3.361736,40.490739],[-3.362034,40.476031],[-3.348077,40.453429],[-3.32133,40.471997],[-3.298708,40.494376],[-3.289836,40.531717],[-3.302757,40.531615],[-3.361736,40.490739]]]]},"properties":{"CUDIS":"2800505","NMUN":"Alcalá de Henares","NCA":"Comunidad de Madrid"}},{"type":"Feature","geometry":{"type":"MultiPolygon","coordinates":[[[[-3.65811,40.511493],[-3.602293,40.501266],[-3.55426,40.511334],[-3.553089,40.53225],[-3.626195,40.540283],[-3.673086,40.586905],[-3.65811,40.511493]]]]},"properties":{"CUDIS":"2800601","NMUN":"Alcobendas","NCA":"Comunidad de Madrid"}},{"type":"Feature","geometry":{"type":"MultiPolygon","coordinates":[[[[-3.854252,40.33201],[-3.853469,40.332631],[-3.825326,40.343358],[-3.823508,40.350925],[-3.806942,40.366448],[-3.835233,40.396271],[-3.837815,40.402973],[-3.867598,40.377683],[-3.870925,40.353118],[-3.854252,40.33201]]]]},"properties":{"CUDIS":"2800701","NMUN":"Alcorcón","NCA":"Comunidad de Madrid"}},{"type":"Feature","geometry":{"type":"MultiPolygon","coordinates":[[[[-3.823508,40.350925],[-3.802166,40.341746],[-3.794423,40.357237],[-3.787766,40.358697],[-3.806942,40.366448],[-3.823508,40.350925]]]]},"properties":{"CUDIS":"2800702","NMUN":"Alcorcón","NCA":"Comunidad de Madrid"}},{"type":"Feature","geometry":{"type":"MultiPolygon","coordinates":[[[[-3.825326,40.343358],[-3.81082,40.335776],[-3.800839,40.341309],[-3.802166,40.341746],[-3.823508,40.350925],[-3.825326,40.343358]]]]},"properties":{"CUDIS":"2800703","NMUN":"Alcorcón","NCA":"Comunidad de Madrid"}},{"type":"Feature","geometry":{"type":"MultiPolygon","coordinates":[[[[-3.844037,40.324239],[-3.818116,40.327778],[-3.81082,40.335776],[-3.825326,40.343358],[-3.853469,40.332631],[-3.844037,40.324239]]]]},"properties":{"CUDIS":"2800704","NMUN":"Alcorcón","NCA":"Comunidad de Madrid"}},{"type":"Feature","geometry":{"type":"MultiPolygon","coordinates":[[[[-4.187962,40.337852],[-4.23158,40.334084],[-4.236429,40.326498],[-4.295028,40.322624],[-4.231481,40.276666],[-4.226248,40.269953],[-4.172486,40.2881],[-4.16968,40.318396],[-4.187962,40.337852]]]]},"properties":{"CUDIS":"2800801","NMUN":"Aldea del Fresno","NCA":"Comunidad de Madrid"}},{"type":"Feature","geometry":{"type":"MultiPolygon","coordinates":[[[[-3.539625,40.5823],[-3.466084,40.595465],[-3.453902,40.60727],[-3.490661,40.62506],[-3.559188,40.650541],[-3.593683,40.654803],[-3.591791,40.649165],[-3.584562,40.627365],[-3.539625,40.5823]]]]},"properties":{"CUDIS":"2800901","NMUN":"Algete","NCA":"Comunidad de Madrid"}},{"type":"Feature","geometry":{"type":"MultiPolygon","coordinates":[[[[-4.026041,40.632751],[-3.995265,40.681102],[-4.045056,40.662528],[-4.026041,40.632751]]]]},"properties":{"CUDIS":"2801001","NMUN":"Alpedrete","NCA":"Comunidad de Madrid"}},{"type":"Feature","geometry":{"type":"MultiPolygon","coordinates":[[[[-3.150126,40.373422],[-3.176821,40.374167],[-3.20454,40.344022],[-3.216267,40.312882],[-3.182069,40.304556],[-3.143566,40.357852],[-3.150126,40.373422]]]]},"properties":{"CUDIS":"2801101","NMUN":"Ambite","NCA":"Comunidad de Madrid"}},{"type":"Feature","geometry":{"type":"MultiPolygon","coordinates":[[[[-3.258189,40.484171],[-3.298708,40.494376],[-3.32133,40.471997],[-3.267418,40.43929],[-3.235205,40.444358],[-3.258189,40.484171]]]]},"properties":{"CUDIS":"2801201","NMUN":"Anchuelo","NCA":"Comunidad de Madrid"}},{"type":"Feature","geometry":{"type":"MultiPolygon","coordinates":[[[[-3.602923,40.031887],[-3.577665,40.034768],[-3.601684,40.036871],[-3.602923,40.031887]]]]},"properties":{"CUDIS":"2801301","NMUN":"Aranjuez","NCA":"Comunidad de Madrid"}},{"type":"Feature","geometry":{"type":"MultiPolygon","coordinates":[[[[-3.600156,40.021902],[-3.577665,40.034768],[-3.602923,40.031887],[-3.600156,40.021902]]]]},"properties":{"CUDIS":"2801302","NMUN":"Aranjuez","NCA":"Comunidad de Madrid"}},{"type":"Feature","geometry":{"type":"MultiPolygon","coordinates":[[[[-3.602923,40.031887],[-3.61913,40.0317],[-3.61695,40.018683],[-3.600156,40.021902],[-3.602923,40.031887]]]]},"properties":{"CUDIS":"2801303","NMUN":"Aranjuez","NCA":"Comunidad de Madrid"}},{"type":"Feature","geometry":{"type":"MultiPolygon","coordinates":[[[[-3.580934,40.098985],[-3.557586,40.125239],[-3.583742,40.128514],[-3.606715,40.109205],[-3.667873,40.028667],[-3.715723,40.003359],[-3.739447,39.961487],[-3.821988,39.946561],[-3.867444,39.932124],[-3.873143,39.909036],[-3.814871,39.885827],[-3.804455,39.884795],[-3.743871,39.940802],[-3.665956,39.963508],[-3.631029,39.968688],[-3.615617,39.993953],[-3.550738,40.017702],[-3.519883,40.020875],[-3.517191,40.036472],[-3.515197,40.043282],[-3.580934,40.098985]],[[-3.602923,40.031887],[-3.601684,40.036871],[-3.577665,40.034768],[-3.600156,40.021902],[-3.61695,40.018683],[-3.61913,40.0317],[-3.602923,40.031887]]]]},"properties":{"CUDIS":"2801304","NMUN":"Aranjuez","NCA":"Comunidad de Madrid"}},{"type":"Feature","geometry":{"type":"MultiPolygon","coordinates":[[[[-3.482663,40.256935],[-3.44703,40.257468],[-3.423258,40.2547],[-3.369746,40.265333],[-3.426226,40.34971],[-3.453475,40.343264],[-3.471602,40.338111],[-3.519798,40.294281],[-3.482663,40.256935]]]]},"properties":{"CUDIS":"2801401","NMUN":"Arganda del Rey","NCA":"Comunidad de Madrid"}},{"type":"Feature","geometry":{"type":"MultiPolygon","coordinates":[[[[-3.943387,40.261885],[-3.877005,40.288296],[-3.921542,40.302576],[-3.941763,40.297179],[-3.941523,40.292723],[-3.942062,40.291682],[-3.943387,40.261885]]]]},"properties":{"CUDIS":"2801501","NMUN":"Arroyomolinos","NCA":"Comunidad de Madrid"}},{"type":"Feature","geometry":{"type":"MultiPolygon","coordinates":[[[[-3.451287,40.912865],[-3.421587,40.967283],[-3.484157,40.962638],[-3.50259,40.924557],[-3.497066,40.909811],[-3.451287,40.912865]]]]},"properties":{"CUDIS":"2801601","NMUN":"Atazar, El","NCA":"Comunidad de Madrid"}},{"type":"Feature","geometry":{"type":"MultiPolygon","coordinates":[[[[-3.936934,40.24968],[-3.94638,40.224598],[-3.952917,40.212339],[-3.956282,40.199072],[-3.949151,40.199532],[-3.938662,40.203603],[-3.925088,40.200068],[-3.904108,40.234727],[-3.936934,40.24968]]]]},"properties":{"CUDIS":"2801701","NMUN":"Batres","NCA":"Comunidad de Madrid"}},{"type":"Feature","geometry":{"type":"MultiPolygon","coordinates":[[[[-3.829965,40.680683],[-3.873867,40.681062],[-3.873368,40.657087],[-3.879674,40.651532],[-3.865679,40.645964],[-3.840387,40.665957],[-3.832029,40.677],[-3.829965,40.680683]]],[[[-3.919235,40.672846],[-3.90659,40.673182],[-3.907426,40.677644],[-3.915944,40.675305],[-3.919235,40.672846]]],[[[-3.905984,40.682214],[-3.915117,40.67591],[-3.903669,40.680591],[-3.905984,40.682214]]],[[[-3.997497,40.690427],[-3.949835,40.716961],[-3.951549,40.721681],[-3.968577,40.767128],[-4.004857,40.710528],[-3.997497,40.690427]]]]},"properties":{"CUDIS":"2801801","NMUN":"Becerril de la Sierra","NCA":"Comunidad de Madrid"}},{"type":"Feature","geometry":{"type":"MultiPolygon","coordinates":[[[[-3.34841,40.097978],[-3.296616,40.131311],[-3.320357,40.177984],[-3.377702,40.133647],[-3.34841,40.097978]]]]},"properties":{"CUDIS":"2801901","NMUN":"Belmonte de Tajo","NCA":"Comunidad de Madrid"}},{"type":"Feature","geometry":{"type":"MultiPolygon","coordinates":[[[[-3.495802,40.994039],[-3.562446,40.956175],[-3.492977,40.978112],[-3.495802,40.994039]]]]},"properties":{"CUDIS":"2802001","NMUN":"Berzosa del Lozoya","NCA":"Comunidad de Madrid"}},{"type":"Feature","geometry":{"type":"MultiPolygon","coordinates":[[[[-3.544698,40.904517],[-3.56863,40.904203],[-3.599347,40.88867],[-3.571011,40.850992],[-3.544866,40.85753],[-3.536535,40.862448],[-3.524743,40.876125],[-3.517819,40.904929],[-3.544698,40.904517]]]]},"properties":{"CUDIS":"2802101","NMUN":"Berrueco, El","NCA":"Comunidad de Madrid"}},{"type":"Feature","geometry":{"type":"MultiPolygon","coordinates":[[[[-3.948994,40.413779],[-3.867598,40.377683],[-3.837815,40.402973],[-3.863129,40.444082],[-3.880696,40.445137],[-3.944858,40.454856],[-3.948994,40.413779]]]]},"properties":{"CUDIS":"2802201","NMUN":"Boadilla del Monte","NCA":"Comunidad de Madrid"}},{"type":"Feature","geometry":{"type":"MultiPolygon","coordinates":[[[[-3.873867,40.681062],[-3.903669,40.680591],[-3.915117,40.67591],[-3.915944,40.675305],[-3.907426,40.677644],[-3.90659,40.673182],[-3.919235,40.672846],[-3.927849,40.657257],[-3.918218,40.649289],[-3.873368,40.657087],[-3.873867,40.681062]]],[[[-3.925758,40.678947],[-3.906631,40.738667],[-3.968577,40.767128],[-3.951549,40.721681],[-3.940725,40.712553],[-3.925758,40.678947]]]]},"properties":{"CUDIS":"2802301","NMUN":"Boalo, El","NCA":"Comunidad de Madrid"}},{"type":"Feature","geometry":{"type":"MultiPolygon","coordinates":[[[[-3.628132,41.068858],[-3.676065,41.086697],[-3.687431,41.084942],[-3.706195,41.076861],[-3.637234,41.029059],[-3.628132,41.068858]]]]},"properties":{"CUDIS":"2802401","NMUN":"Braojos","NCA":"Comunidad de Madrid"}},{"type":"Feature","geometry":{"type":"MultiPolygon","coordinates":[[[[-3.109507,40.285186],[-3.112084,40.285625],[-3.173398,40.234169],[-3.150905,40.222838],[-3.088231,40.200318],[-3.109507,40.285186]]]]},"properties":{"CUDIS":"2802501","NMUN":"Brea de Tajo","NCA":"Comunidad de Madrid"}},{"type":"Feature","geometry":{"type":"MultiPolygon","coordinates":[[[[-4.005284,40.359292],[-3.946909,40.408039],[-4.026024,40.428221],[-4.046491,40.388313],[-4.035161,40.378373],[-4.005284,40.359292]]]]},"properties":{"CUDIS":"2802601","NMUN":"Brunete","NCA":"Comunidad de Madrid"}},{"type":"Feature","geometry":{"type":"MultiPolygon","coordinates":[[[[-3.618035,41.012975],[-3.634539,41.020895],[-3.654215,41.007269],[-3.665603,40.995319],[-3.656963,40.976354],[-3.644461,40.9537],[-3.629385,40.961546],[-3.580426,40.991021],[-3.618035,41.012975]]]]},"properties":{"CUDIS":"2802701","NMUN":"Buitrago del Lozoya","NCA":"Comunidad de Madrid"}},{"type":"Feature","geometry":{"type":"MultiPolygon","coordinates":[[[[-3.693988,40.880448],[-3.695804,40.880635],[-3.789404,40.846532],[-3.722677,40.797377],[-3.701435,40.799809],[-3.671131,40.833476],[-3.693988,40.880448]]]]},"properties":{"CUDIS":"2802801","NMUN":"Bustarviejo","NCA":"Comunidad de Madrid"}},{"type":"Feature","geometry":{"type":"MultiPolygon","coordinates":[[[[-3.616632,40.84111],[-3.642808,40.85181],[-3.652958,40.83351],[-3.65962,40.804865],[-3.650973,40.801084],[-3.613313,40.809787],[-3.616632,40.84111]]]]},"properties":{"CUDIS":"2802901","NMUN":"Cabanillas de la Sierra","NCA":"Comunidad de Madrid"}},{"type":"Feature","geometry":{"type":"MultiPolygon","coordinates":[[[[-3.571011,40.850992],[-3.599347,40.88867],[-3.650424,40.879748],[-3.642808,40.85181],[-3.616632,40.84111],[-3.604707,40.84218],[-3.571011,40.850992]]]]},"properties":{"CUDIS":"2803001","NMUN":"Cabrera, La","NCA":"Comunidad de Madrid"}},{"type":"Feature","geometry":{"type":"MultiPolygon","coordinates":[[[[-4.435034,40.259303],[-4.379663,40.318011],[-4.453814,40.333093],[-4.472228,40.319531],[-4.494443,40.278517],[-4.435034,40.259303]]]]},"properties":{"CUDIS":"2803101","NMUN":"Cadalso de los Vidrios","NCA":"Comunidad de Madrid"}},{"type":"Feature","geometry":{"type":"MultiPolygon","coordinates":[[[[-3.34993,40.53162],[-3.338366,40.596825],[-3.382187,40.608166],[-3.395526,40.574556],[-3.415815,40.545405],[-3.381935,40.52808],[-3.34993,40.53162]]]]},"properties":{"CUDIS":"2803201","NMUN":"Camarma de Esteruelas","NCA":"Comunidad de Madrid"}},{"type":"Feature","geometry":{"type":"MultiPolygon","coordinates":[[[[-3.348381,40.273796],[-3.312861,40.328616],[-3.356079,40.36225],[-3.426226,40.34971],[-3.369746,40.265333],[-3.348381,40.273796]]]]},"properties":{"CUDIS":"2803301","NMUN":"Campo Real","NCA":"Comunidad de Madrid"}},{"type":"Feature","geometry":{"type":"MultiPolygon","coordinates":[[[[-3.725304,40.935012],[-3.736893,40.941674],[-3.78706,40.9133],[-3.808662,40.888235],[-3.819444,40.860538],[-3.79824,40.848999],[-3.789404,40.846532],[-3.695804,40.880635],[-3.725304,40.935012]]]]},"properties":{"CUDIS":"2803401","NMUN":"Canencia","NCA":"Comunidad de Madrid"}},{"type":"Feature","geometry":{"type":"MultiPolygon","coordinates":[[[[-3.197305,40.25767],[-3.252135,40.303479],[-3.285142,40.261972],[-3.270434,40.214779],[-3.195381,40.24762],[-3.197305,40.25767]]]]},"properties":{"CUDIS":"2803501","NMUN":"Carabaña","NCA":"Comunidad de Madrid"}},{"type":"Feature","geometry":{"type":"MultiPolygon","coordinates":[[[[-3.840868,40.162599],[-3.8068,40.177302],[-3.85344,40.179398],[-3.840868,40.162599]]]]},"properties":{"CUDIS":"2803601","NMUN":"Casarrubuelos","NCA":"Comunidad de Madrid"}},{"type":"Feature","geometry":{"type":"MultiPolygon","coordinates":[[[[-4.497939,40.221669],[-4.437448,40.237689],[-4.435034,40.259303],[-4.494443,40.278517],[-4.556012,40.266201],[-4.569218,40.257202],[-4.579006,40.217403],[-4.550529,40.201842],[-4.522144,40.202399],[-4.497939,40.221669]]]]},"properties":{"CUDIS":"2803701","NMUN":"Cenicientos","NCA":"Comunidad de Madrid"}},{"type":"Feature","geometry":{"type":"MultiPolygon","coordinates":[[[[-4.008335,40.786972],[-4.021484,40.781265],[-4.070096,40.793867],[-4.079004,40.781472],[-4.096961,40.747658],[-4.051694,40.714319],[-4.040474,40.718687],[-4.002369,40.788434],[-4.008335,40.786972]]]]},"properties":{"CUDIS":"2803801","NMUN":"Cercedilla","NCA":"Comunidad de Madrid"}},{"type":"Feature","geometry":{"type":"MultiPolygon","coordinates":[[[[-3.50259,40.924557],[-3.549733,40.921244],[-3.544698,40.904517],[-3.517819,40.904929],[-3.497066,40.909811],[-3.50259,40.924557]]]]},"properties":{"CUDIS":"2803901","NMUN":"Cervera de Buitrago","NCA":"Comunidad de Madrid"}},{"type":"Feature","geometry":{"type":"MultiPolygon","coordinates":[[[[-3.620616,40.160124],[-3.607436,40.159969],[-3.613054,40.164639],[-3.620616,40.160124]]]]},"properties":{"CUDIS":"2804001","NMUN":"Ciempozuelos","NCA":"Comunidad de Madrid"}},{"type":"Feature","geometry":{"type":"MultiPolygon","coordinates":[[[[-3.560279,40.190064],[-3.591478,40.196341],[-3.607436,40.159969],[-3.620616,40.160124],[-3.637883,40.165032],[-3.667185,40.14336],[-3.606715,40.109205],[-3.583742,40.128514],[-3.561957,40.171128],[-3.560279,40.190064]]]]},"properties":{"CUDIS":"2804002","NMUN":"Ciempozuelos","NCA":"Comunidad de Madrid"}},{"type":"Feature","geometry":{"type":"MultiPolygon","coordinates":[[[[-3.620616,40.160124],[-3.613054,40.164639],[-3.637883,40.165032],[-3.620616,40.160124]]]]},"properties":{"CUDIS":"2804003","NMUN":"Ciempozuelos","NCA":"Comunidad de Madrid"}},{"type":"Feature","geometry":{"type":"MultiPolygon","coordinates":[[[[-3.512216,40.538637],[-3.480963,40.562144],[-3.466084,40.595465],[-3.539625,40.5823],[-3.544055,40.569783],[-3.512216,40.538637]]]]},"properties":{"CUDIS":"2804101","NMUN":"Cobeña","NCA":"Comunidad de Madrid"}},{"type":"Feature","geometry":{"type":"MultiPolygon","coordinates":[[[[-4.169853,40.436869],[-4.214877,40.447535],[-4.253152,40.405161],[-4.235659,40.393258],[-4.182401,40.347774],[-4.146951,40.364697],[-4.169853,40.436869]]]]},"properties":{"CUDIS":"2804201","NMUN":"Colmenar del Arroyo","NCA":"Comunidad de Madrid"}},{"type":"Feature","geometry":{"type":"MultiPolygon","coordinates":[[[[-3.345027,40.080107],[-3.34841,40.097978],[-3.377702,40.133647],[-3.385024,40.135338],[-3.405254,40.129969],[-3.424677,40.046903],[-3.394179,40.035506],[-3.376445,40.049822],[-3.345027,40.080107]]]]},"properties":{"CUDIS":"2804301","NMUN":"Colmenar de Oreja","NCA":"Comunidad de Madrid"}},{"type":"Feature","geometry":{"type":"MultiPolygon","coordinates":[[[[-3.451033,40.118244],[-3.549388,40.101946],[-3.580934,40.098985],[-3.515197,40.043282],[-3.510566,40.042872],[-3.47311,40.041918],[-3.424677,40.046903],[-3.405254,40.129969],[-3.451033,40.118244]]]]},"properties":{"CUDIS":"2804302","NMUN":"Colmenar de Oreja","NCA":"Comunidad de Madrid"}},{"type":"Feature","geometry":{"type":"MultiPolygon","coordinates":[[[[-4.001148,40.485634],[-3.984655,40.516535],[-4.044535,40.583274],[-4.045109,40.577292],[-4.047286,40.5707],[-4.001148,40.485634]]]]},"properties":{"CUDIS":"2804401","NMUN":"Colmenarejo","NCA":"Comunidad de Madrid"}},{"type":"Feature","geometry":{"type":"MultiPolygon","coordinates":[[[[-3.71037,40.729307],[-3.733524,40.730893],[-3.800604,40.711089],[-3.829965,40.680683],[-3.832029,40.677],[-3.840387,40.665957],[-3.865679,40.645964],[-3.842455,40.592559],[-3.81051,40.60947],[-3.667975,40.629602],[-3.625832,40.616752],[-3.584562,40.627365],[-3.591791,40.649165],[-3.639332,40.639196],[-3.677055,40.723284],[-3.675833,40.728382],[-3.71037,40.729307]]]]},"properties":{"CUDIS":"2804501","NMUN":"Colmenar Viejo","NCA":"Comunidad de Madrid"}},{"type":"Feature","geometry":{"type":"MultiPolygon","coordinates":[[[[-4.045056,40.662528],[-3.995265,40.681102],[-3.997497,40.690427],[-4.004857,40.710528],[-4.040474,40.718687],[-4.051694,40.714319],[-4.061397,40.700666],[-4.045056,40.662528]]]]},"properties":{"CUDIS":"2804601","NMUN":"Collado Mediano","NCA":"Comunidad de Madrid"}},{"type":"Feature","geometry":{"type":"MultiPolygon","coordinates":[[[[-4.029668,40.629863],[-3.958087,40.632854],[-3.995265,40.681102],[-4.026041,40.632751],[-4.029668,40.629863]]]]},"properties":{"CUDIS":"2804701","NMUN":"Collado Villalba","NCA":"Comunidad de Madrid"}},{"type":"Feature","geometry":{"type":"MultiPolygon","coordinates":[[[[-3.211158,40.434431],[-3.235205,40.444358],[-3.267418,40.43929],[-3.28789,40.418144],[-3.278569,40.394412],[-3.219319,40.403049],[-3.211158,40.434431]]]]},"properties":{"CUDIS":"2804801","NMUN":"Corpa","NCA":"Comunidad de Madrid"}},{"type":"Feature","geometry":{"type":"MultiPolygon","coordinates":[[[[-3.577285,40.426541],[-3.57618,40.413083],[-3.55855,40.42762],[-3.577285,40.426541]]]]},"properties":{"CUDIS":"2804901","NMUN":"Coslada","NCA":"Comunidad de Madrid"}},{"type":"Feature","geometry":{"type":"MultiPolygon","coordinates":[[[[-3.57618,40.413083],[-3.531194,40.420085],[-3.537072,40.425244],[-3.55251,40.426905],[-3.55855,40.42762],[-3.57618,40.413083]]]]},"properties":{"CUDIS":"2804902","NMUN":"Coslada","NCA":"Comunidad de Madrid"}},{"type":"Feature","geometry":{"type":"MultiPolygon","coordinates":[[[[-3.55251,40.426905],[-3.537072,40.425244],[-3.527997,40.435506],[-3.55251,40.426905]]]]},"properties":{"CUDIS":"2804903","NMUN":"Coslada","NCA":"Comunidad de Madrid"}},{"type":"Feature","geometry":{"type":"MultiPolygon","coordinates":[[[[-3.527997,40.435506],[-3.531148,40.446875],[-3.576836,40.4298],[-3.577285,40.426541],[-3.55855,40.42762],[-3.55251,40.426905],[-3.527997,40.435506]]]]},"properties":{"CUDIS":"2804904","NMUN":"Coslada","NCA":"Comunidad de Madrid"}},{"type":"Feature","geometry":{"type":"MultiPolygon","coordinates":[[[[-3.8068,40.177302],[-3.821101,40.205162],[-3.869082,40.201077],[-3.876246,40.191106],[-3.85344,40.179398],[-3.8068,40.177302]]]]},"properties":{"CUDIS":"2805001","NMUN":"Cubas de la Sagra","NCA":"Comunidad de Madrid"}},{"type":"Feature","geometry":{"type":"MultiPolygon","coordinates":[[[[-4.182401,40.347774],[-4.235659,40.393258],[-4.23158,40.334084],[-4.187962,40.337852],[-4.182401,40.347774]]]]},"properties":{"CUDIS":"2805101","NMUN":"Chapinería","NCA":"Comunidad de Madrid"}},{"type":"Feature","geometry":{"type":"MultiPolygon","coordinates":[[[[-3.451033,40.118244],[-3.405254,40.129969],[-3.385024,40.135338],[-3.423073,40.196954],[-3.498247,40.216883],[-3.560279,40.190064],[-3.561957,40.171128],[-3.557586,40.125239],[-3.580934,40.098985],[-3.549388,40.101946],[-3.522343,40.136444],[-3.451033,40.118244]]]]},"properties":{"CUDIS":"2805201","NMUN":"Chinchón","NCA":"Comunidad de Madrid"}},{"type":"Feature","geometry":{"type":"MultiPolygon","coordinates":[[[[-3.480963,40.562144],[-3.435099,40.508887],[-3.429077,40.510888],[-3.415815,40.545405],[-3.395526,40.574556],[-3.44213,40.617532],[-3.453902,40.60727],[-3.466084,40.595465],[-3.480963,40.562144]]]]},"properties":{"CUDIS":"2805301","NMUN":"Daganzo de Arriba","NCA":"Comunidad de Madrid"}},{"type":"Feature","geometry":{"type":"MultiPolygon","coordinates":[[[[-4.041322,40.611889],[-4.123914,40.597467],[-4.127875,40.581674],[-4.045109,40.577292],[-4.044535,40.583274],[-4.041322,40.611889]]]]},"properties":{"CUDIS":"2805401","NMUN":"Escorial, El","NCA":"Comunidad de Madrid"}},{"type":"Feature","geometry":{"type":"MultiPolygon","coordinates":[[[[-4.128233,40.522043],[-4.047286,40.5707],[-4.045109,40.577292],[-4.127875,40.581674],[-4.123914,40.597467],[-4.041322,40.611889],[-4.032999,40.630156],[-4.092782,40.630683],[-4.160542,40.562548],[-4.153899,40.531529],[-4.132012,40.518946],[-4.128233,40.522043]]]]},"properties":{"CUDIS":"2805402","NMUN":"Escorial, El","NCA":"Comunidad de Madrid"}},{"type":"Feature","geometry":{"type":"MultiPolygon","coordinates":[[[[-3.088231,40.200318],[-3.150905,40.222838],[-3.149766,40.161526],[-3.11819,40.061428],[-3.095339,40.068387],[-3.053372,40.099144],[-3.067908,40.157672],[-3.088231,40.200318]]]]},"properties":{"CUDIS":"2805501","NMUN":"Estremera","NCA":"Comunidad de Madrid"}},{"type":"Feature","geometry":{"type":"MultiPolygon","coordinates":[[[[-4.141313,40.50626],[-4.207773,40.49854],[-4.214877,40.447535],[-4.169853,40.436869],[-4.141313,40.50626]]]]},"properties":{"CUDIS":"2805601","NMUN":"Fresnedillas de la Oliva","NCA":"Comunidad de Madrid"}},{"type":"Feature","geometry":{"type":"MultiPolygon","coordinates":[[[[-3.382137,40.63047],[-3.420274,40.645845],[-3.44213,40.617532],[-3.395526,40.574556],[-3.382187,40.608166],[-3.371731,40.625768],[-3.382137,40.63047]]]]},"properties":{"CUDIS":"2805701","NMUN":"Fresno de Torote","NCA":"Comunidad de Madrid"}},{"type":"Feature","geometry":{"type":"MultiPolygon","coordinates":[[[[-3.790388,40.293452],[-3.780874,40.295507],[-3.789025,40.296358],[-3.790388,40.293452]]]]},"properties":{"CUDIS":"2805801","NMUN":"Fuenlabrada","NCA":"Comunidad de Madrid"}},{"type":"Feature","geometry":{"type":"MultiPolygon","coordinates":[[[[-3.791282,40.282477],[-3.740172,40.264477],[-3.739536,40.270935],[-3.75045,40.276198],[-3.761744,40.294207],[-3.780874,40.295507],[-3.790388,40.293452],[-3.791282,40.282477]]]]},"properties":{"CUDIS":"2805802","NMUN":"Fuenlabrada","NCA":"Comunidad de Madrid"}},{"type":"Feature","geometry":{"type":"MultiPolygon","coordinates":[[[[-3.791282,40.282477],[-3.790388,40.293452],[-3.789025,40.296358],[-3.792225,40.297246],[-3.794054,40.293738],[-3.798056,40.285368],[-3.791282,40.282477]]]]},"properties":{"CUDIS":"2805803","NMUN":"Fuenlabrada","NCA":"Comunidad de Madrid"}},{"type":"Feature","geometry":{"type":"MultiPolygon","coordinates":[[[[-3.810353,40.274688],[-3.800968,40.250243],[-3.741177,40.254276],[-3.740172,40.264477],[-3.791282,40.282477],[-3.798056,40.285368],[-3.810353,40.274688]]]]},"properties":{"CUDIS":"2805804","NMUN":"Fuenlabrada","NCA":"Comunidad de Madrid"}},{"type":"Feature","geometry":{"type":"MultiPolygon","coordinates":[[[[-3.798056,40.285368],[-3.794054,40.293738],[-3.803758,40.289982],[-3.799022,40.286095],[-3.798056,40.285368]]]]},"properties":{"CUDIS":"2805805","NMUN":"Fuenlabrada","NCA":"Comunidad de Madrid"}},{"type":"Feature","geometry":{"type":"MultiPolygon","coordinates":[[[[-3.827054,40.300407],[-3.803758,40.289982],[-3.794054,40.293738],[-3.792225,40.297246],[-3.818116,40.327778],[-3.844037,40.324239],[-3.841769,40.314828],[-3.827054,40.300407]]]]},"properties":{"CUDIS":"2805806","NMUN":"Fuenlabrada","NCA":"Comunidad de Madrid"}},{"type":"Feature","geometry":{"type":"MultiPolygon","coordinates":[[[[-3.832086,40.286385],[-3.799022,40.286095],[-3.803758,40.289982],[-3.827054,40.300407],[-3.832086,40.286385]]]]},"properties":{"CUDIS":"2805807","NMUN":"Fuenlabrada","NCA":"Comunidad de Madrid"}},{"type":"Feature","geometry":{"type":"MultiPolygon","coordinates":[[[[-3.810353,40.274688],[-3.798056,40.285368],[-3.799022,40.286095],[-3.832086,40.286385],[-3.838691,40.278089],[-3.839465,40.276976],[-3.810353,40.274688]]]]},"properties":{"CUDIS":"2805808","NMUN":"Fuenlabrada","NCA":"Comunidad de Madrid"}},{"type":"Feature","geometry":{"type":"MultiPolygon","coordinates":[[[[-3.832086,40.286385],[-3.827054,40.300407],[-3.841769,40.314828],[-3.842991,40.314958],[-3.841116,40.285747],[-3.838691,40.278089],[-3.832086,40.286385]]]]},"properties":{"CUDIS":"2805809","NMUN":"Fuenlabrada","NCA":"Comunidad de Madrid"}},{"type":"Feature","geometry":{"type":"MultiPolygon","coordinates":[[[[-3.490661,40.62506],[-3.482793,40.667953],[-3.556779,40.660932],[-3.559188,40.650541],[-3.490661,40.62506]]]]},"properties":{"CUDIS":"2805901","NMUN":"Fuente el Saz de Jarama","NCA":"Comunidad de Madrid"}},{"type":"Feature","geometry":{"type":"MultiPolygon","coordinates":[[[[-3.11819,40.061428],[-3.149766,40.161526],[-3.197705,40.156141],[-3.201037,40.085586],[-3.188618,40.082499],[-3.161377,40.064873],[-3.11819,40.061428]]]]},"properties":{"CUDIS":"2806001","NMUN":"Fuentidueña de Tajo","NCA":"Comunidad de Madrid"}},{"type":"Feature","geometry":{"type":"MultiPolygon","coordinates":[[[[-4.044535,40.583274],[-3.984655,40.516535],[-3.93976,40.508206],[-3.945368,40.551241],[-3.953065,40.597438],[-3.958087,40.632854],[-4.029668,40.629863],[-4.032999,40.630156],[-4.041322,40.611889],[-4.044535,40.583274]]]]},"properties":{"CUDIS":"2806101","NMUN":"Galapagar","NCA":"Comunidad de Madrid"}},{"type":"Feature","geometry":{"type":"MultiPolygon","coordinates":[[[[-3.656963,40.976354],[-3.725304,40.935012],[-3.695804,40.880635],[-3.693988,40.880448],[-3.675331,40.892196],[-3.644461,40.9537],[-3.656963,40.976354]]]]},"properties":{"CUDIS":"2806201","NMUN":"Garganta de los Montes","NCA":"Comunidad de Madrid"}},{"type":"Feature","geometry":{"type":"MultiPolygon","coordinates":[[[[-3.665603,40.995319],[-3.679357,40.992149],[-3.738586,40.974934],[-3.736893,40.941674],[-3.725304,40.935012],[-3.656963,40.976354],[-3.665603,40.995319]]]]},"properties":{"CUDIS":"2806301","NMUN":"Gargantilla del Lozoya y Pinilla de Buitrago","NCA":"Comunidad de Madrid"}},{"type":"Feature","geometry":{"type":"MultiPolygon","coordinates":[[[[-3.637234,41.029059],[-3.706195,41.076861],[-3.715981,41.071639],[-3.721423,41.065033],[-3.654215,41.007269],[-3.634539,41.020895],[-3.637234,41.029059]]]]},"properties":{"CUDIS":"2806401","NMUN":"Gascones","NCA":"Comunidad de Madrid"}},{"type":"Feature","geometry":{"type":"MultiPolygon","coordinates":[[[[-3.733625,40.310023],[-3.75045,40.276198],[-3.739536,40.270935],[-3.704524,40.267837],[-3.702822,40.267678],[-3.725107,40.308837],[-3.733625,40.310023]]]]},"properties":{"CUDIS":"2806501","NMUN":"Getafe","NCA":"Comunidad de Madrid"}},{"type":"Feature","geometry":{"type":"MultiPolygon","coordinates":[[[[-3.725107,40.308837],[-3.709429,40.323277],[-3.722676,40.332774],[-3.733625,40.310023],[-3.725107,40.308837]]]]},"properties":{"CUDIS":"2806502","NMUN":"Getafe","NCA":"Comunidad de Madrid"}},{"type":"Feature","geometry":{"type":"MultiPolygon","coordinates":[[[[-3.75045,40.276198],[-3.733625,40.310023],[-3.722676,40.332774],[-3.724927,40.334985],[-3.744982,40.317101],[-3.761744,40.294207],[-3.75045,40.276198]]]]},"properties":{"CUDIS":"2806503","NMUN":"Getafe","NCA":"Comunidad de Madrid"}},{"type":"Feature","geometry":{"type":"MultiPolygon","coordinates":[[[[-3.709429,40.323277],[-3.725107,40.308837],[-3.702822,40.267678],[-3.622909,40.266375],[-3.571506,40.287119],[-3.576132,40.314882],[-3.658627,40.328431],[-3.709429,40.323277]]]]},"properties":{"CUDIS":"2806504","NMUN":"Getafe","NCA":"Comunidad de Madrid"}},{"type":"Feature","geometry":{"type":"MultiPolygon","coordinates":[[[[-3.869082,40.201077],[-3.821101,40.205162],[-3.803363,40.22],[-3.807607,40.229418],[-3.851526,40.236843],[-3.884498,40.232107],[-3.869082,40.201077]]]]},"properties":{"CUDIS":"2806601","NMUN":"Griñón","NCA":"Comunidad de Madrid"}},{"type":"Feature","geometry":{"type":"MultiPolygon","coordinates":[[[[-3.61023,40.785892],[-3.650973,40.801084],[-3.65962,40.804865],[-3.701435,40.799809],[-3.722677,40.797377],[-3.71037,40.729307],[-3.675833,40.728382],[-3.608561,40.779662],[-3.61023,40.785892]]]]},"properties":{"CUDIS":"2806701","NMUN":"Guadalix de la Sierra","NCA":"Comunidad de Madrid"}},{"type":"Feature","geometry":{"type":"MultiPolygon","coordinates":[[[[-4.045056,40.662528],[-4.061397,40.700666],[-4.125733,40.724391],[-4.160277,40.689865],[-4.168064,40.647913],[-4.032999,40.630156],[-4.029668,40.629863],[-4.026041,40.632751],[-4.045056,40.662528]]]]},"properties":{"CUDIS":"2806801","NMUN":"Guadarrama","NCA":"Comunidad de Madrid"}},{"type":"Feature","geometry":{"type":"MultiPolygon","coordinates":[[[[-3.438935,41.042669],[-3.474499,41.095143],[-3.485185,41.063775],[-3.467178,41.048087],[-3.438935,41.042669]]]]},"properties":{"CUDIS":"2806901","NMUN":"Hiruela, La","NCA":"Comunidad de Madrid"}},{"type":"Feature","geometry":{"type":"MultiPolygon","coordinates":[[[[-3.563194,41.059058],[-3.564388,41.114328],[-3.566007,41.113893],[-3.599775,41.096137],[-3.609068,41.07636],[-3.587411,41.043446],[-3.563194,41.059058]]]]},"properties":{"CUDIS":"2807001","NMUN":"Horcajo de la Sierra-Aoslos","NCA":"Comunidad de Madrid"}},{"type":"Feature","geometry":{"type":"MultiPolygon","coordinates":[[[[-3.542178,41.050417],[-3.547336,41.134743],[-3.564388,41.114328],[-3.563194,41.059058],[-3.559032,41.048307],[-3.542178,41.050417]]]]},"properties":{"CUDIS":"2807101","NMUN":"Horcajuelo de la Sierra","NCA":"Comunidad de Madrid"}},{"type":"Feature","geometry":{"type":"MultiPolygon","coordinates":[[[[-3.953065,40.597438],[-3.883721,40.585278],[-3.842455,40.592559],[-3.865679,40.645964],[-3.879674,40.651532],[-3.953065,40.597438]]]]},"properties":{"CUDIS":"2807201","NMUN":"Hoyo de Manzanares","NCA":"Comunidad de Madrid"}},{"type":"Feature","geometry":{"type":"MultiPolygon","coordinates":[[[[-3.851526,40.236843],[-3.807607,40.229418],[-3.800968,40.250243],[-3.810353,40.274688],[-3.839465,40.276976],[-3.851526,40.236843]]]]},"properties":{"CUDIS":"2807301","NMUN":"Humanes de Madrid","NCA":"Comunidad de Madrid"}},{"type":"Feature","geometry":{"type":"MultiPolygon","coordinates":[[[[-3.769544,40.331039],[-3.800839,40.341309],[-3.81082,40.335776],[-3.818116,40.327778],[-3.792225,40.297246],[-3.789025,40.296358],[-3.780874,40.295507],[-3.761744,40.294207],[-3.744982,40.317101],[-3.757439,40.323587],[-3.769544,40.331039]],[[-3.776192,40.325328],[-3.786245,40.307535],[-3.802479,40.312976],[-3.776192,40.325328]]]]},"properties":{"CUDIS":"2807401","NMUN":"Leganés","NCA":"Comunidad de Madrid"}},{"type":"Feature","geometry":{"type":"MultiPolygon","coordinates":[[[[-3.769544,40.331039],[-3.757439,40.323587],[-3.753057,40.328431],[-3.755795,40.340261],[-3.756072,40.34011],[-3.769544,40.331039]]]]},"properties":{"CUDIS":"2807402","NMUN":"Leganés","NCA":"Comunidad de Madrid"}},{"type":"Feature","geometry":{"type":"MultiPolygon","coordinates":[[[[-3.800839,40.341309],[-3.769544,40.331039],[-3.756072,40.34011],[-3.755522,40.347087],[-3.794423,40.357237],[-3.802166,40.341746],[-3.800839,40.341309]]]]},"properties":{"CUDIS":"2807403","NMUN":"Leganés","NCA":"Comunidad de Madrid"}},{"type":"Feature","geometry":{"type":"MultiPolygon","coordinates":[[[[-3.755795,40.340261],[-3.753057,40.328431],[-3.745367,40.329711],[-3.748229,40.34085],[-3.755795,40.340261]]]]},"properties":{"CUDIS":"2807404","NMUN":"Leganés","NCA":"Comunidad de Madrid"}},{"type":"Feature","geometry":{"type":"MultiPolygon","coordinates":[[[[-3.757439,40.323587],[-3.744982,40.317101],[-3.724927,40.334985],[-3.720935,40.365195],[-3.754444,40.357982],[-3.755522,40.347087],[-3.756072,40.34011],[-3.755795,40.340261],[-3.748229,40.34085],[-3.745367,40.329711],[-3.753057,40.328431],[-3.757439,40.323587]]]]},"properties":{"CUDIS":"2807405","NMUN":"Leganés","NCA":"Comunidad de Madrid"}},{"type":"Feature","geometry":{"type":"MultiPolygon","coordinates":[[[[-3.754444,40.357982],[-3.771224,40.359857],[-3.787766,40.358697],[-3.794423,40.357237],[-3.755522,40.347087],[-3.754444,40.357982]]]]},"properties":{"CUDIS":"2807406","NMUN":"Leganés","NCA":"Comunidad de Madrid"}},{"type":"Feature","geometry":{"type":"MultiPolygon","coordinates":[[[[-3.776192,40.325328],[-3.802479,40.312976],[-3.786245,40.307535],[-3.776192,40.325328]]]]},"properties":{"CUDIS":"2807407","NMUN":"Leganés","NCA":"Comunidad de Madrid"}},{"type":"Feature","geometry":{"type":"MultiPolygon","coordinates":[[[[-3.352598,40.36655],[-3.41187,40.425562],[-3.439931,40.412549],[-3.465822,40.388492],[-3.453475,40.343264],[-3.426226,40.34971],[-3.356079,40.36225],[-3.352598,40.36655]]]]},"properties":{"CUDIS":"2807501","NMUN":"Loeches","NCA":"Comunidad de Madrid"}},{"type":"Feature","geometry":{"type":"MultiPolygon","coordinates":[[[[-3.738586,40.974934],[-3.770637,41.013184],[-3.830194,40.986406],[-3.843951,40.982532],[-3.844512,40.982368],[-3.78706,40.9133],[-3.736893,40.941674],[-3.738586,40.974934]]]]},"properties":{"CUDIS":"2807601","NMUN":"Lozoya","NCA":"Comunidad de Madrid"}},{"type":"Feature","geometry":{"type":"MultiPolygon","coordinates":[[[[-3.563194,41.059058],[-3.587411,41.043446],[-3.575219,41.024003],[-3.557562,41.029122],[-3.559032,41.048307],[-3.563194,41.059058]]]]},"properties":{"CUDIS":"2807801","NMUN":"Madarcos","NCA":"Comunidad de Madrid"}},{"type":"Feature","geometry":{"type":"MultiPolygon","coordinates":[[[[-3.722969,40.41398],[-3.692075,40.409448],[-3.692473,40.419473],[-3.690379,40.425247],[-3.716236,40.430608],[-3.722344,40.417115],[-3.722969,40.41398]]]]},"properties":{"CUDIS":"2807901","NMUN":"Madrid","NCA":"Comunidad de Madrid"}},{"type":"Feature","geometry":{"type":"MultiPolygon","coordinates":[[[[-3.722567,40.403753],[-3.704634,40.39508],[-3.689762,40.382318],[-3.673509,40.39435],[-3.692075,40.409448],[-3.722969,40.41398],[-3.722567,40.403753]]]]},"properties":{"CUDIS":"2807902","NMUN":"Madrid","NCA":"Comunidad de Madrid"}},{"type":"Feature","geometry":{"type":"MultiPolygon","coordinates":[[[[-3.692075,40.409448],[-3.673509,40.39435],[-3.665233,40.406344],[-3.658708,40.41862],[-3.692473,40.419473],[-3.692075,40.409448]]]]},"properties":{"CUDIS":"2807903","NMUN":"Madrid","NCA":"Comunidad de Madrid"}},{"type":"Feature","geometry":{"type":"MultiPolygon","coordinates":[[[[-3.692473,40.419473],[-3.658708,40.41862],[-3.660551,40.444633],[-3.690674,40.437993],[-3.690379,40.425247],[-3.692473,40.419473]]]]},"properties":{"CUDIS":"2807904","NMUN":"Madrid","NCA":"Comunidad de Madrid"}},{"type":"Feature","geometry":{"type":"MultiPolygon","coordinates":[[[[-3.690674,40.437993],[-3.660551,40.444633],[-3.67347,40.484054],[-3.687134,40.474181],[-3.691269,40.446224],[-3.690674,40.437993]]]]},"properties":{"CUDIS":"2807905","NMUN":"Madrid","NCA":"Comunidad de Madrid"}},{"type":"Feature","geometry":{"type":"MultiPolygon","coordinates":[[[[-3.708351,40.447102],[-3.691269,40.446224],[-3.687134,40.474181],[-3.713277,40.468532],[-3.708351,40.447102]]]]},"properties":{"CUDIS":"2807906","NMUN":"Madrid","NCA":"Comunidad de Madrid"}},{"type":"Feature","geometry":{"type":"MultiPolygon","coordinates":[[[[-3.716236,40.430608],[-3.690379,40.425247],[-3.690674,40.437993],[-3.691269,40.446224],[-3.708351,40.447102],[-3.716236,40.430608]]]]},"properties":{"CUDIS":"2807907","NMUN":"Madrid","NCA":"Comunidad de Madrid"}},{"type":"Feature","geometry":{"type":"MultiPolygon","coordinates":[[[[-3.836686,40.479381],[-3.713277,40.468532],[-3.687134,40.474181],[-3.67347,40.484054],[-3.65811,40.511493],[-3.673086,40.586905],[-3.625832,40.616752],[-3.667975,40.629602],[-3.719436,40.5821],[-3.81051,40.60947],[-3.842455,40.592559],[-3.883721,40.585278],[-3.885499,40.574602],[-3.836686,40.479381]]]]},"properties":{"CUDIS":"2807908","NMUN":"Madrid","NCA":"Comunidad de Madrid"}},{"type":"Feature","geometry":{"type":"MultiPolygon","coordinates":[[[[-3.774605,40.400313],[-3.722344,40.417115],[-3.716236,40.430608],[-3.708351,40.447102],[-3.713277,40.468532],[-3.836686,40.479381],[-3.836726,40.475124],[-3.834354,40.464416],[-3.812121,40.4638],[-3.779667,40.444178],[-3.774605,40.400313]]]]},"properties":{"CUDIS":"2807909","NMUN":"Madrid","NCA":"Comunidad de Madrid"}},{"type":"Feature","geometry":{"type":"MultiPolygon","coordinates":[[[[-3.771224,40.359857],[-3.722567,40.403753],[-3.722969,40.41398],[-3.722344,40.417115],[-3.774605,40.400313],[-3.835233,40.396271],[-3.806942,40.366448],[-3.787766,40.358697],[-3.771224,40.359857]]]]},"properties":{"CUDIS":"2807910","NMUN":"Madrid","NCA":"Comunidad de Madrid"}},{"type":"Feature","geometry":{"type":"MultiPolygon","coordinates":[[[[-3.771224,40.359857],[-3.754444,40.357982],[-3.720935,40.365195],[-3.720715,40.36489],[-3.704634,40.39508],[-3.722567,40.403753],[-3.771224,40.359857]]]]},"properties":{"CUDIS":"2807911","NMUN":"Madrid","NCA":"Comunidad de Madrid"}},{"type":"Feature","geometry":{"type":"MultiPolygon","coordinates":[[[[-3.720715,40.36489],[-3.681932,40.361179],[-3.689762,40.382318],[-3.704634,40.39508],[-3.720715,40.36489]]]]},"properties":{"CUDIS":"2807912","NMUN":"Madrid","NCA":"Comunidad de Madrid"}},{"type":"Feature","geometry":{"type":"MultiPolygon","coordinates":[[[[-3.681932,40.361179],[-3.621877,40.390774],[-3.629792,40.392515],[-3.665233,40.406344],[-3.673509,40.39435],[-3.689762,40.382318],[-3.681932,40.361179]]]]},"properties":{"CUDIS":"2807913","NMUN":"Madrid","NCA":"Comunidad de Madrid"}},{"type":"Feature","geometry":{"type":"MultiPolygon","coordinates":[[[[-3.665233,40.406344],[-3.629792,40.392515],[-3.620729,40.412479],[-3.658708,40.41862],[-3.665233,40.406344]]]]},"properties":{"CUDIS":"2807914","NMUN":"Madrid","NCA":"Comunidad de Madrid"}},{"type":"Feature","geometry":{"type":"MultiPolygon","coordinates":[[[[-3.660551,40.444633],[-3.658708,40.41862],[-3.620729,40.412479],[-3.619947,40.413681],[-3.648057,40.44946],[-3.67347,40.484054],[-3.660551,40.444633]]]]},"properties":{"CUDIS":"2807915","NMUN":"Madrid","NCA":"Comunidad de Madrid"}},{"type":"Feature","geometry":{"type":"MultiPolygon","coordinates":[[[[-3.67347,40.484054],[-3.648057,40.44946],[-3.603379,40.4499],[-3.602293,40.501266],[-3.65811,40.511493],[-3.67347,40.484054]]]]},"properties":{"CUDIS":"2807916","NMUN":"Madrid","NCA":"Comunidad de Madrid"}},{"type":"Feature","geometry":{"type":"MultiPolygon","coordinates":[[[[-3.709429,40.323277],[-3.658627,40.328431],[-3.681932,40.361179],[-3.720715,40.36489],[-3.720935,40.365195],[-3.724927,40.334985],[-3.722676,40.332774],[-3.709429,40.323277]]]]},"properties":{"CUDIS":"2807917","NMUN":"Madrid","NCA":"Comunidad de Madrid"}},{"type":"Feature","geometry":{"type":"MultiPolygon","coordinates":[[[[-3.658627,40.328431],[-3.576132,40.314882],[-3.553422,40.355859],[-3.621877,40.390774],[-3.681932,40.361179],[-3.658627,40.328431]]]]},"properties":{"CUDIS":"2807918","NMUN":"Madrid","NCA":"Comunidad de Madrid"}},{"type":"Feature","geometry":{"type":"MultiPolygon","coordinates":[[[[-3.621877,40.390774],[-3.553422,40.355859],[-3.519857,40.409813],[-3.531194,40.420085],[-3.57618,40.413083],[-3.577285,40.426541],[-3.576836,40.4298],[-3.619947,40.413681],[-3.620729,40.412479],[-3.629792,40.392515],[-3.621877,40.390774]]]]},"properties":{"CUDIS":"2807919","NMUN":"Madrid","NCA":"Comunidad de Madrid"}},{"type":"Feature","geometry":{"type":"MultiPolygon","coordinates":[[[[-3.648057,40.44946],[-3.619947,40.413681],[-3.576836,40.4298],[-3.531148,40.446875],[-3.531511,40.447265],[-3.603379,40.4499],[-3.648057,40.44946]]]]},"properties":{"CUDIS":"2807920","NMUN":"Madrid","NCA":"Comunidad de Madrid"}},{"type":"Feature","geometry":{"type":"MultiPolygon","coordinates":[[[[-3.603379,40.4499],[-3.531511,40.447265],[-3.53084,40.471281],[-3.55426,40.511334],[-3.602293,40.501266],[-3.603379,40.4499]]]]},"properties":{"CUDIS":"2807921","NMUN":"Madrid","NCA":"Comunidad de Madrid"}},{"type":"Feature","geometry":{"type":"MultiPolygon","coordinates":[[[[-3.880696,40.445137],[-3.869075,40.482381],[-3.933433,40.499681],[-3.936989,40.484486],[-3.944858,40.454856],[-3.880696,40.445137]]]]},"properties":{"CUDIS":"2808001","NMUN":"Majadahonda","NCA":"Comunidad de Madrid"}},{"type":"Feature","geometry":{"type":"MultiPolygon","coordinates":[[[[-3.863129,40.444082],[-3.834354,40.464416],[-3.836726,40.475124],[-3.869075,40.482381],[-3.880696,40.445137],[-3.863129,40.444082]]]]},"properties":{"CUDIS":"2808002","NMUN":"Majadahonda","NCA":"Comunidad de Madrid"}},{"type":"Feature","geometry":{"type":"MultiPolygon","coordinates":[[[[-3.940725,40.712553],[-3.951549,40.721681],[-3.949835,40.716961],[-3.940725,40.712553]]],[[[-3.829965,40.680683],[-3.800604,40.711089],[-3.838174,40.812307],[-3.978152,40.78733],[-3.979527,40.784494],[-3.968577,40.767128],[-3.906631,40.738667],[-3.925758,40.678947],[-3.905984,40.682214],[-3.903669,40.680591],[-3.873867,40.681062],[-3.829965,40.680683]]]]},"properties":{"CUDIS":"2808201","NMUN":"Manzanares el Real","NCA":"Comunidad de Madrid"}},{"type":"Feature","geometry":{"type":"MultiPolygon","coordinates":[[[[-3.289853,40.531748],[-3.28671,40.572569],[-3.330719,40.60092],[-3.338366,40.596825],[-3.34993,40.53162],[-3.302757,40.531615],[-3.289836,40.531717],[-3.289853,40.531748]]]]},"properties":{"CUDIS":"2808301","NMUN":"Meco","NCA":"Comunidad de Madrid"}},{"type":"Feature","geometry":{"type":"MultiPolygon","coordinates":[[[[-3.465822,40.388492],[-3.439931,40.412549],[-3.503172,40.40726],[-3.500293,40.377966],[-3.465822,40.388492]]]]},"properties":{"CUDIS":"2808401","NMUN":"Mejorada del Campo","NCA":"Comunidad de Madrid"}},{"type":"Feature","geometry":{"type":"MultiPolygon","coordinates":[[[[-3.71037,40.729307],[-3.722677,40.797377],[-3.789404,40.846532],[-3.79824,40.848999],[-3.82944,40.813782],[-3.733524,40.730893],[-3.71037,40.729307]]]]},"properties":{"CUDIS":"2808501","NMUN":"Miraflores de la Sierra","NCA":"Comunidad de Madrid"}},{"type":"Feature","geometry":{"type":"MultiPolygon","coordinates":[[[[-3.525897,40.732533],[-3.543967,40.735035],[-3.59383,40.750557],[-3.607546,40.714369],[-3.593683,40.654803],[-3.559188,40.650541],[-3.556779,40.660932],[-3.525897,40.732533]]]]},"properties":{"CUDIS":"2808601","NMUN":"Molar, El","NCA":"Comunidad de Madrid"}},{"type":"Feature","geometry":{"type":"MultiPolygon","coordinates":[[[[-4.051694,40.714319],[-4.096961,40.747658],[-4.125733,40.724391],[-4.061397,40.700666],[-4.051694,40.714319]]]]},"properties":{"CUDIS":"2808701","NMUN":"Molinos, Los","NCA":"Comunidad de Madrid"}},{"type":"Feature","geometry":{"type":"MultiPolygon","coordinates":[[[[-3.474499,41.095143],[-3.5411,41.149667],[-3.547336,41.134743],[-3.542178,41.050417],[-3.485185,41.063775],[-3.474499,41.095143]]]]},"properties":{"CUDIS":"2808801","NMUN":"Montejo de la Sierra","NCA":"Comunidad de Madrid"}},{"type":"Feature","geometry":{"type":"MultiPolygon","coordinates":[[[[-3.877005,40.288296],[-3.943387,40.261885],[-3.936934,40.24968],[-3.904108,40.234727],[-3.884498,40.232107],[-3.851526,40.236843],[-3.839465,40.276976],[-3.838691,40.278089],[-3.841116,40.285747],[-3.877005,40.288296]]]]},"properties":{"CUDIS":"2808901","NMUN":"Moraleja de Enmedio","NCA":"Comunidad de Madrid"}},{"type":"Feature","geometry":{"type":"MultiPolygon","coordinates":[[[[-3.925758,40.678947],[-3.940725,40.712553],[-3.949835,40.716961],[-3.997497,40.690427],[-3.995265,40.681102],[-3.958087,40.632854],[-3.953065,40.597438],[-3.879674,40.651532],[-3.873368,40.657087],[-3.918218,40.649289],[-3.927849,40.657257],[-3.919235,40.672846],[-3.915944,40.675305],[-3.915117,40.67591],[-3.905984,40.682214],[-3.925758,40.678947]]]]},"properties":{"CUDIS":"2809001","NMUN":"Moralzarzal","NCA":"Comunidad de Madrid"}},{"type":"Feature","geometry":{"type":"MultiPolygon","coordinates":[[[[-3.42123,40.200514],[-3.394509,40.219016],[-3.423258,40.2547],[-3.44703,40.257468],[-3.42123,40.200514]]]]},"properties":{"CUDIS":"2809101","NMUN":"Morata de Tajuña","NCA":"Comunidad de Madrid"}},{"type":"Feature","geometry":{"type":"MultiPolygon","coordinates":[[[[-3.42123,40.200514],[-3.44703,40.257468],[-3.482663,40.256935],[-3.498247,40.216883],[-3.423073,40.196954],[-3.42123,40.200514]]]]},"properties":{"CUDIS":"2809102","NMUN":"Morata de Tajuña","NCA":"Comunidad de Madrid"}},{"type":"Feature","geometry":{"type":"MultiPolygon","coordinates":[[[[-3.921542,40.302576],[-3.864212,40.322578],[-3.901973,40.347563],[-3.94151,40.300163],[-3.941763,40.297179],[-3.921542,40.302576]]]]},"properties":{"CUDIS":"2809201","NMUN":"Móstoles","NCA":"Comunidad de Madrid"}},{"type":"Feature","geometry":{"type":"MultiPolygon","coordinates":[[[[-3.901973,40.347563],[-3.864212,40.322578],[-3.864108,40.322633],[-3.854252,40.33201],[-3.870925,40.353118],[-3.901973,40.347563]]]]},"properties":{"CUDIS":"2809202","NMUN":"Móstoles","NCA":"Comunidad de Madrid"}},{"type":"Feature","geometry":{"type":"MultiPolygon","coordinates":[[[[-3.864108,40.322633],[-3.842991,40.314958],[-3.841769,40.314828],[-3.844037,40.324239],[-3.853469,40.332631],[-3.854252,40.33201],[-3.864108,40.322633]]]]},"properties":{"CUDIS":"2809203","NMUN":"Móstoles","NCA":"Comunidad de Madrid"}},{"type":"Feature","geometry":{"type":"MultiPolygon","coordinates":[[[[-3.877005,40.288296],[-3.841116,40.285747],[-3.842991,40.314958],[-3.864108,40.322633],[-3.864212,40.322578],[-3.921542,40.302576],[-3.877005,40.288296]]]]},"properties":{"CUDIS":"2809204","NMUN":"Móstoles","NCA":"Comunidad de Madrid"}},{"type":"Feature","geometry":{"type":"MultiPolygon","coordinates":[[[[-3.979527,40.784494],[-4.002369,40.788434],[-4.040474,40.718687],[-4.004857,40.710528],[-3.968577,40.767128],[-3.979527,40.784494]]]]},"properties":{"CUDIS":"2809301","NMUN":"Navacerrada","NCA":"Comunidad de Madrid"}},{"type":"Feature","geometry":{"type":"MultiPolygon","coordinates":[[[[-3.652958,40.83351],[-3.671131,40.833476],[-3.701435,40.799809],[-3.65962,40.804865],[-3.652958,40.83351]]]]},"properties":{"CUDIS":"2809401","NMUN":"Navalafuente","NCA":"Comunidad de Madrid"}},{"type":"Feature","geometry":{"type":"MultiPolygon","coordinates":[[[[-4.078539,40.441176],[-4.128233,40.522043],[-4.132012,40.518946],[-4.141313,40.50626],[-4.169853,40.436869],[-4.146951,40.364697],[-4.13665,40.369871],[-4.113024,40.402483],[-4.078539,40.441176]]]]},"properties":{"CUDIS":"2809501","NMUN":"Navalagamella","NCA":"Comunidad de Madrid"}},{"type":"Feature","geometry":{"type":"MultiPolygon","coordinates":[[[[-4.023768,40.249019],[-3.94638,40.224598],[-3.936934,40.24968],[-3.943387,40.261885],[-3.942062,40.291682],[-3.941523,40.292723],[-3.941763,40.297179],[-3.94151,40.300163],[-4.006389,40.339387],[-4.070105,40.335066],[-4.080456,40.26694],[-4.023768,40.249019]]]]},"properties":{"CUDIS":"2809601","NMUN":"Navalcarnero","NCA":"Comunidad de Madrid"}},{"type":"Feature","geometry":{"type":"MultiPolygon","coordinates":[[[[-3.679357,40.992149],[-3.748406,41.03664],[-3.766956,41.019019],[-3.770637,41.013184],[-3.738586,40.974934],[-3.679357,40.992149]]]]},"properties":{"CUDIS":"2809701","NMUN":"Navarredonda y San Mamés","NCA":"Comunidad de Madrid"}},{"type":"Feature","geometry":{"type":"MultiPolygon","coordinates":[[[[-4.253152,40.405161],[-4.323974,40.418339],[-4.321203,40.410385],[-4.304657,40.367492],[-4.236429,40.326498],[-4.23158,40.334084],[-4.235659,40.393258],[-4.253152,40.405161]]]]},"properties":{"CUDIS":"2809901","NMUN":"Navas del Rey","NCA":"Comunidad de Madrid"}},{"type":"Feature","geometry":{"type":"MultiPolygon","coordinates":[[[[-3.278502,40.346183],[-3.233942,40.358339],[-3.227335,40.385442],[-3.219319,40.403049],[-3.278569,40.394412],[-3.273743,40.380519],[-3.278502,40.346183]]]]},"properties":{"CUDIS":"2810001","NMUN":"Nuevo Baztán","NCA":"Comunidad de Madrid"}},{"type":"Feature","geometry":{"type":"MultiPolygon","coordinates":[[[[-3.176821,40.374167],[-3.227335,40.385442],[-3.233942,40.358339],[-3.20454,40.344022],[-3.176821,40.374167]]]]},"properties":{"CUDIS":"2810101","NMUN":"Olmeda de las Fuentes","NCA":"Comunidad de Madrid"}},{"type":"Feature","geometry":{"type":"MultiPolygon","coordinates":[[[[-3.216267,40.312882],[-3.252135,40.303479],[-3.197305,40.25767],[-3.18034,40.301933],[-3.182069,40.304556],[-3.216267,40.312882]]]]},"properties":{"CUDIS":"2810201","NMUN":"Orusco de Tajuña","NCA":"Comunidad de Madrid"}},{"type":"Feature","geometry":{"type":"MultiPolygon","coordinates":[[[[-3.53084,40.471281],[-3.499501,40.471821],[-3.478154,40.486971],[-3.479609,40.494623],[-3.512216,40.538637],[-3.544055,40.569783],[-3.553089,40.53225],[-3.55426,40.511334],[-3.53084,40.471281]]]]},"properties":{"CUDIS":"2810401","NMUN":"Paracuellos de Jarama","NCA":"Comunidad de Madrid"}},{"type":"Feature","geometry":{"type":"MultiPolygon","coordinates":[[[[-3.779938,40.209464],[-3.733458,40.211048],[-3.741177,40.254276],[-3.800968,40.250243],[-3.807607,40.229418],[-3.803363,40.22],[-3.779938,40.209464]]]]},"properties":{"CUDIS":"2810601","NMUN":"Parla","NCA":"Comunidad de Madrid"}},{"type":"Feature","geometry":{"type":"MultiPolygon","coordinates":[[[[-3.451287,40.912865],[-3.497066,40.909811],[-3.517819,40.904929],[-3.524743,40.876125],[-3.470238,40.852063],[-3.44147,40.881517],[-3.451287,40.912865]]]]},"properties":{"CUDIS":"2810701","NMUN":"Patones","NCA":"Comunidad de Madrid"}},{"type":"Feature","geometry":{"type":"MultiPolygon","coordinates":[[[[-3.607546,40.714369],[-3.59383,40.750557],[-3.608561,40.779662],[-3.675833,40.728382],[-3.677055,40.723284],[-3.607546,40.714369]]]]},"properties":{"CUDIS":"2810801","NMUN":"Pedrezuela","NCA":"Comunidad de Madrid"}},{"type":"Feature","geometry":{"type":"MultiPolygon","coordinates":[[[[-4.304657,40.367492],[-4.331096,40.375436],[-4.345544,40.354627],[-4.323114,40.344215],[-4.304657,40.367492]]]]},"properties":{"CUDIS":"2810901","NMUN":"Pelayos de la Presa","NCA":"Comunidad de Madrid"}},{"type":"Feature","geometry":{"type":"MultiPolygon","coordinates":[[[[-3.333913,40.264221],[-3.348381,40.273796],[-3.369746,40.265333],[-3.423258,40.2547],[-3.394509,40.219016],[-3.320357,40.177984],[-3.297981,40.190528],[-3.333913,40.264221]]]]},"properties":{"CUDIS":"2811001","NMUN":"Perales de Tajuña","NCA":"Comunidad de Madrid"}},{"type":"Feature","geometry":{"type":"MultiPolygon","coordinates":[[[[-3.155577,40.439425],[-3.198597,40.442252],[-3.211158,40.434431],[-3.219319,40.403049],[-3.227335,40.385442],[-3.176821,40.374167],[-3.150126,40.373422],[-3.130597,40.40512],[-3.155577,40.439425]]]]},"properties":{"CUDIS":"2811101","NMUN":"Pezuela de las Torres","NCA":"Comunidad de Madrid"}},{"type":"Feature","geometry":{"type":"MultiPolygon","coordinates":[[[[-3.78706,40.9133],[-3.844512,40.982368],[-3.880244,40.974662],[-3.880807,40.972959],[-3.88078,40.972786],[-3.808662,40.888235],[-3.78706,40.9133]]]]},"properties":{"CUDIS":"2811201","NMUN":"Pinilla del Valle","NCA":"Comunidad de Madrid"}},{"type":"Feature","geometry":{"type":"MultiPolygon","coordinates":[[[[-3.687344,40.213598],[-3.704524,40.267837],[-3.739536,40.270935],[-3.740172,40.264477],[-3.741177,40.254276],[-3.733458,40.211048],[-3.700003,40.198927],[-3.687344,40.213598]]]]},"properties":{"CUDIS":"2811301","NMUN":"Pinto","NCA":"Comunidad de Madrid"}},{"type":"Feature","geometry":{"type":"MultiPolygon","coordinates":[[[[-3.704524,40.267837],[-3.687344,40.213598],[-3.68353,40.215247],[-3.643718,40.229691],[-3.622909,40.266375],[-3.702822,40.267678],[-3.704524,40.267837]]]]},"properties":{"CUDIS":"2811302","NMUN":"Pinto","NCA":"Comunidad de Madrid"}},{"type":"Feature","geometry":{"type":"MultiPolygon","coordinates":[[[[-3.609068,41.07636],[-3.616075,41.069866],[-3.618035,41.012975],[-3.580426,40.991021],[-3.575219,41.024003],[-3.587411,41.043446],[-3.609068,41.07636]]]]},"properties":{"CUDIS":"2811401","NMUN":"Piñuécar-Gandullas","NCA":"Comunidad de Madrid"}},{"type":"Feature","geometry":{"type":"MultiPolygon","coordinates":[[[[-3.835233,40.396271],[-3.774605,40.400313],[-3.779667,40.444178],[-3.797103,40.433879],[-3.812121,40.4638],[-3.834354,40.464416],[-3.863129,40.444082],[-3.837815,40.402973],[-3.835233,40.396271]]]]},"properties":{"CUDIS":"2811501","NMUN":"Pozuelo de Alarcón","NCA":"Comunidad de Madrid"}},{"type":"Feature","geometry":{"type":"MultiPolygon","coordinates":[[[[-3.812121,40.4638],[-3.797103,40.433879],[-3.779667,40.444178],[-3.812121,40.4638]]]]},"properties":{"CUDIS":"2811502","NMUN":"Pozuelo de Alarcón","NCA":"Comunidad de Madrid"}},{"type":"Feature","geometry":{"type":"MultiPolygon","coordinates":[[[[-3.273743,40.380519],[-3.312153,40.400614],[-3.352598,40.36655],[-3.356079,40.36225],[-3.312861,40.328616],[-3.288195,40.332713],[-3.278502,40.346183],[-3.273743,40.380519]]]]},"properties":{"CUDIS":"2811601","NMUN":"Pozuelo del Rey","NCA":"Comunidad de Madrid"}},{"type":"Feature","geometry":{"type":"MultiPolygon","coordinates":[[[[-3.467178,41.048087],[-3.485185,41.063775],[-3.542178,41.050417],[-3.559032,41.048307],[-3.557562,41.029122],[-3.491926,41.012554],[-3.467178,41.048087]]]]},"properties":{"CUDIS":"2811701","NMUN":"Prádena del Rincón","NCA":"Comunidad de Madrid"}},{"type":"Feature","geometry":{"type":"MultiPolygon","coordinates":[[[[-3.438935,41.042669],[-3.467178,41.048087],[-3.491926,41.012554],[-3.495802,40.994039],[-3.492977,40.978112],[-3.484157,40.962638],[-3.421587,40.967283],[-3.41835,40.973384],[-3.394501,41.000253],[-3.407998,41.016341],[-3.438935,41.042669]]]]},"properties":{"CUDIS":"2811801","NMUN":"Puebla de la Sierra","NCA":"Comunidad de Madrid"}},{"type":"Feature","geometry":{"type":"MultiPolygon","coordinates":[[[[-4.026024,40.428221],[-4.041734,40.448701],[-4.078539,40.441176],[-4.113024,40.402483],[-4.046491,40.388313],[-4.026024,40.428221]]]]},"properties":{"CUDIS":"2811901","NMUN":"Quijorna","NCA":"Comunidad de Madrid"}},{"type":"Feature","geometry":{"type":"MultiPolygon","coordinates":[[[[-3.819444,40.860538],[-3.898699,40.958322],[-3.904208,40.956544],[-3.920087,40.937727],[-3.937652,40.926456],[-3.945615,40.903559],[-3.944841,40.877073],[-3.978152,40.78733],[-3.838174,40.812307],[-3.82944,40.813782],[-3.79824,40.848999],[-3.819444,40.860538]]]]},"properties":{"CUDIS":"2812001","NMUN":"Rascafría","NCA":"Comunidad de Madrid"}},{"type":"Feature","geometry":{"type":"MultiPolygon","coordinates":[[[[-3.604707,40.84218],[-3.616632,40.84111],[-3.613313,40.809787],[-3.595865,40.790992],[-3.574007,40.790905],[-3.604707,40.84218]]]]},"properties":{"CUDIS":"2812101","NMUN":"Redueña","NCA":"Comunidad de Madrid"}},{"type":"Feature","geometry":{"type":"MultiPolygon","coordinates":[[[[-3.382878,40.683217],[-3.400379,40.690662],[-3.468545,40.689937],[-3.48268,40.670406],[-3.420274,40.645845],[-3.382137,40.63047],[-3.380258,40.632854],[-3.365452,40.650735],[-3.382878,40.683217]]]]},"properties":{"CUDIS":"2812201","NMUN":"Ribatejada","NCA":"Comunidad de Madrid"}},{"type":"Feature","geometry":{"type":"MultiPolygon","coordinates":[[[[-3.519857,40.409813],[-3.553422,40.355859],[-3.576132,40.314882],[-3.571506,40.287119],[-3.519798,40.294281],[-3.471602,40.338111],[-3.500293,40.377966],[-3.503172,40.40726],[-3.519857,40.409813]]]]},"properties":{"CUDIS":"2812301","NMUN":"Rivas-Vaciamadrid","NCA":"Comunidad de Madrid"}},{"type":"Feature","geometry":{"type":"MultiPolygon","coordinates":[[[[-3.484157,40.962638],[-3.492977,40.978112],[-3.562446,40.956175],[-3.549733,40.921244],[-3.50259,40.924557],[-3.484157,40.962638]]]]},"properties":{"CUDIS":"2812401","NMUN":"Robledillo de la Jara","NCA":"Comunidad de Madrid"}},{"type":"Feature","geometry":{"type":"MultiPolygon","coordinates":[[[[-4.214877,40.447535],[-4.207773,40.49854],[-4.141313,40.50626],[-4.132012,40.518946],[-4.153899,40.531529],[-4.196805,40.55913],[-4.261779,40.531116],[-4.29361,40.445891],[-4.339002,40.431704],[-4.323974,40.418339],[-4.253152,40.405161],[-4.214877,40.447535]]]]},"properties":{"CUDIS":"2812501","NMUN":"Robledo de Chavela","NCA":"Comunidad de Madrid"}},{"type":"Feature","geometry":{"type":"MultiPolygon","coordinates":[[[[-3.566007,41.113893],[-3.613703,41.149053],[-3.61984,41.143168],[-3.634212,41.125761],[-3.64316,41.120634],[-3.599775,41.096137],[-3.566007,41.113893]]]]},"properties":{"CUDIS":"2812601","NMUN":"Robregordo","NCA":"Comunidad de Madrid"}},{"type":"Feature","geometry":{"type":"MultiPolygon","coordinates":[[[[-3.933433,40.499681],[-3.869075,40.482381],[-3.836726,40.475124],[-3.836686,40.479381],[-3.885499,40.574602],[-3.945368,40.551241],[-3.93976,40.508206],[-3.933433,40.499681]]]]},"properties":{"CUDIS":"2812701","NMUN":"Rozas de Madrid, Las","NCA":"Comunidad de Madrid"}},{"type":"Feature","geometry":{"type":"MultiPolygon","coordinates":[[[[-4.472228,40.319531],[-4.526413,40.344908],[-4.546471,40.34211],[-4.544269,40.330185],[-4.555492,40.277045],[-4.556012,40.266201],[-4.494443,40.278517],[-4.472228,40.319531]]]]},"properties":{"CUDIS":"2812801","NMUN":"Rozas de Puerto Real","NCA":"Comunidad de Madrid"}},{"type":"Feature","geometry":{"type":"MultiPolygon","coordinates":[[[[-3.677055,40.723284],[-3.639332,40.639196],[-3.591791,40.649165],[-3.593683,40.654803],[-3.607546,40.714369],[-3.677055,40.723284]]]]},"properties":{"CUDIS":"2812901","NMUN":"San Agustín del Guadalix","NCA":"Comunidad de Madrid"}},{"type":"Feature","geometry":{"type":"MultiPolygon","coordinates":[[[[-3.531194,40.420085],[-3.519857,40.409813],[-3.503172,40.40726],[-3.439931,40.412549],[-3.41187,40.425562],[-3.426839,40.453183],[-3.447397,40.446327],[-3.459932,40.438634],[-3.489885,40.454746],[-3.499501,40.471821],[-3.53084,40.471281],[-3.531511,40.447265],[-3.531148,40.446875],[-3.527997,40.435506],[-3.537072,40.425244],[-3.531194,40.420085]]]]},"properties":{"CUDIS":"2813001","NMUN":"San Fernando de Henares","NCA":"Comunidad de Madrid"}},{"type":"Feature","geometry":{"type":"MultiPolygon","coordinates":[[[[-4.152172,40.617842],[-4.127263,40.611674],[-4.152006,40.592394],[-4.169431,40.60881],[-4.167175,40.571287],[-4.160542,40.562548],[-4.092782,40.630683],[-4.032999,40.630156],[-4.168064,40.647913],[-4.161418,40.623492],[-4.152172,40.617842]]]]},"properties":{"CUDIS":"2813101","NMUN":"San Lorenzo de El Escorial","NCA":"Comunidad de Madrid"}},{"type":"Feature","geometry":{"type":"MultiPolygon","coordinates":[[[[-4.169431,40.60881],[-4.152006,40.592394],[-4.127263,40.611674],[-4.152172,40.617842],[-4.169431,40.60881]]]]},"properties":{"CUDIS":"2813102","NMUN":"San Lorenzo de El Escorial","NCA":"Comunidad de Madrid"}},{"type":"Feature","geometry":{"type":"MultiPolygon","coordinates":[[[[-3.560279,40.190064],[-3.498247,40.216883],[-3.482663,40.256935],[-3.519798,40.294281],[-3.571506,40.287119],[-3.622909,40.266375],[-3.643718,40.229691],[-3.591478,40.196341],[-3.560279,40.190064]]]]},"properties":{"CUDIS":"2813201","NMUN":"San Martín de la Vega","NCA":"Comunidad de Madrid"}},{"type":"Feature","geometry":{"type":"MultiPolygon","coordinates":[[[[-4.236429,40.326498],[-4.304657,40.367492],[-4.321203,40.410385],[-4.42188,40.406401],[-4.460951,40.340493],[-4.453814,40.333093],[-4.379663,40.318011],[-4.356387,40.308621],[-4.295028,40.322624],[-4.236429,40.326498]],[[-4.304657,40.367492],[-4.323114,40.344215],[-4.345544,40.354627],[-4.331096,40.375436],[-4.304657,40.367492]]]]},"properties":{"CUDIS":"2813301","NMUN":"San Martín de Valdeiglesias","NCA":"Comunidad de Madrid"}},{"type":"Feature","geometry":{"type":"MultiPolygon","coordinates":[[[[-3.673086,40.586905],[-3.626195,40.540283],[-3.553089,40.53225],[-3.544055,40.569783],[-3.539625,40.5823],[-3.584562,40.627365],[-3.625832,40.616752],[-3.673086,40.586905]]]]},"properties":{"CUDIS":"2813401","NMUN":"San Sebastián de los Reyes","NCA":"Comunidad de Madrid"}},{"type":"Feature","geometry":{"type":"MultiPolygon","coordinates":[[[[-4.161418,40.623492],[-4.28997,40.627995],[-4.285818,40.578922],[-4.289246,40.564146],[-4.261779,40.531116],[-4.196805,40.55913],[-4.167175,40.571287],[-4.169431,40.60881],[-4.152172,40.617842],[-4.161418,40.623492]]]]},"properties":{"CUDIS":"2813501","NMUN":"Santa María de la Alameda","NCA":"Comunidad de Madrid"}},{"type":"Feature","geometry":{"type":"MultiPolygon","coordinates":[[[[-3.201229,40.498752],[-3.258189,40.484171],[-3.235205,40.444358],[-3.211158,40.434431],[-3.198597,40.442252],[-3.195395,40.478408],[-3.201229,40.498752]]]]},"properties":{"CUDIS":"2813601","NMUN":"Santorcaz","NCA":"Comunidad de Madrid"}},{"type":"Feature","geometry":{"type":"MultiPolygon","coordinates":[[[[-3.231782,40.539391],[-3.289853,40.531748],[-3.289836,40.531717],[-3.298708,40.494376],[-3.258189,40.484171],[-3.201229,40.498752],[-3.20011,40.514635],[-3.231782,40.539391]]]]},"properties":{"CUDIS":"2813701","NMUN":"Santos de la Humosa, Los","NCA":"Comunidad de Madrid"}},{"type":"Feature","geometry":{"type":"MultiPolygon","coordinates":[[[[-3.616075,41.069866],[-3.628132,41.068858],[-3.637234,41.029059],[-3.634539,41.020895],[-3.618035,41.012975],[-3.616075,41.069866]]]]},"properties":{"CUDIS":"2813801","NMUN":"Serna del Monte, La","NCA":"Comunidad de Madrid"}},{"type":"Feature","geometry":{"type":"MultiPolygon","coordinates":[[[[-3.883281,40.189014],[-3.876246,40.191106],[-3.869082,40.201077],[-3.884498,40.232107],[-3.904108,40.234727],[-3.925088,40.200068],[-3.883281,40.189014]]]]},"properties":{"CUDIS":"2814001","NMUN":"Serranillos del Valle","NCA":"Comunidad de Madrid"}},{"type":"Feature","geometry":{"type":"MultiPolygon","coordinates":[[[[-4.006389,40.339387],[-4.005284,40.359292],[-4.035161,40.378373],[-4.074126,40.342973],[-4.070105,40.335066],[-4.006389,40.339387]]]]},"properties":{"CUDIS":"2814101","NMUN":"Sevilla la Nueva","NCA":"Comunidad de Madrid"}},{"type":"Feature","geometry":{"type":"MultiPolygon","coordinates":[[[[-3.539704,41.165011],[-3.613703,41.149053],[-3.566007,41.113893],[-3.564388,41.114328],[-3.547336,41.134743],[-3.5411,41.149667],[-3.539704,41.165011]]]]},"properties":{"CUDIS":"2814301","NMUN":"Somosierra","NCA":"Comunidad de Madrid"}},{"type":"Feature","geometry":{"type":"MultiPolygon","coordinates":[[[[-3.733524,40.730893],[-3.82944,40.813782],[-3.838174,40.812307],[-3.800604,40.711089],[-3.733524,40.730893]]]]},"properties":{"CUDIS":"2814401","NMUN":"Soto del Real","NCA":"Comunidad de Madrid"}},{"type":"Feature","geometry":{"type":"MultiPolygon","coordinates":[[[[-3.448874,40.7331],[-3.451284,40.73825],[-3.498281,40.788881],[-3.504507,40.789175],[-3.511573,40.788496],[-3.543967,40.735035],[-3.525897,40.732533],[-3.468545,40.689937],[-3.43861,40.734979],[-3.448874,40.7331]]]]},"properties":{"CUDIS":"2814501","NMUN":"Talamanca de Jarama","NCA":"Comunidad de Madrid"}},{"type":"Feature","geometry":{"type":"MultiPolygon","coordinates":[[[[-3.285142,40.261972],[-3.333913,40.264221],[-3.297981,40.190528],[-3.270434,40.214779],[-3.285142,40.261972]]]]},"properties":{"CUDIS":"2814601","NMUN":"Tielmes","NCA":"Comunidad de Madrid"}},{"type":"Feature","geometry":{"type":"MultiPolygon","coordinates":[[[[-3.557586,40.125239],[-3.561957,40.171128],[-3.583742,40.128514],[-3.557586,40.125239]]]]},"properties":{"CUDIS":"2814701","NMUN":"Titulcia","NCA":"Comunidad de Madrid"}},{"type":"Feature","geometry":{"type":"MultiPolygon","coordinates":[[[[-3.478154,40.486971],[-3.475258,40.456847],[-3.432186,40.46798],[-3.429437,40.468877],[-3.429077,40.510888],[-3.435099,40.508887],[-3.479609,40.494623],[-3.478154,40.486971]]]]},"properties":{"CUDIS":"2814801","NMUN":"Torrejón de Ardoz","NCA":"Comunidad de Madrid"}},{"type":"Feature","geometry":{"type":"MultiPolygon","coordinates":[[[[-3.475386,40.456811],[-3.459932,40.438634],[-3.447397,40.446327],[-3.432186,40.46798],[-3.475258,40.456847],[-3.475386,40.456811]]]]},"properties":{"CUDIS":"2814802","NMUN":"Torrejón de Ardoz","NCA":"Comunidad de Madrid"}},{"type":"Feature","geometry":{"type":"MultiPolygon","coordinates":[[[[-3.459932,40.438634],[-3.475386,40.456811],[-3.489885,40.454746],[-3.459932,40.438634]]]]},"properties":{"CUDIS":"2814803","NMUN":"Torrejón de Ardoz","NCA":"Comunidad de Madrid"}},{"type":"Feature","geometry":{"type":"MultiPolygon","coordinates":[[[[-3.489885,40.454746],[-3.475386,40.456811],[-3.475258,40.456847],[-3.478154,40.486971],[-3.499501,40.471821],[-3.489885,40.454746]]]]},"properties":{"CUDIS":"2814804","NMUN":"Torrejón de Ardoz","NCA":"Comunidad de Madrid"}},{"type":"Feature","geometry":{"type":"MultiPolygon","coordinates":[[[[-3.800054,40.175652],[-3.779938,40.209464],[-3.803363,40.22],[-3.821101,40.205162],[-3.8068,40.177302],[-3.800054,40.175652]]]]},"properties":{"CUDIS":"2814901","NMUN":"Torrejón de la Calzada","NCA":"Comunidad de Madrid"}},{"type":"Feature","geometry":{"type":"MultiPolygon","coordinates":[[[[-3.717949,40.146402],[-3.702523,40.192928],[-3.700003,40.198927],[-3.733458,40.211048],[-3.779938,40.209464],[-3.800054,40.175652],[-3.771871,40.139576],[-3.742137,40.134175],[-3.717949,40.146402]]]]},"properties":{"CUDIS":"2815001","NMUN":"Torrejón de Velasco","NCA":"Comunidad de Madrid"}},{"type":"Feature","geometry":{"type":"MultiPolygon","coordinates":[[[[-3.536535,40.862448],[-3.544866,40.85753],[-3.512482,40.838441],[-3.536535,40.862448]]]]},"properties":{"CUDIS":"2815101","NMUN":"Torrelaguna","NCA":"Comunidad de Madrid"}},{"type":"Feature","geometry":{"type":"MultiPolygon","coordinates":[[[[-3.504507,40.789175],[-3.502205,40.797634],[-3.512482,40.838441],[-3.544866,40.85753],[-3.571011,40.850992],[-3.604707,40.84218],[-3.574007,40.790905],[-3.511573,40.788496],[-3.504507,40.789175]]]]},"properties":{"CUDIS":"2815102","NMUN":"Torrelaguna","NCA":"Comunidad de Madrid"}},{"type":"Feature","geometry":{"type":"MultiPolygon","coordinates":[[[[-3.945368,40.551241],[-3.885499,40.574602],[-3.883721,40.585278],[-3.953065,40.597438],[-3.945368,40.551241]]]]},"properties":{"CUDIS":"2815201","NMUN":"Torrelodones","NCA":"Comunidad de Madrid"}},{"type":"Feature","geometry":{"type":"MultiPolygon","coordinates":[[[[-3.470238,40.852063],[-3.524743,40.876125],[-3.536535,40.862448],[-3.512482,40.838441],[-3.502205,40.797634],[-3.470238,40.852063]]]]},"properties":{"CUDIS":"2815301","NMUN":"Torremocha de Jarama","NCA":"Comunidad de Madrid"}},{"type":"Feature","geometry":{"type":"MultiPolygon","coordinates":[[[[-3.352598,40.36655],[-3.312153,40.400614],[-3.331396,40.423704],[-3.408734,40.453458],[-3.426839,40.453183],[-3.41187,40.425562],[-3.352598,40.36655]]]]},"properties":{"CUDIS":"2815401","NMUN":"Torres de la Alameda","NCA":"Comunidad de Madrid"}},{"type":"Feature","geometry":{"type":"MultiPolygon","coordinates":[[[[-3.173398,40.234169],[-3.195381,40.24762],[-3.270434,40.214779],[-3.197705,40.156141],[-3.149766,40.161526],[-3.150905,40.222838],[-3.173398,40.234169]]]]},"properties":{"CUDIS":"2815501","NMUN":"Valdaracete","NCA":"Comunidad de Madrid"}},{"type":"Feature","geometry":{"type":"MultiPolygon","coordinates":[[[[-3.321642,40.612164],[-3.316781,40.652709],[-3.365452,40.650735],[-3.380258,40.632854],[-3.371731,40.625768],[-3.382187,40.608166],[-3.338366,40.596825],[-3.330719,40.60092],[-3.321642,40.612164]]]]},"properties":{"CUDIS":"2815601","NMUN":"Valdeavero","NCA":"Comunidad de Madrid"}},{"type":"Feature","geometry":{"type":"MultiPolygon","coordinates":[[[[-3.320357,40.177984],[-3.394509,40.219016],[-3.42123,40.200514],[-3.423073,40.196954],[-3.385024,40.135338],[-3.377702,40.133647],[-3.320357,40.177984]]]]},"properties":{"CUDIS":"2815701","NMUN":"Valdelaguna","NCA":"Comunidad de Madrid"}},{"type":"Feature","geometry":{"type":"MultiPolygon","coordinates":[[[[-3.650424,40.879748],[-3.675331,40.892196],[-3.693988,40.880448],[-3.671131,40.833476],[-3.652958,40.83351],[-3.642808,40.85181],[-3.650424,40.879748]]]]},"properties":{"CUDIS":"2815801","NMUN":"Valdemanco","NCA":"Comunidad de Madrid"}},{"type":"Feature","geometry":{"type":"MultiPolygon","coordinates":[[[[-4.261779,40.531116],[-4.289246,40.564146],[-4.324099,40.547672],[-4.322033,40.517176],[-4.325441,40.459776],[-4.339002,40.431704],[-4.29361,40.445891],[-4.261779,40.531116]]]]},"properties":{"CUDIS":"2815901","NMUN":"Valdemaqueda","NCA":"Comunidad de Madrid"}},{"type":"Feature","geometry":{"type":"MultiPolygon","coordinates":[[[[-4.041734,40.448701],[-3.993279,40.47265],[-4.001148,40.485634],[-4.047286,40.5707],[-4.128233,40.522043],[-4.078539,40.441176],[-4.041734,40.448701]]]]},"properties":{"CUDIS":"2816001","NMUN":"Valdemorillo","NCA":"Comunidad de Madrid"}},{"type":"Feature","geometry":{"type":"MultiPolygon","coordinates":[[[[-3.667185,40.14336],[-3.637883,40.165032],[-3.613054,40.164639],[-3.607436,40.159969],[-3.591478,40.196341],[-3.643718,40.229691],[-3.68353,40.215247],[-3.702523,40.192928],[-3.717949,40.146402],[-3.712709,40.141818],[-3.667185,40.14336]]]]},"properties":{"CUDIS":"2816101","NMUN":"Valdemoro","NCA":"Comunidad de Madrid"}},{"type":"Feature","geometry":{"type":"MultiPolygon","coordinates":[[[[-3.702523,40.192928],[-3.68353,40.215247],[-3.687344,40.213598],[-3.700003,40.198927],[-3.702523,40.192928]]]]},"properties":{"CUDIS":"2816102","NMUN":"Valdemoro","NCA":"Comunidad de Madrid"}},{"type":"Feature","geometry":{"type":"MultiPolygon","coordinates":[[[[-3.490661,40.62506],[-3.453902,40.60727],[-3.44213,40.617532],[-3.420274,40.645845],[-3.48268,40.670406],[-3.482793,40.667953],[-3.490661,40.62506]]]]},"properties":{"CUDIS":"2816201","NMUN":"Valdeolmos-Alalpardo","NCA":"Comunidad de Madrid"}},{"type":"Feature","geometry":{"type":"MultiPolygon","coordinates":[[[[-3.446861,40.763751],[-3.498281,40.788881],[-3.451284,40.73825],[-3.446861,40.763751]]]]},"properties":{"CUDIS":"2816301","NMUN":"Valdepiélagos","NCA":"Comunidad de Madrid"}},{"type":"Feature","geometry":{"type":"MultiPolygon","coordinates":[[[[-3.48268,40.670406],[-3.468545,40.689937],[-3.525897,40.732533],[-3.556779,40.660932],[-3.482793,40.667953],[-3.48268,40.670406]]]]},"properties":{"CUDIS":"2816401","NMUN":"Valdetorres de Jarama","NCA":"Comunidad de Madrid"}},{"type":"Feature","geometry":{"type":"MultiPolygon","coordinates":[[[[-3.252135,40.303479],[-3.288195,40.332713],[-3.312861,40.328616],[-3.348381,40.273796],[-3.333913,40.264221],[-3.285142,40.261972],[-3.252135,40.303479]]]]},"properties":{"CUDIS":"2816501","NMUN":"Valdilecha","NCA":"Comunidad de Madrid"}},{"type":"Feature","geometry":{"type":"MultiPolygon","coordinates":[[[[-3.28789,40.418144],[-3.331396,40.423704],[-3.312153,40.400614],[-3.273743,40.380519],[-3.278569,40.394412],[-3.28789,40.418144]]]]},"properties":{"CUDIS":"2816601","NMUN":"Valverde de Alcalá","NCA":"Comunidad de Madrid"}},{"type":"Feature","geometry":{"type":"MultiPolygon","coordinates":[[[[-3.453475,40.343264],[-3.465822,40.388492],[-3.500293,40.377966],[-3.471602,40.338111],[-3.453475,40.343264]]]]},"properties":{"CUDIS":"2816701","NMUN":"Velilla de San Antonio","NCA":"Comunidad de Madrid"}},{"type":"Feature","geometry":{"type":"MultiPolygon","coordinates":[[[[-3.511573,40.788496],[-3.574007,40.790905],[-3.595865,40.790992],[-3.61023,40.785892],[-3.608561,40.779662],[-3.59383,40.750557],[-3.543967,40.735035],[-3.511573,40.788496]]]]},"properties":{"CUDIS":"2816801","NMUN":"Vellón, El","NCA":"Comunidad de Madrid"}},{"type":"Feature","geometry":{"type":"MultiPolygon","coordinates":[[[[-3.613313,40.809787],[-3.650973,40.801084],[-3.61023,40.785892],[-3.595865,40.790992],[-3.613313,40.809787]]]]},"properties":{"CUDIS":"2816901","NMUN":"Venturada","NCA":"Comunidad de Madrid"}},{"type":"Feature","geometry":{"type":"MultiPolygon","coordinates":[[[[-3.549388,40.101946],[-3.451033,40.118244],[-3.522343,40.136444],[-3.549388,40.101946]]]]},"properties":{"CUDIS":"2817001","NMUN":"Villaconejos","NCA":"Comunidad de Madrid"}},{"type":"Feature","geometry":{"type":"MultiPolygon","coordinates":[[[[-4.231481,40.276666],[-4.295028,40.322624],[-4.356387,40.308621],[-4.348217,40.236845],[-4.295471,40.218735],[-4.231481,40.276666]]]]},"properties":{"CUDIS":"2817101","NMUN":"Villa del Prado","NCA":"Comunidad de Madrid"}},{"type":"Feature","geometry":{"type":"MultiPolygon","coordinates":[[[[-3.267418,40.43929],[-3.32133,40.471997],[-3.348077,40.453429],[-3.408734,40.453458],[-3.331396,40.423704],[-3.28789,40.418144],[-3.267418,40.43929]]]]},"properties":{"CUDIS":"2817201","NMUN":"Villalbilla","NCA":"Comunidad de Madrid"}},{"type":"Feature","geometry":{"type":"MultiPolygon","coordinates":[[[[-3.201037,40.085586],[-3.28643,40.052334],[-3.219939,40.059043],[-3.188618,40.082499],[-3.201037,40.085586]]]]},"properties":{"CUDIS":"2817301","NMUN":"Villamanrique de Tajo","NCA":"Comunidad de Madrid"}},{"type":"Feature","geometry":{"type":"MultiPolygon","coordinates":[[[[-4.070105,40.335066],[-4.074126,40.342973],[-4.102911,40.335852],[-4.16968,40.318396],[-4.172486,40.2881],[-4.14362,40.244864],[-4.104245,40.241798],[-4.080456,40.26694],[-4.070105,40.335066]]]]},"properties":{"CUDIS":"2817401","NMUN":"Villamanta","NCA":"Comunidad de Madrid"}},{"type":"Feature","geometry":{"type":"MultiPolygon","coordinates":[[[[-4.102911,40.335852],[-4.13665,40.369871],[-4.146951,40.364697],[-4.182401,40.347774],[-4.187962,40.337852],[-4.16968,40.318396],[-4.102911,40.335852]]]]},"properties":{"CUDIS":"2817501","NMUN":"Villamantilla","NCA":"Comunidad de Madrid"}},{"type":"Feature","geometry":{"type":"MultiPolygon","coordinates":[[[[-3.948994,40.413779],[-3.944858,40.454856],[-3.936989,40.484486],[-3.993279,40.47265],[-4.041734,40.448701],[-4.026024,40.428221],[-3.946909,40.408039],[-3.948994,40.413779]]]]},"properties":{"CUDIS":"2817601","NMUN":"Villanueva de la Cañada","NCA":"Comunidad de Madrid"}},{"type":"Feature","geometry":{"type":"MultiPolygon","coordinates":[[[[-3.936989,40.484486],[-3.933433,40.499681],[-3.93976,40.508206],[-3.984655,40.516535],[-4.001148,40.485634],[-3.993279,40.47265],[-3.936989,40.484486]]]]},"properties":{"CUDIS":"2817701","NMUN":"Villanueva del Pardillo","NCA":"Comunidad de Madrid"}},{"type":"Feature","geometry":{"type":"MultiPolygon","coordinates":[[[[-4.046491,40.388313],[-4.113024,40.402483],[-4.13665,40.369871],[-4.102911,40.335852],[-4.074126,40.342973],[-4.035161,40.378373],[-4.046491,40.388313]]]]},"properties":{"CUDIS":"2817801","NMUN":"Villanueva de Perales","NCA":"Comunidad de Madrid"}},{"type":"Feature","geometry":{"type":"MultiPolygon","coordinates":[[[[-3.20454,40.344022],[-3.233942,40.358339],[-3.278502,40.346183],[-3.288195,40.332713],[-3.252135,40.303479],[-3.216267,40.312882],[-3.20454,40.344022]]]]},"properties":{"CUDIS":"2817901","NMUN":"Villar del Olmo","NCA":"Comunidad de Madrid"}},{"type":"Feature","geometry":{"type":"MultiPolygon","coordinates":[[[[-3.201037,40.085586],[-3.197705,40.156141],[-3.270434,40.214779],[-3.297981,40.190528],[-3.320357,40.177984],[-3.296616,40.131311],[-3.34841,40.097978],[-3.345027,40.080107],[-3.292622,40.052238],[-3.28643,40.052334],[-3.201037,40.085586]]]]},"properties":{"CUDIS":"2818001","NMUN":"Villarejo de Salvanés","NCA":"Comunidad de Madrid"}},{"type":"Feature","geometry":{"type":"MultiPolygon","coordinates":[[[[-3.94151,40.300163],[-3.901973,40.347563],[-3.870925,40.353118],[-3.867598,40.377683],[-3.948994,40.413779],[-3.946909,40.408039],[-4.005284,40.359292],[-4.006389,40.339387],[-3.94151,40.300163]]]]},"properties":{"CUDIS":"2818101","NMUN":"Villaviciosa de Odón","NCA":"Comunidad de Madrid"}},{"type":"Feature","geometry":{"type":"MultiPolygon","coordinates":[[[[-3.654215,41.007269],[-3.721423,41.065033],[-3.739276,41.053863],[-3.748406,41.03664],[-3.679357,40.992149],[-3.665603,40.995319],[-3.654215,41.007269]]]]},"properties":{"CUDIS":"2818201","NMUN":"Villavieja del Lozoya","NCA":"Comunidad de Madrid"}},{"type":"Feature","geometry":{"type":"MultiPolygon","coordinates":[[[[-4.160542,40.562548],[-4.167175,40.571287],[-4.196805,40.55913],[-4.153899,40.531529],[-4.160542,40.562548]]]]},"properties":{"CUDIS":"2818301","NMUN":"Zarzalejo","NCA":"Comunidad de Madrid"}},{"type":"Feature","geometry":{"type":"MultiPolygon","coordinates":[[[[-3.56863,40.904203],[-3.629385,40.961546],[-3.644461,40.9537],[-3.675331,40.892196],[-3.650424,40.879748],[-3.599347,40.88867],[-3.56863,40.904203]]]]},"properties":{"CUDIS":"2890101","NMUN":"Lozoyuela-Navas-Sieteiglesias","NCA":"Comunidad de Madrid"}},{"type":"Feature","geometry":{"type":"MultiPolygon","coordinates":[[[[-3.491926,41.012554],[-3.557562,41.029122],[-3.575219,41.024003],[-3.580426,40.991021],[-3.629385,40.961546],[-3.56863,40.904203],[-3.544698,40.904517],[-3.549733,40.921244],[-3.562446,40.956175],[-3.495802,40.994039],[-3.491926,41.012554]]]]},"properties":{"CUDIS":"2890201","NMUN":"Puentes Viejas","NCA":"Comunidad de Madrid"}},{"type":"Feature","geometry":{"type":"MultiPolygon","coordinates":[[[[-3.81051,40.60947],[-3.719436,40.5821],[-3.667975,40.629602],[-3.81051,40.60947]]]]},"properties":{"CUDIS":"2890301","NMUN":"Tres Cantos","NCA":"Comunidad de Madrid"}}]}
